{"type":"FeatureCollection","features":[{"type":"Feature","geometry":{"type":"LineString","coordinates":[[145.46342,-16.48486],[145.46554,-16.48635],[145.46374,-16.4961],[145.46287,-16.50769],[145.46443,-16.51502],[145.46758,-16.52039],[145.46783,-16.52252],[145.46708,-16.52441],[145.46167,-16.52834],[145.45718,-16.52367],[145.45278,-16.52221],[145.45068,-16.52076],[145.44146,-16.50854],[145.43966,-16.50671],[145.40459,-16.47828],[145.40284,-16.47756],[145.40083,-16.47731],[145.39554,-16.47853],[145.39419,-16.47912],[145.3897,-16.48269],[145.3818,-16.48507],[145.3792,-16.48483],[145.37753,-16.48336],[145.37286,-16.46839],[145.37366,-16.45976],[145.37174,-16.45532],[145.37148,-16.45382],[145.37293,-16.44203],[145.37356,-16.44105],[145.37663,-16.43978],[145.38004,-16.43681],[145.38554,-16.43574],[145.38672,-16.43506],[145.38752,-16.4336],[145.38811,-16.42821],[145.38785,-16.42521],[145.38165,-16.40318],[145.38112,-16.4009],[145.38129,-16.39989],[145.38881,-16.39361],[145.39433,-16.39137],[145.39566,-16.39123],[145.39827,-16.39223],[145.40792,-16.39325],[145.4171,-16.39],[145.41828,-16.38841],[145.41824,-16.38724],[145.41668,-16.38465],[145.41632,-16.3829],[145.41283,-16.38091],[145.41209,-16.37934],[145.41079,-16.37796],[145.41042,-16.37663],[145.41103,-16.37233],[145.41263,-16.36639],[145.41102,-16.36021],[145.40858,-16.35475],[145.40948,-16.34674],[145.40892,-16.34289],[145.41053,-16.33703],[145.40916,-16.33219],[145.40862,-16.32529],[145.40799,-16.32307],[145.40689,-16.32114],[145.40434,-16.31846],[145.40196,-16.31459],[145.39988,-16.31285],[145.39571,-16.31086],[145.39033,-16.30504],[145.38952,-16.30274],[145.38947,-16.29752],[145.38837,-16.29393],[145.38464,-16.2889],[145.37914,-16.28423],[145.38014,-16.27935],[145.3819,-16.27912],[145.38437,-16.27787],[145.38689,-16.27739],[145.39025,-16.27461],[145.39193,-16.2713],[145.39266,-16.26398],[145.39323,-16.26264],[145.3949,-16.26151],[145.39751,-16.26116],[145.39891,-16.25851],[145.4015,-16.25699],[145.39719,-16.25105],[145.3969,-16.24827],[145.39041,-16.24439],[145.38387,-16.24329],[145.3817,-16.24253],[145.37377,-16.2338],[145.36992,-16.23197],[145.3695,-16.23212],[145.36751,-16.23697],[145.36648,-16.24295],[145.36542,-16.24517],[145.3659,-16.24793],[145.36102,-16.24471],[145.35693,-16.24082],[145.353,-16.23993],[145.35111,-16.24061],[145.35078,-16.24136],[145.35099,-16.24181],[145.34836,-16.24672],[145.34506,-16.25046],[145.34321,-16.25089],[145.3419,-16.25192],[145.33818,-16.25116],[145.3364,-16.2497],[145.33457,-16.2505],[145.33368,-16.25031],[145.33025,-16.24661],[145.32926,-16.24602],[145.32953,-16.24508],[145.32809,-16.2445],[145.32788,-16.24319],[145.32826,-16.24221],[145.32789,-16.24169],[145.32543,-16.24213],[145.32544,-16.24412],[145.32491,-16.24435],[145.32544,-16.24412],[145.32543,-16.24213],[145.32789,-16.24169],[145.32826,-16.24221],[145.32788,-16.24319],[145.32809,-16.2445],[145.32953,-16.24508],[145.32926,-16.24602],[145.33025,-16.24661],[145.33368,-16.25031],[145.33457,-16.2505],[145.3364,-16.2497],[145.33818,-16.25116],[145.3419,-16.25192],[145.34321,-16.25089],[145.34506,-16.25046],[145.34836,-16.24672],[145.35099,-16.24181],[145.35078,-16.24136],[145.35111,-16.24061],[145.353,-16.23993],[145.35693,-16.24082],[145.36102,-16.24471],[145.3659,-16.24793],[145.36542,-16.24517],[145.36648,-16.24295],[145.36751,-16.23697],[145.3695,-16.23212],[145.36992,-16.23197],[145.37377,-16.2338],[145.3817,-16.24253],[145.38387,-16.24329],[145.39041,-16.24439],[145.3969,-16.24827],[145.39719,-16.25105],[145.4015,-16.25699],[145.39891,-16.25851],[145.39748,-16.26173],[145.39605,-16.26176],[145.39605,-16.26132],[145.39751,-16.26116],[145.39891,-16.25851],[145.40184,-16.25678],[145.40315,-16.25524],[145.41139,-16.25257],[145.41626,-16.25333],[145.41956,-16.25653],[145.42061,-16.25854],[145.42232,-16.25995],[145.4247,-16.26056],[145.42549,-16.2612],[145.42921,-16.26261],[145.43138,-16.26194],[145.43325,-16.2592],[145.43536,-16.2576],[145.43963,-16.2567],[145.44082,-16.25684],[145.44026,-16.25593],[145.43868,-16.25525],[145.43815,-16.25389],[145.43604,-16.25336],[145.43529,-16.25256],[145.43258,-16.25163],[145.43196,-16.24758],[145.43311,-16.24719],[145.43481,-16.24729],[145.43541,-16.2459],[145.43623,-16.24557],[145.43535,-16.24632],[145.43541,-16.2459],[145.43399,-16.24542],[145.43333,-16.24429],[145.43209,-16.24343],[145.4312,-16.24129],[145.42991,-16.24175],[145.42968,-16.24273],[145.42912,-16.24223],[145.42808,-16.24249],[145.42745,-16.24139],[145.42765,-16.24042],[145.42686,-16.23901],[145.42517,-16.23747],[145.42822,-16.23761],[145.429,-16.23806],[145.42966,-16.23734],[145.43109,-16.23776],[145.43213,-16.23867],[145.4326,-16.23821],[145.43219,-16.2379],[145.43175,-16.23823],[145.42966,-16.23734],[145.429,-16.23806],[145.42822,-16.23761],[145.42517,-16.23747],[145.42372,-16.23436],[145.42364,-16.23253],[145.42104,-16.2301],[145.42173,-16.22068],[145.42273,-16.21899],[145.42323,-16.21645],[145.42263,-16.21512],[145.42108,-16.214],[145.41969,-16.21366],[145.40747,-16.21356],[145.4056,-16.21252],[145.40486,-16.21128],[145.40467,-16.20985],[145.40529,-16.2081],[145.40618,-16.20721],[145.41025,-16.20484],[145.41135,-16.20315],[145.41226,-16.19789],[145.41487,-16.19076],[145.4139,-16.18606],[145.41509,-16.17528],[145.41552,-16.17452],[145.42029,-16.17372],[145.42941,-16.17449],[145.43247,-16.17384],[145.43584,-16.17526],[145.43893,-16.17516],[145.44034,-16.17447],[145.44264,-16.17058],[145.44342,-16.16799],[145.44294,-16.16333],[145.4433,-16.16108],[145.44302,-16.15673],[145.44005,-16.14673],[145.43909,-16.14522],[145.43637,-16.14331],[145.43095,-16.14207],[145.43047,-16.1412],[145.43092,-16.1385],[145.4312,-16.13796],[145.43227,-16.13751],[145.43586,-16.13811],[145.44093,-16.13779],[145.44328,-16.13929],[145.44467,-16.13972],[145.4457,-16.13961],[145.4464,-16.13877],[145.44773,-16.1382],[145.44926,-16.13847],[145.4509,-16.13674],[145.45238,-16.13132],[145.45373,-16.13023],[145.45399,-16.12829],[145.4556,-16.12767],[145.45685,-16.12798],[145.45755,-16.12753],[145.45763,-16.1269],[145.45672,-16.1252],[145.45788,-16.12121],[145.45704,-16.11803],[145.45739,-16.11444],[145.4569,-16.11324],[145.45667,-16.1097],[145.45781,-16.10867],[145.45728,-16.10515],[145.4587,-16.10048],[145.45878,-16.09791],[145.46066,-16.0917],[145.46142,-16.09094],[145.4623,-16.08889],[145.46005,-16.08814],[145.46021,-16.08792],[145.46005,-16.08814],[145.4623,-16.08889],[145.46142,-16.09094],[145.46066,-16.0917],[145.45878,-16.09791],[145.4587,-16.10048],[145.45728,-16.10515],[145.45781,-16.10867],[145.45667,-16.1097],[145.45666,-16.11145],[145.45739,-16.11444],[145.45704,-16.11803],[145.45788,-16.12121],[145.45672,-16.1252],[145.45763,-16.1269],[145.45755,-16.12753],[145.45685,-16.12798],[145.4556,-16.12767],[145.45399,-16.12829],[145.45373,-16.13023],[145.45238,-16.13132],[145.4509,-16.13674],[145.44926,-16.13847],[145.44773,-16.1382],[145.4464,-16.13877],[145.4457,-16.13961],[145.44467,-16.13972],[145.44328,-16.13929],[145.44093,-16.13779],[145.43586,-16.13811],[145.43227,-16.13751],[145.4312,-16.13796],[145.43092,-16.1385],[145.43047,-16.1412],[145.43095,-16.14207],[145.43637,-16.14331],[145.43909,-16.14522],[145.44005,-16.14673],[145.44302,-16.15673],[145.4433,-16.16108],[145.44294,-16.16333],[145.44342,-16.16799],[145.44264,-16.17058],[145.44034,-16.17447],[145.43893,-16.17516],[145.43584,-16.17526],[145.43247,-16.17384],[145.42941,-16.17449],[145.42029,-16.17372],[145.41552,-16.17452],[145.41509,-16.17528],[145.4139,-16.18606],[145.41487,-16.19076],[145.41226,-16.19789],[145.41135,-16.20315],[145.41025,-16.20484],[145.40618,-16.20721],[145.40529,-16.2081],[145.40467,-16.20985],[145.40486,-16.21128],[145.4056,-16.21252],[145.40747,-16.21356],[145.41969,-16.21366],[145.42108,-16.214],[145.42263,-16.21512],[145.42323,-16.21645],[145.42273,-16.21899],[145.42173,-16.22068],[145.42104,-16.2301],[145.42364,-16.23253],[145.42372,-16.23436],[145.42527,-16.23775],[145.42644,-16.2385],[145.42765,-16.24042],[145.42745,-16.24139],[145.42794,-16.24238],[145.42912,-16.24223],[145.42968,-16.24273],[145.42991,-16.24175],[145.4312,-16.24129],[145.43224,-16.24364],[145.43333,-16.24429],[145.43399,-16.24542],[145.43557,-16.24598],[145.43481,-16.24729],[145.43311,-16.24719],[145.43196,-16.24758],[145.43258,-16.25163],[145.43529,-16.25256],[145.43604,-16.25336],[145.43815,-16.25389],[145.43868,-16.25525],[145.44026,-16.25593],[145.4409,-16.25672],[145.43536,-16.2576],[145.43325,-16.2592],[145.43138,-16.26194],[145.42921,-16.26261],[145.42549,-16.2612],[145.4247,-16.26056],[145.42232,-16.25995],[145.42061,-16.25854],[145.41956,-16.25653],[145.4157,-16.25306],[145.41139,-16.25257],[145.40363,-16.25496],[145.40184,-16.25678],[145.39891,-16.25851],[145.39748,-16.26173],[145.39462,-16.26171],[145.39309,-16.26284],[145.39266,-16.26398],[145.39193,-16.2713],[145.38976,-16.27524],[145.38689,-16.27739],[145.38437,-16.27787],[145.3819,-16.27912],[145.38028,-16.27926],[145.37984,-16.27994],[145.37914,-16.28423],[145.38464,-16.2889],[145.38837,-16.29393],[145.38947,-16.29752],[145.38952,-16.30274],[145.39033,-16.30504],[145.39571,-16.31086],[145.39988,-16.31285],[145.40196,-16.31459],[145.40434,-16.31846],[145.40689,-16.32114],[145.40799,-16.32307],[145.40862,-16.32529],[145.40916,-16.33219],[145.41053,-16.33703],[145.40892,-16.34289],[145.40948,-16.34674],[145.40858,-16.35475],[145.41102,-16.36021],[145.41263,-16.36639],[145.41103,-16.37233],[145.41042,-16.37663],[145.41079,-16.37796],[145.41209,-16.37934],[145.41283,-16.38091],[145.41632,-16.3829],[145.41668,-16.38465],[145.41832,-16.38775],[145.41794,-16.38915],[145.4171,-16.39],[145.40792,-16.39325],[145.39827,-16.39223],[145.39566,-16.39123],[145.39433,-16.39137],[145.38881,-16.39361],[145.38148,-16.39958],[145.38111,-16.40051],[145.38129,-16.40176],[145.38798,-16.42584],[145.38808,-16.42864],[145.38752,-16.4336],[145.38698,-16.43477],[145.38604,-16.43554],[145.38025,-16.4367],[145.37663,-16.43978],[145.37311,-16.44152],[145.37148,-16.45439],[145.37336,-16.45882],[145.37386,-16.45921],[145.37291,-16.46754],[145.37303,-16.46965],[145.37671,-16.48002],[145.37724,-16.48277],[145.37823,-16.48418],[145.37975,-16.48502],[145.38138,-16.48514],[145.38854,-16.48312],[145.39115,-16.48182],[145.39419,-16.47912],[145.39925,-16.4775],[145.40211,-16.47741],[145.40459,-16.47828],[145.44048,-16.50746],[145.45128,-16.5213],[145.45278,-16.52221],[145.45718,-16.52367],[145.46164,-16.52805],[145.46694,-16.52454],[145.46783,-16.52252],[145.4671,-16.51966],[145.46443,-16.51502],[145.46268,-16.50624],[145.46311,-16.50496],[145.4639,-16.49478],[145.46554,-16.48635],[145.46342,-16.48486]]},"properties":{"mode":"drive","ids":["portdouglas","daintreevillage","ferry","alexandra","discovery","capetrib","portdouglas"],"km":198.1,"min":286,"legs":[{"from":"portdouglas","to":"daintreevillage","km":62.5,"min":85},{"from":"daintreevillage","to":"ferry","km":13.6,"min":40},{"from":"ferry","to":"alexandra","km":8.4,"min":18},{"from":"alexandra","to":"discovery","km":2.4,"min":5},{"from":"discovery","to":"capetrib","km":26.7,"min":38},{"from":"capetrib","to":"portdouglas","km":84.4,"min":100}]}}]}