{"type":"FeatureCollection","features":[{"type":"Feature","geometry":{"type":"LineString","coordinates":[[143.66899,-38.75476],[143.66959,-38.757],[143.67061,-38.75887],[143.67181,-38.75971],[143.6714,-38.7619],[143.66929,-38.7631],[143.66522,-38.76856],[143.66421,-38.77111],[143.664,-38.77496],[143.66338,-38.77605],[143.6554,-38.78081],[143.6419,-38.78443],[143.63888,-38.78453],[143.63029,-38.78144],[143.62367,-38.78002],[143.62098,-38.77885],[143.61836,-38.7786],[143.61346,-38.77515],[143.60857,-38.7745],[143.60766,-38.77342],[143.60746,-38.77224],[143.6066,-38.77086],[143.60667,-38.76542],[143.60607,-38.76423],[143.60345,-38.76123],[143.60002,-38.76026],[143.59294,-38.75611],[143.58682,-38.75111],[143.58631,-38.74965],[143.58764,-38.74772],[143.58757,-38.74599],[143.58496,-38.74404],[143.58427,-38.74305],[143.58213,-38.74181],[143.57711,-38.74028],[143.57584,-38.73905],[143.57472,-38.73861],[143.56967,-38.7392],[143.56518,-38.74082],[143.56447,-38.74176],[143.56388,-38.74605],[143.56101,-38.74684],[143.56009,-38.74818],[143.55854,-38.74908],[143.5548,-38.74921],[143.55357,-38.74988],[143.5532,-38.75112],[143.55406,-38.75292],[143.55366,-38.75469],[143.55401,-38.75605],[143.55467,-38.75579],[143.55401,-38.75605],[143.5527,-38.75788],[143.55271,-38.76036],[143.55025,-38.76258],[143.54811,-38.76373],[143.54804,-38.76462],[143.54923,-38.76694],[143.54778,-38.76787],[143.54768,-38.76943],[143.54657,-38.77092],[143.54215,-38.77232],[143.53924,-38.77573],[143.53886,-38.7775],[143.53919,-38.78044],[143.53665,-38.78256],[143.53702,-38.78453],[143.53668,-38.78685],[143.53562,-38.78851],[143.53586,-38.79118],[143.53489,-38.79203],[143.53204,-38.79316],[143.53136,-38.79387],[143.53197,-38.79699],[143.5318,-38.79935],[143.5337,-38.80381],[143.53564,-38.80591],[143.53594,-38.80946],[143.53737,-38.81224],[143.53724,-38.81308],[143.53651,-38.814],[143.53518,-38.81476],[143.52849,-38.81406],[143.52617,-38.81596],[143.52397,-38.81856],[143.52517,-38.82259],[143.52387,-38.82916],[143.5225,-38.83025],[143.52099,-38.83018],[143.51925,-38.83085],[143.52565,-38.83623],[143.52643,-38.83735],[143.52942,-38.83939],[143.53033,-38.84122],[143.53274,-38.84142],[143.535,-38.84255],[143.53513,-38.84312],[143.53367,-38.8436],[143.53271,-38.84566],[143.53578,-38.84781],[143.53648,-38.84898],[143.53376,-38.851],[143.53162,-38.85057],[143.52922,-38.85128],[143.52581,-38.85148],[143.52139,-38.8535],[143.51998,-38.85332],[143.51636,-38.85461],[143.51482,-38.85427],[143.51508,-38.85495],[143.51246,-38.85554],[143.51178,-38.85682],[143.51246,-38.85554],[143.51508,-38.85495],[143.51474,-38.85435],[143.51522,-38.85422],[143.51502,-38.85383],[143.51636,-38.85461],[143.51998,-38.85332],[143.52139,-38.8535],[143.52309,-38.85297],[143.52581,-38.85148],[143.52922,-38.85128],[143.53162,-38.85057],[143.53376,-38.851],[143.53654,-38.84882],[143.53578,-38.84781],[143.53271,-38.84566],[143.53367,-38.8436],[143.53513,-38.84312],[143.535,-38.84255],[143.53274,-38.84142],[143.53033,-38.84122],[143.53021,-38.84045],[143.5292,-38.83918],[143.52688,-38.83772],[143.52565,-38.83623],[143.51923,-38.83095],[143.52099,-38.83018],[143.5225,-38.83025],[143.52387,-38.82916],[143.52517,-38.82259],[143.52397,-38.81856],[143.52617,-38.81596],[143.529,-38.81396],[143.53518,-38.81476],[143.53651,-38.814],[143.53737,-38.81271],[143.53594,-38.80946],[143.53564,-38.80591],[143.5337,-38.80381],[143.5318,-38.79935],[143.53197,-38.79699],[143.5313,-38.79457],[143.53175,-38.79334],[143.53489,-38.79203],[143.53586,-38.79118],[143.53562,-38.78851],[143.53677,-38.78654],[143.53686,-38.78271],[143.53483,-38.78444],[143.53324,-38.78451],[143.53185,-38.78405],[143.52867,-38.78134],[143.5255,-38.77977],[143.52434,-38.77716],[143.52292,-38.77656],[143.52198,-38.77545],[143.51962,-38.77432],[143.51718,-38.77241],[143.51589,-38.77242],[143.51139,-38.77459],[143.50992,-38.77445],[143.50909,-38.77332],[143.51023,-38.77071],[143.50989,-38.76953],[143.50408,-38.76622],[143.49992,-38.76552],[143.49638,-38.76181],[143.49514,-38.76144],[143.49114,-38.76237],[143.48693,-38.76145],[143.48371,-38.76223],[143.48097,-38.76348],[143.47855,-38.76325],[143.47338,-38.76382],[143.47267,-38.76411],[143.47155,-38.76575],[143.4703,-38.76662],[143.46878,-38.76707],[143.46335,-38.77027],[143.46032,-38.77049],[143.45906,-38.77187],[143.45615,-38.77226],[143.4549,-38.77331],[143.45236,-38.77359],[143.45018,-38.77552],[143.44879,-38.77581],[143.44666,-38.77561],[143.44303,-38.77626],[143.44131,-38.77752],[143.43909,-38.77653],[143.43559,-38.77759],[143.43196,-38.77675],[143.43134,-38.77718],[143.43071,-38.77882],[143.43111,-38.78063],[143.43075,-38.78139],[143.429,-38.78194],[143.42717,-38.78135],[143.42618,-38.77994],[143.42655,-38.77608],[143.42495,-38.77124],[143.42568,-38.76438],[143.42503,-38.76314],[143.42065,-38.75815],[143.41975,-38.75628],[143.42007,-38.75434],[143.42211,-38.7518],[143.42302,-38.74622],[143.42211,-38.74197],[143.42124,-38.74],[143.42048,-38.73903],[143.41911,-38.73844],[143.41448,-38.73785],[143.40237,-38.73329],[143.40164,-38.73211],[143.40173,-38.73024],[143.40121,-38.72836],[143.4026,-38.72561],[143.40345,-38.72068],[143.40323,-38.71955],[143.40148,-38.71868],[143.39756,-38.71939],[143.39371,-38.71696],[143.39241,-38.71536],[143.39293,-38.71284],[143.39233,-38.71119],[143.391,-38.70951],[143.38821,-38.70903],[143.38402,-38.70928],[143.38259,-38.70825],[143.38247,-38.70713],[143.38323,-38.70569],[143.38341,-38.70292],[143.38593,-38.70112],[143.38685,-38.69977],[143.38692,-38.69832],[143.38517,-38.69517],[143.38508,-38.69377],[143.39073,-38.68853],[143.39087,-38.68741],[143.39019,-38.68626],[143.39015,-38.68535],[143.39252,-38.68305],[143.39282,-38.68227],[143.39257,-38.6813],[143.39186,-38.6807],[143.38918,-38.68279],[143.38356,-38.68203],[143.38196,-38.68375],[143.37867,-38.68473],[143.37695,-38.68697],[143.36914,-38.68834],[143.36392,-38.6922],[143.35967,-38.69308],[143.35815,-38.69379],[143.35596,-38.69523],[143.35522,-38.69617],[143.35397,-38.69971],[143.35079,-38.70294],[143.35012,-38.70553],[143.34911,-38.70693],[143.34229,-38.70897],[143.34005,-38.71105],[143.33759,-38.71205],[143.33676,-38.71205],[143.33473,-38.71106],[143.3319,-38.71123],[143.32915,-38.71299],[143.32696,-38.71379],[143.32519,-38.71567],[143.32484,-38.71823],[143.32366,-38.71944],[143.32237,-38.72186],[143.3208,-38.72283],[143.31432,-38.72532],[143.31328,-38.72681],[143.31275,-38.72907],[143.31116,-38.73148],[143.30758,-38.73261],[143.30527,-38.73494],[143.30408,-38.73559],[143.29587,-38.73631],[143.29243,-38.73752],[143.29181,-38.73813],[143.2914,-38.74031],[143.28471,-38.74456],[143.28241,-38.74721],[143.27803,-38.74686],[143.27575,-38.74757],[143.27404,-38.74584],[143.27322,-38.74653],[143.27205,-38.74675],[143.27083,-38.74611],[143.26976,-38.74652],[143.26512,-38.74578],[143.26213,-38.74744],[143.25908,-38.74732],[143.25877,-38.74709],[143.25874,-38.74585],[143.25727,-38.74508],[143.25574,-38.74342],[143.25484,-38.74321],[143.25389,-38.74213],[143.25255,-38.7421],[143.25211,-38.73864],[143.25078,-38.73834],[143.25079,-38.73722],[143.25134,-38.73649],[143.25099,-38.73569],[143.25306,-38.73298],[143.25278,-38.73206],[143.25359,-38.73161],[143.25343,-38.73002],[143.25283,-38.72951],[143.25266,-38.72816],[143.24838,-38.7265],[143.2478,-38.72282],[143.24449,-38.71765],[143.24357,-38.71413],[143.24006,-38.71146],[143.2359,-38.70951],[143.2346,-38.70688],[143.23317,-38.70527],[143.23056,-38.7009],[143.22932,-38.70013],[143.2275,-38.69987],[143.22582,-38.70032],[143.22217,-38.70248],[143.22071,-38.7026],[143.21899,-38.70206],[143.21622,-38.69984],[143.20627,-38.6953],[143.20074,-38.69031],[143.19734,-38.68656],[143.18566,-38.67744],[143.18208,-38.67538],[143.1798,-38.67469],[143.17246,-38.67413],[143.16975,-38.67478],[143.16724,-38.6773],[143.16201,-38.68056],[143.15963,-38.68326],[143.15711,-38.68527],[143.15659,-38.68623],[143.15669,-38.68801],[143.15619,-38.69009],[143.15512,-38.69182],[143.15231,-38.6934],[143.15084,-38.69343],[143.14943,-38.6924],[143.1495,-38.69075],[143.14842,-38.68918],[143.14799,-38.68738],[143.14684,-38.68552],[143.14495,-38.68365],[143.14432,-38.68106],[143.14047,-38.67701],[143.13524,-38.67442],[143.13194,-38.67341],[143.12437,-38.67217],[143.12088,-38.67262],[143.11915,-38.67221],[143.1127,-38.66828],[143.11201,-38.66837],[143.1121,-38.66801],[143.1077,-38.66619],[143.10616,-38.66385],[143.10403,-38.66235],[143.10534,-38.66178],[143.10416,-38.66244],[143.09906,-38.65911],[143.09415,-38.65673],[143.08942,-38.65386],[143.07817,-38.64654],[143.07157,-38.6429],[143.07074,-38.64471],[143.07079,-38.64568],[143.06906,-38.64602],[143.06732,-38.64579],[143.067,-38.64707],[143.06732,-38.64579],[143.06906,-38.64602],[143.07079,-38.64568],[143.07074,-38.64471],[143.07157,-38.6429],[143.0678,-38.64077],[143.05927,-38.63903],[143.05534,-38.63869],[143.05222,-38.63774],[143.04916,-38.63762],[143.04787,-38.63645],[143.04814,-38.63382],[143.04706,-38.6323],[143.03209,-38.62657],[143.02677,-38.62593],[143.01467,-38.62308],[143.0028,-38.62108],[143.00025,-38.62107],[142.99875,-38.62192],[142.99622,-38.61918],[142.99535,-38.61961]]},"properties":{"mode":"drive","ids":["apollobay","maits","capeotway","gibson","apostles","lochard","portcampbell"],"km":123.8,"min":126,"legs":[{"from":"apollobay","to":"maits","km":16.9,"min":17},{"from":"maits","to":"capeotway","km":16.3,"min":19},{"from":"capeotway","to":"gibson","km":76.4,"min":75},{"from":"gibson","to":"apostles","km":1.2,"min":2},{"from":"apostles","to":"lochard","km":4.8,"min":6},{"from":"lochard","to":"portcampbell","km":8.1,"min":7}]}}]}