{"type":"FeatureCollection","features":[{"type":"Feature","geometry":{"type":"LineString","coordinates":[[148.28867,-42.12523],[148.28858,-42.12576],[148.2898,-42.1259],[148.28946,-42.12255],[148.28812,-42.12157],[148.28625,-42.12136],[148.28513,-42.12083],[148.281,-42.11546],[148.27879,-42.11459],[148.27697,-42.11326],[148.27547,-42.11091],[148.27233,-42.10908],[148.27144,-42.10714],[148.26999,-42.10603],[148.26788,-42.1057],[148.26361,-42.10634],[148.26158,-42.10811],[148.26007,-42.10848],[148.25828,-42.10856],[148.2549,-42.10769],[148.25212,-42.10872],[148.25075,-42.10829],[148.24932,-42.10502],[148.24986,-42.10292],[148.24904,-42.10065],[148.24992,-42.09874],[148.24988,-42.09793],[148.24594,-42.09582],[148.24295,-42.09293],[148.24247,-42.09125],[148.24296,-42.08927],[148.2425,-42.08839],[148.24108,-42.08688],[148.23824,-42.08564],[148.23641,-42.08362],[148.23469,-42.0752],[148.2341,-42.0738],[148.2329,-42.07267],[148.22909,-42.0707],[148.22783,-42.06887],[148.22519,-42.06043],[148.22812,-42.04835],[148.22775,-42.041],[148.22729,-42.03957],[148.22442,-42.03672],[148.22409,-42.03573],[148.22424,-42.03437],[148.22696,-42.02602],[148.23105,-42.02095],[148.23391,-42.01099],[148.23506,-42.00989],[148.24763,-42.00306],[148.24851,-42.00161],[148.24964,-41.99538],[148.24895,-41.99258],[148.24593,-41.99021],[148.23939,-41.98267],[148.23838,-41.97745],[148.23562,-41.97455],[148.23474,-41.97153],[148.23141,-41.96991],[148.23054,-41.96887],[148.23078,-41.96738],[148.23349,-41.96447],[148.23511,-41.96204],[148.23533,-41.9577],[148.23381,-41.95334],[148.23601,-41.94986],[148.23663,-41.94788],[148.23625,-41.94458],[148.23449,-41.94297],[148.22776,-41.94069],[148.22404,-41.94006],[148.21989,-41.94062],[148.22161,-41.93793],[148.22967,-41.92793],[148.23084,-41.92728],[148.23346,-41.92686],[148.23597,-41.92596],[148.24169,-41.92145],[148.24499,-41.91769],[148.24778,-41.91623],[148.25239,-41.90935],[148.25471,-41.90091],[148.25484,-41.89728],[148.25652,-41.89537],[148.26258,-41.89356],[148.27319,-41.88873],[148.28256,-41.88785],[148.28426,-41.88695],[148.29135,-41.88655],[148.29644,-41.88724],[148.2979,-41.88704],[148.30319,-41.87929],[148.30779,-41.88004],[148.30319,-41.87929],[148.30405,-41.87572],[148.30364,-41.87495],[148.29985,-41.87393],[148.29846,-41.87276],[148.29643,-41.87213],[148.29365,-41.87024],[148.29054,-41.86953],[148.28766,-41.87032],[148.28286,-41.86944],[148.28238,-41.86871],[148.28286,-41.8664],[148.2828,-41.86433],[148.28173,-41.8622],[148.27632,-41.85914],[148.27384,-41.85713],[148.2657,-41.85469],[148.26524,-41.85351],[148.26222,-41.85032],[148.25929,-41.849],[148.25665,-41.84686],[148.25516,-41.8443],[148.2542,-41.84087],[148.2543,-41.83974],[148.25523,-41.83779],[148.25477,-41.83587],[148.25501,-41.83452],[148.25636,-41.83285],[148.25827,-41.83165],[148.26065,-41.82919],[148.26276,-41.8261],[148.26327,-41.82288],[148.26268,-41.81936],[148.26293,-41.80404],[148.26262,-41.80295],[148.26159,-41.80192],[148.26113,-41.79778],[148.26225,-41.79536],[148.26269,-41.79299],[148.26194,-41.78917],[148.262,-41.78693],[148.26046,-41.78522],[148.25671,-41.78254],[148.25646,-41.78191],[148.25684,-41.77958],[148.2582,-41.77808],[148.26428,-41.77394],[148.2668,-41.77305],[148.26987,-41.77038],[148.27089,-41.76863],[148.2736,-41.75829],[148.27761,-41.74987],[148.2772,-41.7484],[148.27327,-41.74372],[148.27295,-41.74239],[148.27489,-41.73674],[148.27349,-41.73219],[148.27437,-41.72822],[148.27332,-41.72273],[148.2749,-41.71643],[148.27449,-41.71297],[148.27489,-41.70251],[148.2761,-41.69955],[148.28177,-41.69102],[148.28029,-41.68983],[148.27994,-41.68907],[148.28119,-41.68643],[148.28198,-41.68351],[148.2792,-41.68006],[148.27795,-41.67623],[148.27798,-41.67432],[148.27919,-41.67242],[148.2835,-41.66968],[148.28433,-41.66863],[148.28479,-41.6673],[148.28381,-41.66493],[148.28394,-41.66309],[148.28689,-41.65885],[148.28836,-41.65527],[148.29217,-41.652],[148.29669,-41.64387],[148.29907,-41.64101],[148.30749,-41.63469],[148.30803,-41.6334],[148.30836,-41.63012],[148.31086,-41.62372],[148.31191,-41.62252],[148.31592,-41.61964],[148.31708,-41.61823],[148.31741,-41.61569],[148.31592,-41.6111],[148.31572,-41.60798],[148.31468,-41.60517],[148.31594,-41.60133],[148.3152,-41.59805],[148.31547,-41.59479],[148.31257,-41.58924],[148.31238,-41.58614],[148.31182,-41.58494],[148.30725,-41.58175],[148.3024,-41.57771],[148.29728,-41.57233],[148.29685,-41.57053],[148.29802,-41.56755],[148.29768,-41.56546],[148.29697,-41.56429],[148.29351,-41.56235],[148.2846,-41.56004],[148.28255,-41.5587],[148.28145,-41.55721],[148.27961,-41.55156],[148.27952,-41.54927],[148.28049,-41.54713],[148.28433,-41.54296],[148.28495,-41.54094],[148.28448,-41.53963],[148.28185,-41.53558],[148.28154,-41.53177],[148.28087,-41.52949],[148.27954,-41.52736],[148.2789,-41.52292],[148.27642,-41.51931],[148.275,-41.51828],[148.26809,-41.51507],[148.26452,-41.51483],[148.26207,-41.51584],[148.25936,-41.51919],[148.25176,-41.5239],[148.24417,-41.52538],[148.2425,-41.52522],[148.24271,-41.52289],[148.24178,-41.51914],[148.24196,-41.5164],[148.24725,-41.50864],[148.24984,-41.50216],[148.25038,-41.49961],[148.2527,-41.49439],[148.25244,-41.4934],[148.25002,-41.49197],[148.24971,-41.48922],[148.24839,-41.48644],[148.24808,-41.48241],[148.2498,-41.47988],[148.25197,-41.47768],[148.25401,-41.47675],[148.25531,-41.47541],[148.25624,-41.47318],[148.25659,-41.4686],[148.25732,-41.46668],[148.26083,-41.46589],[148.26315,-41.4638],[148.26342,-41.46234],[148.26253,-41.45946],[148.26254,-41.45645],[148.26534,-41.4507],[148.26925,-41.44403],[148.27131,-41.43922],[148.2757,-41.4251],[148.27651,-41.41716],[148.27804,-41.41498],[148.27877,-41.41253],[148.28306,-41.40326],[148.28712,-41.39944],[148.28797,-41.39772],[148.28847,-41.39458],[148.2884,-41.39191],[148.28706,-41.38909],[148.28939,-41.38357],[148.28879,-41.3819],[148.28645,-41.38032],[148.27949,-41.37889],[148.27907,-41.37833],[148.27917,-41.37548],[148.27831,-41.37208],[148.27409,-41.36956],[148.27257,-41.36746],[148.26692,-41.36567],[148.26587,-41.36484],[148.26556,-41.3615],[148.26337,-41.3578],[148.26285,-41.35536],[148.26289,-41.35401],[148.26469,-41.3498],[148.26451,-41.34879],[148.26296,-41.34651],[148.26406,-41.34297],[148.26385,-41.34153],[148.26166,-41.33887],[148.25955,-41.33796],[148.25894,-41.33413],[148.2577,-41.33315],[148.25572,-41.33243],[148.25547,-41.33084],[148.25247,-41.32997],[148.24934,-41.33001],[148.24736,-41.3281],[148.24727,-41.3276],[148.24897,-41.32525],[148.2498,-41.3218],[148.2563,-41.32242],[148.25861,-41.32058],[148.25927,-41.31864],[148.26699,-41.31263],[148.2713,-41.31071],[148.27137,-41.30686],[148.27477,-41.30204],[148.27447,-41.29678],[148.27387,-41.295],[148.27466,-41.2887],[148.27455,-41.28669],[148.27602,-41.28496],[148.27673,-41.28268],[148.27792,-41.28083],[148.27761,-41.27761],[148.27929,-41.27578],[148.28044,-41.27358],[148.28221,-41.27253],[148.28526,-41.27151],[148.2882,-41.26917],[148.28997,-41.26596],[148.29124,-41.26502],[148.29212,-41.26304],[148.29206,-41.25794],[148.29667,-41.25589],[148.29818,-41.25438],[148.30017,-41.25425],[148.30144,-41.25317],[148.30704,-41.25173],[148.31164,-41.24891],[148.31257,-41.24908],[148.31317,-41.24992],[148.31249,-41.25158],[148.31112,-41.25136],[148.31202,-41.24889],[148.31164,-41.24891],[148.30704,-41.25173],[148.30144,-41.25317],[148.30017,-41.25425],[148.29834,-41.25431],[148.29642,-41.25603],[148.29237,-41.25765],[148.29182,-41.25847],[148.29222,-41.25989],[148.29218,-41.26285],[148.29124,-41.26502],[148.29007,-41.26587],[148.28916,-41.26216],[148.28479,-41.25569],[148.284,-41.25212],[148.2831,-41.25012],[148.28371,-41.24803],[148.28519,-41.24593],[148.28603,-41.24211],[148.28855,-41.23799],[148.28549,-41.23621],[148.2826,-41.23286],[148.27933,-41.23194],[148.27784,-41.23101],[148.2789,-41.22984],[148.27983,-41.22765],[148.27991,-41.2244],[148.27879,-41.22228],[148.27902,-41.21934],[148.2809,-41.2168],[148.27399,-41.21039],[148.27371,-41.20586],[148.27153,-41.20175],[148.27,-41.1955],[148.2697,-41.19002],[148.27096,-41.18239],[148.26771,-41.1799],[148.26829,-41.17925],[148.27195,-41.1787],[148.27975,-41.1724],[148.27941,-41.16995],[148.28058,-41.16983],[148.28102,-41.1686],[148.28236,-41.16884],[148.28377,-41.16835],[148.28308,-41.16655],[148.28229,-41.16612],[148.28224,-41.16563],[148.28269,-41.1653],[148.28224,-41.16563],[148.28229,-41.16612],[148.28308,-41.16655],[148.28377,-41.16835],[148.28236,-41.16884],[148.28102,-41.1686],[148.28058,-41.16983],[148.27941,-41.16995],[148.27975,-41.1724],[148.27195,-41.1787],[148.26829,-41.17925],[148.26771,-41.1799],[148.27096,-41.18239],[148.2697,-41.19002],[148.27,-41.1955],[148.27153,-41.20175],[148.27371,-41.20586],[148.27399,-41.21039],[148.2809,-41.2168],[148.28066,-41.21753],[148.27914,-41.21906],[148.2789,-41.22082],[148.28195,-41.22084],[148.28172,-41.22112]]},"properties":{"mode":"drive","ids":["colesbay","bicheno","sthelens","binalong","gardens","cosycorner"],"km":151.0,"min":140,"legs":[{"from":"colesbay","to":"bicheno","km":38.2,"min":33},{"from":"bicheno","to":"sthelens","km":76.6,"min":65},{"from":"sthelens","to":"binalong","km":11.2,"min":12},{"from":"binalong","to":"gardens","km":16.8,"min":19},{"from":"gardens","to":"cosycorner","km":8.1,"min":10}]}}]}