{"type":"FeatureCollection","features":[{"type":"Feature","geometry":{"type":"LineString","coordinates":[[147.32826,-42.8826],[147.33149,-42.88016],[147.33329,-42.88143],[147.32885,-42.88511],[147.33183,-42.88666],[147.33074,-42.88634],[147.33169,-42.88602],[147.33129,-42.88484],[147.33257,-42.88311],[147.33113,-42.88202],[147.33442,-42.87909],[147.33079,-42.8783],[147.32674,-42.87577],[147.3151,-42.86277],[147.31461,-42.86145],[147.315,-42.85899],[147.31691,-42.85484],[147.31675,-42.85358],[147.30961,-42.84698],[147.30336,-42.83828],[147.30137,-42.83617],[147.29653,-42.83259],[147.29452,-42.83154],[147.28886,-42.82976],[147.28232,-42.82681],[147.27363,-42.8253],[147.26746,-42.82236],[147.25888,-42.8173],[147.25346,-42.81564],[147.25156,-42.81425],[147.24882,-42.8077],[147.24971,-42.80261],[147.24848,-42.79887],[147.24772,-42.79493],[147.24393,-42.78762],[147.23992,-42.78331],[147.23878,-42.78158],[147.23812,-42.7787],[147.23893,-42.77472],[147.23849,-42.77208],[147.23605,-42.76791],[147.23435,-42.76254],[147.23052,-42.75734],[147.22933,-42.75311],[147.22675,-42.75005],[147.22574,-42.74819],[147.22543,-42.74563],[147.22583,-42.74251],[147.22711,-42.73958],[147.22921,-42.7373],[147.23654,-42.73334],[147.23747,-42.73207],[147.23777,-42.7303],[147.23693,-42.72699],[147.2372,-42.72243],[147.23801,-42.71931],[147.23896,-42.71773],[147.24533,-42.71378],[147.24958,-42.70975],[147.25107,-42.70882],[147.26938,-42.70392],[147.27335,-42.70158],[147.27496,-42.69999],[147.27574,-42.69855],[147.27558,-42.69678],[147.27137,-42.6964],[147.27011,-42.6967],[147.26951,-42.69732],[147.26888,-42.69975],[147.26806,-42.70086],[147.27111,-42.70182],[147.27047,-42.70636],[147.27195,-42.70683],[147.273,-42.70788],[147.27249,-42.70897],[147.27012,-42.70764],[147.27086,-42.70705],[147.27036,-42.70665],[147.27111,-42.70182],[147.26806,-42.70086],[147.26888,-42.69975],[147.26955,-42.69724],[147.27067,-42.69647],[147.27601,-42.69664],[147.2876,-42.69364],[147.29685,-42.69185],[147.30013,-42.69075],[147.31907,-42.68983],[147.32262,-42.6891],[147.33135,-42.68994],[147.33528,-42.69177],[147.34172,-42.69192],[147.34398,-42.69145],[147.35026,-42.69551],[147.35268,-42.69651],[147.35739,-42.69956],[147.36398,-42.70291],[147.36732,-42.70557],[147.37094,-42.70942],[147.3737,-42.71021],[147.37611,-42.71151],[147.37827,-42.71197],[147.38415,-42.71576],[147.38657,-42.71807],[147.38959,-42.71995],[147.39437,-42.72218],[147.3968,-42.72413],[147.40132,-42.72996],[147.40737,-42.73271],[147.41343,-42.73644],[147.41761,-42.73798],[147.42013,-42.74028],[147.4214,-42.74013],[147.42306,-42.73872],[147.42432,-42.73822],[147.43019,-42.73758],[147.43032,-42.73828],[147.43573,-42.7366],[147.43854,-42.73495],[147.43894,-42.73373],[147.44076,-42.73391],[147.4408,-42.73307],[147.44076,-42.73391],[147.43619,-42.73319],[147.43596,-42.72952],[147.43546,-42.72904],[147.43587,-42.72787],[147.43557,-42.72416],[147.43008,-42.71206],[147.429,-42.69264],[147.42959,-42.68787],[147.43747,-42.68909],[147.44215,-42.68829],[147.45011,-42.68884],[147.46415,-42.69011],[147.46854,-42.6909],[147.47611,-42.6931],[147.47775,-42.69483],[147.48302,-42.69718],[147.48585,-42.69979],[147.48882,-42.70125],[147.49044,-42.7026],[147.49447,-42.7031],[147.50375,-42.70777],[147.50856,-42.70879],[147.5103,-42.70815],[147.51058,-42.70584],[147.51227,-42.70408],[147.51439,-42.7034],[147.52112,-42.70264],[147.52331,-42.70153],[147.52476,-42.69977],[147.53039,-42.68234],[147.53014,-42.68069],[147.52773,-42.67714],[147.52767,-42.67604],[147.52841,-42.67465],[147.52693,-42.67396],[147.52626,-42.67206],[147.52856,-42.67002],[147.52795,-42.66909],[147.5284,-42.66602],[147.53328,-42.66211],[147.53551,-42.65861],[147.536,-42.65473],[147.53679,-42.65364],[147.53823,-42.65274],[147.54524,-42.65091],[147.55134,-42.65012],[147.55585,-42.6476],[147.56061,-42.64686],[147.57598,-42.64308],[147.58086,-42.64036],[147.58629,-42.63965],[147.58953,-42.63765],[147.59638,-42.63649],[147.60206,-42.63405],[147.60952,-42.63282],[147.61431,-42.63276],[147.61856,-42.63208],[147.6194,-42.63231],[147.62037,-42.63363],[147.62212,-42.63467],[147.62333,-42.63473],[147.62622,-42.63379],[147.62788,-42.63149],[147.62879,-42.62891],[147.63259,-42.62591],[147.6328,-42.62488],[147.63197,-42.62185],[147.63326,-42.62007],[147.63473,-42.61897],[147.63751,-42.6185],[147.64182,-42.61667],[147.64362,-42.61648],[147.64549,-42.61686],[147.64643,-42.61628],[147.64721,-42.61479],[147.64671,-42.61194],[147.64504,-42.60982],[147.64452,-42.60787],[147.64612,-42.60688],[147.64928,-42.60711],[147.65181,-42.6062],[147.65323,-42.60615],[147.65712,-42.60945],[147.66133,-42.61089],[147.66495,-42.61059],[147.66722,-42.61115],[147.66858,-42.61092],[147.66993,-42.60975],[147.67104,-42.60721],[147.67272,-42.60656],[147.67496,-42.60719],[147.67917,-42.60761],[147.68227,-42.60695],[147.68696,-42.60835],[147.69041,-42.60851],[147.69396,-42.60826],[147.69672,-42.60717],[147.69869,-42.60686],[147.71306,-42.6082],[147.71708,-42.60765],[147.72661,-42.61088],[147.73233,-42.61139],[147.73319,-42.61123],[147.73568,-42.60933],[147.73929,-42.60764],[147.77666,-42.59402],[147.77896,-42.59403],[147.78225,-42.59555],[147.78642,-42.59574],[147.78838,-42.59444],[147.79651,-42.59191],[147.7983,-42.59003],[147.79934,-42.58775],[147.80035,-42.58677],[147.80499,-42.58523],[147.81339,-42.58165],[147.81589,-42.57948],[147.82046,-42.57341],[147.8207,-42.57169],[147.82255,-42.56932],[147.82429,-42.56589],[147.82534,-42.56085],[147.82596,-42.55949],[147.82959,-42.55613],[147.83157,-42.55635],[147.83441,-42.55828],[147.83689,-42.55919],[147.84504,-42.56044],[147.8472,-42.55997],[147.84807,-42.55888],[147.84873,-42.55872],[147.85163,-42.56072],[147.85286,-42.5611],[147.85493,-42.56078],[147.85875,-42.55903],[147.87172,-42.55901],[147.87146,-42.55651],[147.87237,-42.55506],[147.8771,-42.55213],[147.88294,-42.54972],[147.88503,-42.54793],[147.88637,-42.54616],[147.88688,-42.54525],[147.88705,-42.54365],[147.88783,-42.5428],[147.89128,-42.54098],[147.89613,-42.53978],[147.89738,-42.53903],[147.89776,-42.53788],[147.89694,-42.52919],[147.89814,-42.5253],[147.89832,-42.52163],[147.90743,-42.51076],[147.90863,-42.50791],[147.90829,-42.50469],[147.90877,-42.50355],[147.91052,-42.50231],[147.91528,-42.50159],[147.92053,-42.49961],[147.92829,-42.49254],[147.93158,-42.49175],[147.93317,-42.49088],[147.93465,-42.488],[147.93456,-42.4866],[147.93277,-42.48145],[147.92994,-42.47698],[147.92338,-42.46929],[147.92264,-42.46562],[147.9303,-42.45229],[147.92796,-42.44332],[147.92789,-42.44151],[147.93053,-42.43542],[147.93226,-42.42784],[147.93446,-42.42231],[147.93506,-42.41815],[147.93359,-42.4102],[147.93486,-42.4066],[147.93352,-42.40244],[147.93301,-42.39382],[147.93396,-42.3923],[147.93513,-42.38858],[147.9391,-42.38091],[147.94234,-42.36159],[147.94193,-42.36008],[147.93852,-42.3561],[147.93435,-42.35172],[147.93114,-42.3496],[147.93017,-42.34842],[147.93045,-42.3439],[147.93175,-42.34019],[147.93613,-42.33434],[147.9409,-42.33179],[147.94313,-42.32999],[147.94589,-42.32879],[147.94708,-42.32643],[147.94917,-42.32429],[147.95091,-42.3229],[147.95335,-42.32174],[147.95996,-42.31592],[147.96222,-42.30926],[147.96342,-42.30742],[147.9697,-42.30403],[147.97126,-42.30237],[147.97857,-42.30104],[147.98081,-42.30016],[147.9835,-42.29802],[147.98749,-42.29594],[147.99042,-42.29176],[147.99483,-42.28872],[147.9965,-42.28704],[147.99973,-42.28081],[148.00237,-42.27877],[148.00428,-42.27623],[148.00338,-42.26712],[148.00245,-42.26508],[148.00214,-42.26172],[148.00555,-42.25518],[148.00646,-42.25252],[148.00972,-42.24728],[148.01234,-42.24201],[148.0122,-42.23917],[148.01584,-42.23627],[148.01697,-42.23388],[148.02027,-42.2323],[148.02108,-42.23026],[148.02357,-42.22873],[148.02495,-42.22665],[148.02872,-42.22437],[148.03108,-42.21494],[148.03392,-42.21284],[148.03744,-42.21192],[148.03901,-42.211],[148.04328,-42.20295],[148.0448,-42.20099],[148.05289,-42.1961],[148.05996,-42.19309],[148.06504,-42.18894],[148.06521,-42.18713],[148.06468,-42.18674],[148.06724,-42.18377],[148.06683,-42.17953],[148.06824,-42.17804],[148.06921,-42.17517],[148.0711,-42.17356],[148.07263,-42.17287],[148.07381,-42.17152],[148.07367,-42.16917],[148.07276,-42.16731],[148.07144,-42.16268],[148.07038,-42.15742],[148.06849,-42.15335],[148.06775,-42.14614],[148.0686,-42.14305],[148.07066,-42.13924],[148.07129,-42.13363],[148.07241,-42.1312],[148.07244,-42.1298],[148.07769,-42.12479],[148.0702,-42.12088],[148.06431,-42.11895],[148.06074,-42.11574],[148.05679,-42.11441],[148.05598,-42.11356],[148.05675,-42.10579],[148.06249,-42.1014],[148.06307,-42.09831],[148.06703,-42.08873],[148.06702,-42.08782],[148.06608,-42.08613],[148.06621,-42.08451],[148.06849,-42.08229],[148.06931,-42.07978],[148.06887,-42.07833],[148.06738,-42.07672],[148.06682,-42.07258],[148.06552,-42.06981],[148.06397,-42.06833],[148.06369,-42.06473],[148.06071,-42.05891],[148.05685,-42.05384],[148.05394,-42.05212],[148.05297,-42.05105],[148.05274,-42.04996],[148.05324,-42.04799],[148.0522,-42.04479],[148.05372,-42.04135],[148.05345,-42.03825],[148.05475,-42.02356],[148.05561,-42.0224],[148.05769,-42.02108],[148.06894,-42.00745],[148.06884,-42.00551],[148.06738,-42.00183],[148.0678,-42.00026],[148.06874,-41.99928],[148.07204,-41.99695],[148.07417,-41.99639],[148.08975,-41.99806],[148.09146,-41.99739],[148.09452,-41.99499],[148.09763,-41.99332],[148.09852,-41.99339],[148.09987,-41.99469],[148.10676,-41.99502],[148.10992,-41.99352],[148.11218,-41.99346],[148.1145,-41.9927],[148.11633,-41.99285],[148.12004,-41.99052],[148.12241,-41.99073],[148.12321,-41.98983],[148.12675,-41.98849],[148.12832,-41.9866],[148.13292,-41.98523],[148.13403,-41.98344],[148.13651,-41.98239],[148.13748,-41.98122],[148.14329,-41.97933],[148.14421,-41.97779],[148.14802,-41.97488],[148.14964,-41.97485],[148.1506,-41.97361],[148.15098,-41.97109],[148.15249,-41.96854],[148.152,-41.96598],[148.15352,-41.96374],[148.15422,-41.9633],[148.15623,-41.96311],[148.15795,-41.96184],[148.16063,-41.96093],[148.16274,-41.95755],[148.167,-41.95562],[148.16991,-41.95584],[148.17598,-41.95547],[148.18167,-41.95591],[148.18958,-41.95157],[148.19896,-41.94888],[148.21186,-41.94356],[148.21773,-41.94235],[148.2194,-41.9414],[148.21989,-41.94062],[148.22404,-41.94006],[148.22662,-41.94045],[148.23481,-41.94315],[148.23608,-41.94429],[148.23662,-41.94602],[148.23663,-41.94788],[148.23612,-41.94964],[148.23381,-41.95334],[148.23533,-41.9577],[148.23525,-41.96133],[148.23431,-41.96344],[148.23078,-41.96738],[148.23054,-41.96887],[148.23141,-41.96991],[148.23474,-41.97153],[148.23562,-41.97455],[148.23838,-41.97745],[148.23939,-41.98267],[148.24593,-41.99021],[148.24895,-41.99258],[148.24947,-41.99366],[148.24968,-41.99625],[148.24851,-42.00161],[148.24763,-42.00306],[148.23506,-42.00989],[148.23391,-42.01099],[148.23105,-42.02095],[148.22696,-42.02602],[148.22406,-42.03526],[148.22483,-42.03735],[148.22698,-42.03918],[148.22767,-42.04042],[148.22814,-42.04784],[148.22527,-42.05929],[148.22536,-42.06157],[148.22838,-42.06998],[148.22953,-42.07099],[148.2329,-42.07267],[148.23439,-42.07429],[148.23677,-42.08424],[148.23824,-42.08564],[148.24108,-42.08688],[148.2425,-42.08839],[148.24298,-42.08949],[148.2425,-42.09192],[148.24354,-42.09359],[148.24594,-42.09582],[148.24988,-42.09793],[148.24992,-42.09874],[148.24904,-42.10065],[148.24986,-42.10292],[148.24932,-42.10502],[148.25075,-42.10829],[148.25212,-42.10872],[148.2549,-42.10769],[148.25828,-42.10856],[148.26007,-42.10848],[148.26158,-42.10811],[148.26361,-42.10634],[148.26788,-42.1057],[148.26999,-42.10603],[148.27144,-42.10714],[148.27233,-42.10908],[148.27547,-42.11091],[148.27697,-42.11326],[148.27879,-42.11459],[148.281,-42.11546],[148.28513,-42.12083],[148.28625,-42.12136],[148.28812,-42.12157],[148.28946,-42.12255],[148.2898,-42.1259],[148.28858,-42.12576],[148.28867,-42.12523]]},"properties":{"mode":"drive","ids":["hobart","salamanca","bonorong","richmond","spiky","colesbay"],"km":221.1,"min":194,"legs":[{"from":"hobart","to":"salamanca","km":1.5,"min":3},{"from":"salamanca","to":"bonorong","km":29.7,"min":30},{"from":"bonorong","to":"richmond","km":18.8,"min":22},{"from":"richmond","to":"spiky","km":104.8,"min":83},{"from":"spiky","to":"colesbay","km":66.4,"min":56}]}}]}