{"type":"FeatureCollection","features":[{"type":"Feature","geometry":{"type":"LineString","coordinates":[[148.28867,-42.12523],[148.28858,-42.12576],[148.2898,-42.1259],[148.28946,-42.12255],[148.29226,-42.12425],[148.29432,-42.12355],[148.29536,-42.12232],[148.29678,-42.12245],[148.30265,-42.13051],[148.30318,-42.13339],[148.30312,-42.13511],[148.30232,-42.13657],[148.29997,-42.13747],[148.29826,-42.13911],[148.2984,-42.13982],[148.29993,-42.14101],[148.29898,-42.14206],[148.29911,-42.14265],[148.29831,-42.14293],[148.29621,-42.14214],[148.29406,-42.14229],[148.29237,-42.14303],[148.2916,-42.14391],[148.29021,-42.14456],[148.29012,-42.14525],[148.28891,-42.14573],[148.28922,-42.14548]]},"properties":{"mode":"drive","ids":["colesbay","amos"],"km":5.1,"min":12,"legs":[{"from":"colesbay","to":"amos","km":5.1,"min":12}]}},{"type":"Feature","geometry":{"type":"LineString","coordinates":[[148.28916,-42.1455],[148.2889,-42.1457],[148.28897,-42.14579],[148.28915,-42.14573],[148.28914,-42.14588],[148.28939,-42.14589],[148.28921,-42.14603],[148.28923,-42.1464],[148.28929,-42.14651],[148.2899,-42.14623],[148.29008,-42.14608],[148.29078,-42.14595],[148.29122,-42.14601],[148.29171,-42.14621],[148.29222,-42.14625],[148.29314,-42.14588],[148.29362,-42.14555],[148.29439,-42.14533],[148.29521,-42.14493],[148.29553,-42.14488],[148.29565,-42.14496],[148.29575,-42.14504],[148.29572,-42.14524],[148.29588,-42.14569],[148.29582,-42.14601],[148.29589,-42.14617],[148.29635,-42.14655],[148.2974,-42.147],[148.29767,-42.14724],[148.29767,-42.14755],[148.2975,-42.14769],[148.29684,-42.14792],[148.29681,-42.14807],[148.29636,-42.14815],[148.29658,-42.14844],[148.29647,-42.14855],[148.29614,-42.14864],[148.29627,-42.14896],[148.29592,-42.14946],[148.29592,-42.14963],[148.29601,-42.14972],[148.29605,-42.15016],[148.29625,-42.15043],[148.29632,-42.15076],[148.29648,-42.15109],[148.29668,-42.15125],[148.29709,-42.15141],[148.29735,-42.1517],[148.29772,-42.15194],[148.29798,-42.15225],[148.29826,-42.15225],[148.29853,-42.15239],[148.29892,-42.15272],[148.29922,-42.15284],[148.29934,-42.1531],[148.29947,-42.15318],[148.29952,-42.15332],[148.2995,-42.15364]]},"properties":{"mode":"hike","ids":["amos","amos-summit"],"km":2.1,"min":62,"legs":[]}},{"type":"Feature","geometry":{"type":"LineString","coordinates":[[148.28922,-42.14548],[148.29,-42.14515],[148.28883,-42.1453],[148.28953,-42.1446],[148.2916,-42.14391],[148.29237,-42.14303],[148.29406,-42.14229],[148.29621,-42.14214],[148.29831,-42.14293],[148.29911,-42.14265],[148.29898,-42.14206],[148.29993,-42.14101],[148.2984,-42.13982],[148.29826,-42.13911],[148.29997,-42.13747],[148.30176,-42.13694],[148.30266,-42.13611],[148.30312,-42.13511],[148.30318,-42.13339],[148.30265,-42.13051],[148.29678,-42.12245],[148.29536,-42.12232],[148.29432,-42.12355],[148.29195,-42.12425],[148.28812,-42.12157],[148.28546,-42.12109],[148.281,-42.11546],[148.27879,-42.11459],[148.27697,-42.11326],[148.27547,-42.11091],[148.27233,-42.10908],[148.27144,-42.10714],[148.26999,-42.10603],[148.26788,-42.1057],[148.26361,-42.10634],[148.26158,-42.10811],[148.25901,-42.1086],[148.2549,-42.10769],[148.25212,-42.10872],[148.25064,-42.10818],[148.24932,-42.10502],[148.24986,-42.10292],[148.24904,-42.10065],[148.24992,-42.09874],[148.24988,-42.09793],[148.24594,-42.09582],[148.24295,-42.09293],[148.24247,-42.09125],[148.24296,-42.08927],[148.2425,-42.08839],[148.24108,-42.08688],[148.23824,-42.08564],[148.23641,-42.08362],[148.23469,-42.0752],[148.2341,-42.0738],[148.2329,-42.07267],[148.22909,-42.0707],[148.22783,-42.06887],[148.22519,-42.06043],[148.22812,-42.04835],[148.22775,-42.041],[148.22698,-42.03918],[148.22465,-42.03708],[148.22406,-42.03526],[148.22696,-42.02602],[148.23105,-42.02095],[148.23348,-42.01197],[148.23468,-42.01016],[148.2471,-42.00349],[148.24833,-42.00206],[148.2488,-42.00029],[148.26312,-42.00203],[148.26777,-42.0009],[148.27276,-42.00123],[148.27295,-41.99968],[148.27398,-41.99838],[148.27599,-41.99686],[148.2789,-41.99539],[148.27997,-41.9932],[148.2821,-41.99188],[148.28389,-41.99183],[148.28559,-41.99243],[148.28669,-41.99156],[148.28742,-41.98947],[148.28728,-41.98855],[148.28824,-41.98704],[148.28775,-41.98716],[148.28669,-41.99156],[148.28559,-41.99243],[148.28389,-41.99183],[148.2821,-41.99188],[148.27997,-41.9932],[148.2789,-41.99539],[148.27599,-41.99686],[148.27398,-41.99838],[148.27295,-41.99968],[148.27276,-42.00123],[148.26777,-42.0009],[148.26312,-42.00203],[148.2488,-42.00029],[148.24968,-41.99625],[148.24916,-41.99292],[148.24593,-41.99021],[148.23939,-41.98267],[148.23838,-41.97745],[148.23562,-41.97455],[148.23474,-41.97153],[148.23141,-41.96991],[148.23047,-41.96857],[148.23078,-41.96738],[148.23349,-41.96447],[148.23511,-41.96204],[148.23533,-41.9577],[148.23381,-41.95334],[148.23612,-41.94964],[148.23664,-41.94762],[148.23637,-41.94483],[148.23565,-41.94376],[148.23449,-41.94297],[148.22776,-41.94069],[148.22404,-41.94006],[148.21989,-41.94062],[148.22161,-41.93793],[148.22967,-41.92793],[148.23084,-41.92728],[148.23346,-41.92686],[148.23597,-41.92596],[148.24169,-41.92145],[148.24499,-41.91769],[148.24778,-41.91623],[148.25239,-41.90935],[148.25471,-41.90091],[148.25475,-41.89759],[148.25603,-41.89573],[148.25796,-41.89468],[148.26258,-41.89356],[148.27319,-41.88873],[148.28256,-41.88785],[148.28426,-41.88695],[148.29135,-41.88655],[148.29644,-41.88724],[148.2979,-41.88704],[148.30319,-41.87929],[148.30779,-41.88004],[148.30319,-41.87929],[148.2979,-41.88704],[148.29644,-41.88724],[148.29135,-41.88655],[148.28426,-41.88695],[148.28256,-41.88785],[148.27319,-41.88873],[148.26258,-41.89356],[148.25796,-41.89468],[148.25603,-41.89573],[148.25475,-41.89759],[148.25471,-41.90091],[148.25239,-41.90935],[148.24778,-41.91623],[148.24499,-41.91769],[148.24169,-41.92145],[148.23597,-41.92596],[148.23346,-41.92686],[148.23084,-41.92728],[148.22967,-41.92793],[148.22161,-41.93793],[148.21989,-41.94062],[148.22404,-41.94006],[148.22776,-41.94069],[148.23449,-41.94297],[148.23625,-41.94458],[148.23663,-41.94788],[148.23601,-41.94986],[148.23381,-41.95334],[148.23533,-41.9577],[148.23511,-41.96204],[148.23349,-41.96447],[148.23078,-41.96738],[148.23054,-41.96887],[148.23141,-41.96991],[148.23474,-41.97153],[148.23562,-41.97455],[148.23838,-41.97745],[148.23939,-41.98267],[148.24593,-41.99021],[148.24895,-41.99258],[148.24964,-41.99538],[148.24851,-42.00161],[148.24763,-42.00306],[148.23506,-42.00989],[148.23391,-42.01099],[148.23105,-42.02095],[148.22696,-42.02602],[148.22424,-42.03437],[148.22409,-42.03573],[148.22442,-42.03672],[148.22729,-42.03957],[148.22775,-42.041],[148.22812,-42.04835],[148.22519,-42.06043],[148.22783,-42.06887],[148.22909,-42.0707],[148.2329,-42.07267],[148.2341,-42.0738],[148.23469,-42.0752],[148.23641,-42.08362],[148.23824,-42.08564],[148.24108,-42.08688],[148.2425,-42.08839],[148.24296,-42.08927],[148.24247,-42.09125],[148.24295,-42.09293],[148.24594,-42.09582],[148.24988,-42.09793],[148.24992,-42.09874],[148.24904,-42.10065],[148.24986,-42.10292],[148.24932,-42.10502],[148.25075,-42.10829],[148.25212,-42.10872],[148.2549,-42.10769],[148.25828,-42.10856],[148.26007,-42.10848],[148.26158,-42.10811],[148.26361,-42.10634],[148.26788,-42.1057],[148.26999,-42.10603],[148.27144,-42.10714],[148.27233,-42.10908],[148.27547,-42.11091],[148.27697,-42.11326],[148.27879,-42.11459],[148.281,-42.11546],[148.28513,-42.12083],[148.28625,-42.12136],[148.28812,-42.12157],[148.28946,-42.12255],[148.2898,-42.1259],[148.28858,-42.12576],[148.28867,-42.12523]]},"properties":{"mode":"drive","ids":["amos","friendly","bicheno","colesbay"],"km":89.4,"min":93,"legs":[{"from":"amos","to":"friendly","km":27.1,"min":35},{"from":"friendly","to":"bicheno","km":24.0,"min":25},{"from":"bicheno","to":"colesbay","km":38.2,"min":33}]}}]}