{"type":"FeatureCollection","features":[{"type":"Feature","geometry":{"type":"LineString","coordinates":[[145.46342,-16.48486],[145.46554,-16.48635],[145.46374,-16.4961],[145.46287,-16.50769],[145.46443,-16.51502],[145.46758,-16.52039],[145.46783,-16.52252],[145.46708,-16.52441],[145.46167,-16.52834],[145.45718,-16.52367],[145.45278,-16.52221],[145.45068,-16.52076],[145.44146,-16.50854],[145.43966,-16.50671],[145.40544,-16.47884],[145.40325,-16.47769],[145.40083,-16.47731],[145.39419,-16.47912],[145.39041,-16.48231],[145.39116,-16.49164],[145.39053,-16.49936],[145.3911,-16.50046],[145.39266,-16.50157],[145.39287,-16.50235],[145.39194,-16.5043],[145.39089,-16.50468],[145.39103,-16.50706],[145.38951,-16.50875],[145.3895,-16.50955],[145.3904,-16.50999],[145.38947,-16.51143],[145.38951,-16.51252],[145.39043,-16.51306],[145.39063,-16.51473],[145.39248,-16.51493],[145.39258,-16.51568],[145.39448,-16.51613],[145.39405,-16.5174],[145.39459,-16.51789],[145.39429,-16.51838],[145.39486,-16.51884],[145.39532,-16.52029],[145.39242,-16.52339],[145.39294,-16.5271],[145.39345,-16.52769],[145.39503,-16.52814],[145.39521,-16.52923],[145.39452,-16.52981],[145.39524,-16.5311],[145.39466,-16.53152],[145.39539,-16.53258],[145.39539,-16.53353],[145.39455,-16.5342],[145.39315,-16.53383],[145.3915,-16.53473],[145.38991,-16.53387],[145.38985,-16.53303],[145.38629,-16.53476],[145.38576,-16.53423],[145.38485,-16.53462],[145.38421,-16.53379],[145.38379,-16.53422],[145.38137,-16.53424],[145.38147,-16.53491],[145.38302,-16.53546],[145.38336,-16.536],[145.38294,-16.5371],[145.38323,-16.53825],[145.38155,-16.53983],[145.38121,-16.54108],[145.38267,-16.54403],[145.38275,-16.54519],[145.38172,-16.54666],[145.37898,-16.5473],[145.37786,-16.54823],[145.37744,-16.54943],[145.37723,-16.5539],[145.37482,-16.55976],[145.37374,-16.56092],[145.37195,-16.56151],[145.36121,-16.56049],[145.35782,-16.56108],[145.35433,-16.5631],[145.35221,-16.56366],[145.34941,-16.56614],[145.34604,-16.56746],[145.34252,-16.57093],[145.34022,-16.57246],[145.33956,-16.57345],[145.33689,-16.58103],[145.33729,-16.58233],[145.33929,-16.58494],[145.34092,-16.59364],[145.34254,-16.5967],[145.3426,-16.60012],[145.34176,-16.60274],[145.34164,-16.60611],[145.34113,-16.60706],[145.33989,-16.60805],[145.33186,-16.61074],[145.33055,-16.61309],[145.32975,-16.6137],[145.32698,-16.61403],[145.32596,-16.61621],[145.32332,-16.61784],[145.32284,-16.61909],[145.32357,-16.62234],[145.32387,-16.62925],[145.32554,-16.63333],[145.32387,-16.64352],[145.32392,-16.64521],[145.32792,-16.6544],[145.32643,-16.66016],[145.32629,-16.66218],[145.32537,-16.66383],[145.326,-16.66448],[145.32802,-16.66508],[145.32906,-16.66717],[145.32874,-16.67102],[145.33053,-16.67686],[145.33101,-16.68244],[145.33175,-16.68473],[145.33804,-16.6929],[145.33999,-16.6942],[145.34395,-16.69559],[145.34595,-16.69772],[145.34656,-16.69956],[145.34679,-16.70251],[145.35184,-16.71501],[145.35285,-16.71961],[145.3524,-16.72874],[145.35125,-16.7333],[145.34952,-16.73797],[145.34477,-16.74639],[145.34331,-16.75062],[145.3401,-16.77326],[145.34017,-16.77569],[145.34091,-16.77788],[145.34226,-16.77979],[145.35217,-16.78749],[145.36163,-16.79845],[145.36382,-16.80156],[145.36651,-16.80683],[145.36769,-16.81003],[145.36834,-16.81339],[145.36952,-16.83403],[145.37011,-16.83635],[145.3715,-16.83891],[145.37313,-16.84066],[145.3786,-16.84491],[145.38362,-16.85073],[145.38805,-16.85377],[145.39271,-16.85959],[145.40636,-16.86951],[145.40816,-16.87183],[145.41092,-16.87779],[145.41144,-16.88112],[145.41217,-16.8985],[145.41728,-16.91282],[145.41856,-16.92523],[145.4185,-16.92801],[145.41424,-16.95653],[145.41441,-16.97092],[145.41528,-16.97309],[145.41779,-16.98326],[145.41882,-16.98566],[145.42184,-16.98912],[145.42312,-16.99731],[145.42298,-16.99947],[145.42486,-17.00609],[145.4247,-17.01083],[145.42511,-17.0137],[145.4349,-17.07317],[145.43632,-17.07844],[145.43508,-17.08497],[145.43546,-17.09471],[145.43698,-17.09986],[145.43683,-17.10261],[145.43536,-17.10537],[145.43112,-17.10895],[145.4289,-17.11276],[145.42568,-17.12569],[145.42566,-17.12823],[145.42649,-17.13072],[145.43876,-17.15067],[145.44177,-17.16806],[145.44602,-17.17874],[145.44768,-17.18038],[145.45142,-17.18231],[145.46164,-17.18304],[145.46329,-17.18344],[145.46494,-17.18451],[145.47199,-17.19529],[145.47777,-17.20739],[145.47861,-17.21041],[145.47955,-17.21872],[145.47911,-17.21965],[145.47824,-17.22943],[145.47943,-17.23408],[145.47975,-17.24752],[145.47927,-17.24969],[145.47672,-17.25334],[145.47603,-17.25861],[145.47633,-17.26059],[145.47717,-17.26222],[145.48213,-17.26452],[145.48356,-17.26476],[145.48099,-17.26951],[145.48996,-17.27042],[145.48987,-17.27567],[145.49268,-17.27626],[145.49538,-17.27879],[145.49484,-17.28496],[145.49777,-17.28507],[145.50663,-17.28344],[145.50908,-17.28232],[145.51063,-17.28235],[145.51201,-17.28368],[145.51557,-17.29096],[145.5166,-17.29229],[145.51844,-17.29346],[145.51985,-17.2938],[145.52389,-17.2933],[145.52903,-17.29369],[145.5344,-17.29481],[145.54457,-17.29834],[145.55155,-17.2994],[145.55314,-17.30012],[145.55456,-17.3019],[145.55484,-17.30355],[145.55463,-17.30637],[145.55316,-17.31038],[145.55368,-17.31344],[145.55327,-17.31778],[145.55452,-17.31994],[145.56045,-17.32561],[145.56461,-17.33157],[145.56484,-17.33244],[145.56401,-17.33578],[145.56546,-17.33972],[145.56669,-17.34067],[145.5692,-17.3411],[145.576,-17.34548],[145.57916,-17.34652],[145.58055,-17.34925],[145.58274,-17.35198],[145.58374,-17.35464],[145.58472,-17.35548],[145.58627,-17.35541],[145.58817,-17.3541],[145.58969,-17.35224],[145.59125,-17.3518],[145.59121,-17.35275],[145.59583,-17.35403],[145.59533,-17.35944],[145.59647,-17.36251],[145.59648,-17.36374],[145.59382,-17.37188],[145.59216,-17.37492],[145.59201,-17.37636],[145.59534,-17.38094],[145.59642,-17.3902],[145.59593,-17.39308],[145.59786,-17.39675],[145.59768,-17.39952],[145.59857,-17.40422],[145.59749,-17.40831],[145.59823,-17.414],[145.59978,-17.41691],[145.60228,-17.41943],[145.60293,-17.42249],[145.60378,-17.42435],[145.60373,-17.42744],[145.60154,-17.43359],[145.60093,-17.43851],[145.60001,-17.44208],[145.6,-17.44483],[145.59937,-17.44776],[145.59992,-17.45068],[145.5997,-17.45219],[145.59885,-17.45342],[145.59585,-17.45571],[145.59252,-17.46058],[145.58806,-17.46446],[145.58742,-17.46562],[145.58724,-17.46806],[145.58673,-17.46918],[145.58284,-17.47317],[145.58087,-17.47623],[145.57955,-17.47752],[145.57878,-17.47928],[145.57726,-17.48861],[145.57607,-17.49201],[145.57666,-17.49403],[145.58144,-17.50087],[145.58099,-17.50444],[145.58144,-17.50754],[145.58218,-17.50895],[145.58335,-17.51004],[145.5915,-17.51195],[145.59397,-17.513],[145.59795,-17.51553],[145.60608,-17.51769],[145.60849,-17.51684],[145.61129,-17.51434],[145.61434,-17.51252],[145.61719,-17.50953],[145.62107,-17.50649],[145.61787,-17.5034],[145.6171,-17.50197],[145.61348,-17.49921],[145.6135,-17.49518],[145.61258,-17.49481],[145.61112,-17.49554],[145.61258,-17.49481],[145.6135,-17.49518],[145.61368,-17.49382],[145.61509,-17.49189],[145.61581,-17.49015],[145.61533,-17.48928],[145.61371,-17.48962],[145.61298,-17.48909],[145.61363,-17.48678],[145.61787,-17.48532],[145.62113,-17.48664],[145.62522,-17.4868],[145.62812,-17.48425],[145.63058,-17.48405],[145.63462,-17.48275],[145.6357,-17.48076],[145.63555,-17.47791],[145.63583,-17.47728],[145.63776,-17.4748],[145.63977,-17.47349],[145.64009,-17.47131],[145.6418,-17.46985],[145.64364,-17.46905],[145.64546,-17.46558],[145.64703,-17.46509],[145.64956,-17.46678],[145.65095,-17.46941],[145.65318,-17.47123],[145.65407,-17.47297],[145.65551,-17.47397],[145.65722,-17.47788],[145.65963,-17.48167],[145.65631,-17.49254],[145.65436,-17.49403],[145.65157,-17.49474],[145.64872,-17.49851],[145.64167,-17.50181],[145.63948,-17.50369],[145.63841,-17.50411],[145.6365,-17.50346],[145.63301,-17.50312],[145.63061,-17.50341],[145.62994,-17.50443],[145.63141,-17.50617],[145.63124,-17.50648],[145.6299,-17.50502],[145.62858,-17.50434],[145.62647,-17.50411],[145.62495,-17.50456],[145.62107,-17.50649],[145.61719,-17.50953],[145.61434,-17.51252],[145.61129,-17.51434],[145.60849,-17.51684],[145.60653,-17.51764],[145.60476,-17.51759],[145.60089,-17.5161],[145.59832,-17.51567],[145.59397,-17.513],[145.5915,-17.51195],[145.58335,-17.51004],[145.58218,-17.50895],[145.58144,-17.50754],[145.58099,-17.50444],[145.58144,-17.50087],[145.57637,-17.49351],[145.5762,-17.49128],[145.57726,-17.48861],[145.57878,-17.47928],[145.57955,-17.47752],[145.58087,-17.47623],[145.58284,-17.47317],[145.58673,-17.46918],[145.58724,-17.46806],[145.58742,-17.46562],[145.58806,-17.46446],[145.59252,-17.46058],[145.59585,-17.45571],[145.59885,-17.45342],[145.5997,-17.45219],[145.59992,-17.45068],[145.59937,-17.44776],[145.6,-17.44483],[145.60001,-17.44208],[145.60093,-17.43851],[145.60154,-17.43359],[145.60373,-17.42744],[145.60378,-17.42435],[145.60293,-17.42249],[145.60228,-17.41943],[145.59978,-17.41691],[145.59823,-17.414],[145.59749,-17.40831],[145.59857,-17.40422],[145.59768,-17.39952],[145.59786,-17.39675],[145.59593,-17.39308],[145.59642,-17.3902],[145.59534,-17.38094],[145.59201,-17.37636],[145.59216,-17.37492],[145.59382,-17.37188],[145.59648,-17.36374],[145.59647,-17.36251],[145.59533,-17.35944],[145.59594,-17.35284],[145.59174,-17.35152],[145.58969,-17.35224],[145.58817,-17.3541],[145.58627,-17.35541],[145.58472,-17.35548],[145.58374,-17.35464],[145.58274,-17.35198],[145.58055,-17.34925],[145.57916,-17.34652],[145.57583,-17.34539],[145.5692,-17.3411],[145.56669,-17.34067],[145.56587,-17.34017],[145.56401,-17.33578],[145.56484,-17.33244],[145.56461,-17.33157],[145.56045,-17.32561],[145.55452,-17.31994],[145.55327,-17.31778],[145.55368,-17.31344],[145.55312,-17.31114],[145.55463,-17.30637],[145.55456,-17.3019],[145.55806,-17.30108],[145.5621,-17.30077],[145.56302,-17.30023],[145.56407,-17.29742],[145.56367,-17.29444],[145.56448,-17.29185],[145.57307,-17.28621],[145.57348,-17.28546],[145.57282,-17.28632],[145.57337,-17.28562],[145.57356,-17.28346],[145.57437,-17.28162],[145.57567,-17.2801],[145.57646,-17.27783],[145.57885,-17.275],[145.58165,-17.27398],[145.58294,-17.27133],[145.58385,-17.2712],[145.58552,-17.26776],[145.58543,-17.26602],[145.58473,-17.26548],[145.58459,-17.26752],[145.58473,-17.26548],[145.58543,-17.26602],[145.58554,-17.26755],[145.58431,-17.26999]]},"properties":{"mode":"drive","ids":["portdouglas","mareeba","millaa","ellinjaa","curtainfig","peterson","yungaburra"],"km":219.7,"min":200,"legs":[{"from":"portdouglas","to":"mareeba","km":85.5,"min":75},{"from":"mareeba","to":"millaa","km":79.0,"min":70},{"from":"millaa","to":"ellinjaa","km":8.2,"min":9},{"from":"ellinjaa","to":"curtainfig","km":42.8,"min":39},{"from":"curtainfig","to":"peterson","km":3.2,"min":6},{"from":"peterson","to":"yungaburra","km":1.0,"min":3}]}}]}