{"type":"FeatureCollection","features":[{"type":"Feature","geometry":{"type":"LineString","coordinates":[[148.28172,-41.22112],[148.28195,-41.22084],[148.2789,-41.22082],[148.27879,-41.22228],[148.27991,-41.2244],[148.27983,-41.22765],[148.2789,-41.22984],[148.27784,-41.23101],[148.27933,-41.23194],[148.2826,-41.23286],[148.28549,-41.23621],[148.28855,-41.23799],[148.28603,-41.24211],[148.28519,-41.24593],[148.28371,-41.24803],[148.28308,-41.25037],[148.284,-41.25212],[148.28513,-41.25652],[148.28817,-41.26038],[148.28926,-41.26238],[148.29007,-41.26587],[148.2882,-41.26917],[148.28526,-41.27151],[148.28221,-41.27253],[148.28044,-41.27358],[148.27929,-41.27578],[148.27761,-41.27761],[148.27792,-41.28083],[148.27673,-41.28268],[148.27602,-41.28496],[148.27455,-41.28669],[148.27466,-41.2887],[148.27387,-41.295],[148.27447,-41.29678],[148.27477,-41.30204],[148.27137,-41.30686],[148.2713,-41.31071],[148.26679,-41.31278],[148.25927,-41.31864],[148.25861,-41.32058],[148.25589,-41.32255],[148.2498,-41.3218],[148.24812,-41.31797],[148.23651,-41.31638],[148.23502,-41.31288],[148.23107,-41.30943],[148.22871,-41.3088],[148.22693,-41.30954],[148.22551,-41.30959],[148.21954,-41.30773],[148.21844,-41.30644],[148.21563,-41.30484],[148.21483,-41.30279],[148.2089,-41.29963],[148.20459,-41.29916],[148.19456,-41.29512],[148.18263,-41.29317],[148.17756,-41.29059],[148.1704,-41.28791],[148.16658,-41.28548],[148.16331,-41.28476],[148.15969,-41.28477],[148.15429,-41.28249],[148.1487,-41.28195],[148.14346,-41.28091],[148.14058,-41.28113],[148.13475,-41.28259],[148.12983,-41.28267],[148.12829,-41.28175],[148.12477,-41.27744],[148.12113,-41.27405],[148.11931,-41.27302],[148.11585,-41.2728],[148.11332,-41.27314],[148.10572,-41.27188],[148.10162,-41.27245],[148.09915,-41.27194],[148.09664,-41.26942],[148.09393,-41.26796],[148.09152,-41.26544],[148.09013,-41.26189],[148.08799,-41.26078],[148.08628,-41.25899],[148.08559,-41.25814],[148.08512,-41.25622],[148.0822,-41.25458],[148.07973,-41.25469],[148.0755,-41.25735],[148.07262,-41.25671],[148.0724,-41.25787],[148.07166,-41.25825],[148.06708,-41.25746],[148.06558,-41.25795],[148.06354,-41.25799],[148.06232,-41.25868],[148.0611,-41.25834],[148.06001,-41.25855],[148.05846,-41.25652],[148.05745,-41.25632],[148.0555,-41.25719],[148.05295,-41.25621],[148.05038,-41.25742],[148.04753,-41.25663],[148.04349,-41.25774],[148.0386,-41.26078],[148.03776,-41.26033],[148.03673,-41.26041],[148.03577,-41.26114],[148.0346,-41.26137],[148.03402,-41.26242],[148.03232,-41.2627],[148.03076,-41.26389],[148.03062,-41.26582],[148.02978,-41.26645],[148.02881,-41.26644],[148.02801,-41.26566],[148.02705,-41.26634],[148.02406,-41.26693],[148.0211,-41.26833],[148.01709,-41.27093],[148.01268,-41.27696],[148.01219,-41.27805],[148.01219,-41.27973],[148.01119,-41.28051],[148.00323,-41.28079],[147.99993,-41.28023],[147.99324,-41.27805],[147.9903,-41.27772],[147.98355,-41.27791],[147.97841,-41.27631],[147.97617,-41.27662],[147.97473,-41.27637],[147.97247,-41.27519],[147.9715,-41.27183],[147.96856,-41.27013],[147.96826,-41.26928],[147.96936,-41.2681],[147.97338,-41.26775],[147.97514,-41.26609],[147.97708,-41.26541],[147.97687,-41.26328],[147.97541,-41.26285],[147.97381,-41.26335],[147.97225,-41.26198],[147.96895,-41.26099],[147.96913,-41.25924],[147.96985,-41.25784],[147.96942,-41.25708],[147.96674,-41.25598],[147.96492,-41.25628],[147.96408,-41.25586],[147.96251,-41.25596],[147.96154,-41.25511],[147.9638,-41.25365],[147.96382,-41.2524],[147.96151,-41.25206],[147.96022,-41.25264],[147.95761,-41.25227],[147.95769,-41.25087],[147.95307,-41.24741],[147.9533,-41.24306],[147.9538,-41.24204],[147.95396,-41.24017],[147.95226,-41.2391],[147.95195,-41.23657],[147.95243,-41.23516],[147.95414,-41.23338],[147.95583,-41.23078],[147.95744,-41.22954],[147.95814,-41.22785],[147.95806,-41.22604],[147.95457,-41.22336],[147.95434,-41.22269],[147.95496,-41.22196],[147.95382,-41.22243],[147.95171,-41.22239],[147.95125,-41.22221],[147.95123,-41.22159],[147.94881,-41.22046],[147.9463,-41.22094],[147.94439,-41.21999],[147.94502,-41.21872],[147.94476,-41.21816],[147.94503,-41.21744],[147.9375,-41.21644],[147.9367,-41.2152],[147.93511,-41.21444],[147.93387,-41.21456],[147.93318,-41.21378],[147.93066,-41.21374],[147.92929,-41.21286],[147.9257,-41.21217],[147.92292,-41.21117],[147.91955,-41.20787],[147.91792,-41.20691],[147.90787,-41.1956],[147.90464,-41.19445],[147.90395,-41.19331],[147.90387,-41.19211],[147.90465,-41.19047],[147.90691,-41.188],[147.90655,-41.18467],[147.9047,-41.18408],[147.90335,-41.18268],[147.90245,-41.18039],[147.90322,-41.17787],[147.90303,-41.177],[147.90196,-41.17501],[147.90027,-41.17446],[147.89955,-41.17351],[147.89868,-41.17083],[147.89902,-41.16987],[147.89668,-41.16907],[147.89571,-41.16825],[147.89826,-41.16434],[147.89673,-41.16377],[147.89595,-41.16269],[147.89666,-41.15994],[147.8961,-41.15899],[147.8985,-41.15838],[147.90073,-41.15666],[147.90076,-41.15598],[147.89895,-41.15473],[147.89891,-41.15353],[147.89846,-41.15291],[147.89413,-41.15196],[147.89244,-41.14971],[147.89136,-41.14912],[147.89153,-41.14749],[147.88928,-41.14596],[147.88595,-41.14585],[147.88393,-41.14631],[147.88087,-41.14446],[147.87883,-41.14215],[147.8766,-41.13551],[147.87446,-41.13245],[147.87333,-41.1298],[147.87048,-41.12748],[147.86942,-41.12546],[147.87083,-41.12265],[147.87186,-41.11931],[147.87193,-41.11847],[147.87126,-41.11688],[147.8729,-41.11486],[147.87319,-41.1138],[147.87295,-41.11299],[147.87211,-41.11219],[147.86939,-41.11126],[147.86674,-41.1097],[147.86087,-41.10906],[147.85644,-41.10689],[147.85376,-41.10618],[147.84879,-41.10404],[147.84584,-41.10408],[147.83939,-41.1069],[147.83555,-41.11105],[147.8334,-41.11214],[147.83153,-41.11376],[147.82744,-41.11473],[147.82557,-41.11719],[147.8214,-41.11948],[147.8184,-41.12204],[147.81651,-41.12555],[147.81428,-41.12779],[147.81325,-41.13276],[147.81058,-41.13571],[147.80982,-41.13772],[147.8086,-41.139],[147.80857,-41.14124],[147.80979,-41.14305],[147.80924,-41.1443],[147.80918,-41.1457],[147.80726,-41.1471],[147.80481,-41.14999],[147.80377,-41.15014],[147.802,-41.14903],[147.80024,-41.14517],[147.79617,-41.1413],[147.79018,-41.14022],[147.78732,-41.14073],[147.7848,-41.14179],[147.78105,-41.14127],[147.78011,-41.14207],[147.77999,-41.14395],[147.77835,-41.14586],[147.7789,-41.14772],[147.77871,-41.14865],[147.77717,-41.15025],[147.77028,-41.15285],[147.76622,-41.15348],[147.76506,-41.15414],[147.76383,-41.16032],[147.76306,-41.16244],[147.76213,-41.16408],[147.7601,-41.1658],[147.75868,-41.1663],[147.74428,-41.1671],[147.73916,-41.16849],[147.73665,-41.16843],[147.73424,-41.16736],[147.73247,-41.16759],[147.73052,-41.16924],[147.72949,-41.17136],[147.72865,-41.1722],[147.72493,-41.17312],[147.71185,-41.17994],[147.71035,-41.18176],[147.70836,-41.18543],[147.70381,-41.18966],[147.69147,-41.19584],[147.68894,-41.19758],[147.67994,-41.20131],[147.67723,-41.20358],[147.67562,-41.20268],[147.67344,-41.20263],[147.67153,-41.20206],[147.66668,-41.1986],[147.66629,-41.19747],[147.66535,-41.19652],[147.66544,-41.19508],[147.664,-41.19424],[147.66261,-41.19234],[147.66246,-41.19061],[147.66037,-41.18957],[147.65937,-41.18863],[147.66015,-41.18702],[147.65995,-41.18571],[147.65766,-41.18364],[147.65885,-41.17943],[147.65879,-41.17697],[147.65579,-41.17513],[147.65062,-41.1693],[147.64738,-41.16771],[147.64425,-41.16764],[147.64186,-41.16822],[147.63814,-41.17099],[147.63298,-41.17258],[147.62841,-41.17321],[147.62389,-41.17241],[147.614,-41.17431],[147.61058,-41.17563],[147.6068,-41.17945],[147.59872,-41.18212],[147.58156,-41.18557],[147.56126,-41.19092],[147.55953,-41.19064],[147.55751,-41.18963],[147.52236,-41.16479],[147.52191,-41.16403],[147.52196,-41.1625],[147.51872,-41.15957],[147.4971,-41.17418],[147.49472,-41.17545],[147.4913,-41.17818],[147.49028,-41.18136],[147.49012,-41.18605],[147.49226,-41.19031],[147.49239,-41.19256],[147.49162,-41.19686],[147.49284,-41.19971],[147.49242,-41.20095],[147.49157,-41.20193],[147.49167,-41.20308],[147.49107,-41.20412],[147.49097,-41.20526],[147.4863,-41.21053],[147.48413,-41.21156],[147.48216,-41.21479],[147.47752,-41.21776],[147.47708,-41.21833],[147.47693,-41.22],[147.47531,-41.2216],[147.47189,-41.22333],[147.46776,-41.2261],[147.46728,-41.22751],[147.46609,-41.22884],[147.4627,-41.2312],[147.45737,-41.23234],[147.4564,-41.23371],[147.4551,-41.23336],[147.4502,-41.23486],[147.44934,-41.23544],[147.44768,-41.23537],[147.44013,-41.2385],[147.43791,-41.24175],[147.4354,-41.24285],[147.43495,-41.24324],[147.43477,-41.24424],[147.43404,-41.24331],[147.43416,-41.24273],[147.43338,-41.24198],[147.43342,-41.2407],[147.43232,-41.23954],[147.43267,-41.23814],[147.43177,-41.23849],[147.43135,-41.23978],[147.4319,-41.2405],[147.43109,-41.241],[147.43056,-41.24218],[147.42983,-41.24253],[147.43064,-41.24337],[147.42956,-41.24499],[147.4299,-41.24651],[147.42945,-41.24853],[147.43153,-41.25152],[147.42994,-41.25929],[147.42917,-41.26042],[147.42516,-41.26255],[147.42287,-41.26265],[147.42197,-41.26395],[147.42218,-41.26564],[147.41935,-41.26518],[147.41783,-41.26593],[147.41906,-41.26795],[147.42003,-41.26849],[147.41985,-41.26927],[147.42128,-41.27015],[147.42042,-41.27047],[147.42046,-41.27091],[147.41693,-41.26955],[147.41462,-41.26807],[147.41338,-41.269],[147.41327,-41.2702],[147.4129,-41.27034],[147.41028,-41.26804],[147.40993,-41.26707],[147.40836,-41.26708],[147.40784,-41.26623],[147.40499,-41.26572],[147.40294,-41.26487],[147.40219,-41.26663],[147.40124,-41.26693],[147.39921,-41.26667],[147.39696,-41.26718],[147.39587,-41.26641],[147.39384,-41.26652],[147.39015,-41.26581],[147.38932,-41.26626],[147.38655,-41.26549],[147.38608,-41.26592],[147.38804,-41.26806],[147.38675,-41.26841],[147.38646,-41.26888],[147.382,-41.2676],[147.37992,-41.26886],[147.3783,-41.26808],[147.37652,-41.26845],[147.37641,-41.26912],[147.37874,-41.27037],[147.38127,-41.27289],[147.3824,-41.27635],[147.38225,-41.27716],[147.38402,-41.28035],[147.38335,-41.28451],[147.38538,-41.29295],[147.38462,-41.29774],[147.38382,-41.29914],[147.38262,-41.30016],[147.38177,-41.30195],[147.3816,-41.30544],[147.38213,-41.30663],[147.38193,-41.30746],[147.37988,-41.30951],[147.37416,-41.31129],[147.36756,-41.31074],[147.36854,-41.31257],[147.36868,-41.31394],[147.36382,-41.3196],[147.36295,-41.32233],[147.36025,-41.32428],[147.35768,-41.32481],[147.35639,-41.32749],[147.35399,-41.32864],[147.35308,-41.33013],[147.34981,-41.33266],[147.34806,-41.3352],[147.34748,-41.3365],[147.34693,-41.3401],[147.34492,-41.34298],[147.34223,-41.34553],[147.34197,-41.34713],[147.33917,-41.3529],[147.33767,-41.35996],[147.3367,-41.3615],[147.32772,-41.36789],[147.32312,-41.36928],[147.32131,-41.37079],[147.31805,-41.37138],[147.31539,-41.37247],[147.31406,-41.37347],[147.31113,-41.37839],[147.31175,-41.38198],[147.31014,-41.38456],[147.30494,-41.38755],[147.29834,-41.39052],[147.29605,-41.39241],[147.29293,-41.39598],[147.29299,-41.39809],[147.29252,-41.39902],[147.28299,-41.40507],[147.28149,-41.40657],[147.28063,-41.40816],[147.28086,-41.4103],[147.28032,-41.41385],[147.28098,-41.41651],[147.28055,-41.41771],[147.27834,-41.41884],[147.27264,-41.42052],[147.26924,-41.42041],[147.26519,-41.41948],[147.26102,-41.41764],[147.25932,-41.41803],[147.25739,-41.41978],[147.25611,-41.42161],[147.25493,-41.4266],[147.2524,-41.42942],[147.25151,-41.43285],[147.25163,-41.4342],[147.25435,-41.43844],[147.25486,-41.44072],[147.25455,-41.44167],[147.25152,-41.44543],[147.24657,-41.44714],[147.24495,-41.44732],[147.23815,-41.44412],[147.23458,-41.44332],[147.23325,-41.44365],[147.22792,-41.44642],[147.22561,-41.44665],[147.21909,-41.44595],[147.21534,-41.44493],[147.21393,-41.44377],[147.21173,-41.4455],[147.21094,-41.44737],[147.20865,-41.4494],[147.20314,-41.45234],[147.20171,-41.45191],[147.19709,-41.45383],[147.19902,-41.45508],[147.19815,-41.45582],[147.19735,-41.45766],[147.19436,-41.45943],[147.19254,-41.46139],[147.18846,-41.46306],[147.1871,-41.46445],[147.18541,-41.46475],[147.18429,-41.46603],[147.18116,-41.46806],[147.16596,-41.4744],[147.16361,-41.47757],[147.15181,-41.48377],[147.14955,-41.48437],[147.14951,-41.48492],[147.15017,-41.48509],[147.15054,-41.48449],[147.14881,-41.47984],[147.14437,-41.47614],[147.14221,-41.47276],[147.1405,-41.47261],[147.13882,-41.47368],[147.13772,-41.47514],[147.13706,-41.4801],[147.1357,-41.48287],[147.13209,-41.48638],[147.12759,-41.48958],[147.12242,-41.49188],[147.11004,-41.49427],[147.10147,-41.49794],[147.09667,-41.49878],[147.09478,-41.4995],[147.09289,-41.50131],[147.09091,-41.50688],[147.08932,-41.50921],[147.07682,-41.51811],[147.059,-41.52894],[147.0247,-41.54684],[147.01809,-41.5494],[147.01297,-41.55045],[146.98436,-41.55358],[146.94802,-41.54941],[146.91913,-41.54209],[146.91638,-41.5411],[146.91029,-41.53764],[146.90736,-41.5365],[146.86674,-41.52549],[146.86224,-41.52328],[146.85406,-41.51749],[146.85012,-41.51602],[146.84677,-41.51538],[146.84082,-41.51542],[146.82907,-41.5176],[146.78972,-41.51705],[146.78248,-41.51765],[146.76829,-41.51983],[146.74671,-41.51996],[146.73915,-41.51923],[146.72736,-41.51552],[146.72387,-41.51518],[146.72023,-41.51584],[146.71103,-41.52007],[146.70638,-41.52059],[146.68086,-41.51602],[146.65771,-41.51477],[146.63811,-41.51116],[146.63477,-41.51002],[146.63169,-41.50835],[146.62843,-41.50555],[146.62518,-41.50158],[146.62002,-41.49927],[146.6128,-41.49353],[146.60511,-41.48997],[146.59824,-41.48447],[146.59042,-41.48203],[146.58464,-41.47751],[146.57287,-41.47292],[146.56492,-41.47218],[146.5632,-41.47078],[146.56225,-41.46834],[146.56076,-41.46845],[146.55858,-41.4696],[146.55703,-41.46951],[146.55409,-41.46651],[146.55247,-41.46556],[146.54496,-41.46444],[146.53377,-41.46186],[146.53339,-41.46107],[146.53463,-41.45459],[146.5362,-41.4501],[146.53611,-41.44807],[146.5359,-41.44744],[146.53207,-41.44366],[146.53081,-41.43907],[146.53082,-41.4373],[146.52859,-41.42701],[146.52757,-41.42536],[146.52585,-41.42425],[146.525,-41.42149],[146.52568,-41.41913],[146.52211,-41.4156],[146.51951,-41.41457],[146.51697,-41.4128],[146.50976,-41.40985],[146.50539,-41.4062],[146.49951,-41.4059],[146.49834,-41.40536],[146.4953,-41.40175],[146.49204,-41.39932],[146.49073,-41.39518],[146.48952,-41.3961],[146.4858,-41.39713],[146.48189,-41.40063],[146.47708,-41.40177],[146.47397,-41.40047],[146.47278,-41.40044],[146.46219,-41.40488],[146.45535,-41.40647],[146.45191,-41.40679],[146.44947,-41.40782],[146.4477,-41.4094],[146.44036,-41.41219],[146.43825,-41.412],[146.436,-41.41125],[146.43536,-41.41],[146.43346,-41.40928],[146.43084,-41.4063],[146.42909,-41.40341],[146.42823,-41.40302],[146.42656,-41.40091],[146.42318,-41.4003],[146.42008,-41.39833],[146.41591,-41.39844],[146.41364,-41.39807],[146.40719,-41.39396],[146.4029,-41.39175],[146.39858,-41.39272],[146.38967,-41.39285],[146.36803,-41.38905],[146.36508,-41.38808],[146.35316,-41.38662],[146.35115,-41.38696],[146.34789,-41.38535],[146.34175,-41.38439],[146.33546,-41.38597],[146.32586,-41.38252],[146.32626,-41.38207],[146.32678,-41.38233],[146.32642,-41.38274],[146.33155,-41.38473],[146.32066,-41.39623],[146.32156,-41.39847],[146.31991,-41.40047],[146.31838,-41.4016],[146.31328,-41.40399],[146.29607,-41.42227],[146.29443,-41.42697],[146.29304,-41.42936],[146.29102,-41.43122],[146.28949,-41.43183],[146.2854,-41.43188],[146.27616,-41.43426],[146.25901,-41.4349],[146.25727,-41.43541],[146.24954,-41.44055],[146.24427,-41.44278],[146.23549,-41.4479],[146.2342,-41.45005],[146.22525,-41.45778],[146.223,-41.45909],[146.22155,-41.46195],[146.22158,-41.46447],[146.21723,-41.46937],[146.21218,-41.47093],[146.2092,-41.47126],[146.20407,-41.47372],[146.19931,-41.47522],[146.19828,-41.47595],[146.19583,-41.47604],[146.19479,-41.47674],[146.19014,-41.47607],[146.18891,-41.47492],[146.18502,-41.47608],[146.18268,-41.47608],[146.18095,-41.47655],[146.17686,-41.47679],[146.17332,-41.47641],[146.16925,-41.47755],[146.16486,-41.47765],[146.15987,-41.47471],[146.15531,-41.47282],[146.15423,-41.473],[146.15217,-41.47246],[146.15036,-41.47304],[146.14879,-41.47238],[146.14775,-41.4724],[146.14733,-41.47219],[146.14739,-41.47061],[146.14703,-41.46985],[146.14395,-41.4687],[146.14253,-41.46862],[146.14127,-41.46924],[146.14087,-41.46995],[146.14167,-41.471],[146.13982,-41.47048],[146.14035,-41.46832],[146.14115,-41.46747],[146.14128,-41.4662],[146.14074,-41.46728],[146.13945,-41.46805],[146.13707,-41.47131],[146.13508,-41.47152],[146.1344,-41.47335],[146.13286,-41.47313],[146.12983,-41.47359],[146.13071,-41.4744],[146.13276,-41.47477],[146.13304,-41.47537],[146.13283,-41.47674],[146.13145,-41.47529],[146.12826,-41.47496],[146.12688,-41.47591],[146.12425,-41.47653],[146.11617,-41.47749],[146.11904,-41.47836],[146.11523,-41.47841],[146.10757,-41.47676],[146.10277,-41.47733],[146.10138,-41.4785],[146.09982,-41.47762],[146.09763,-41.47556],[146.09561,-41.47499],[146.09521,-41.47598],[146.09384,-41.47644],[146.09422,-41.4786],[146.09323,-41.47971],[146.0913,-41.48029],[146.09062,-41.48178],[146.09224,-41.48415],[146.09346,-41.48521],[146.09301,-41.48582],[146.09154,-41.48595],[146.09011,-41.48662],[146.09073,-41.48893],[146.09049,-41.48965],[146.08915,-41.4907],[146.08989,-41.49198],[146.08955,-41.49311],[146.08814,-41.49529],[146.08709,-41.49405],[146.08544,-41.49402],[146.08457,-41.49444],[146.07947,-41.50554],[146.07551,-41.52495],[146.07359,-41.52796],[146.06736,-41.53039],[146.06783,-41.53139],[146.06746,-41.53351],[146.06638,-41.53511],[146.06569,-41.53888],[146.06592,-41.54288],[146.06424,-41.54554],[146.06407,-41.54663],[146.06282,-41.54806],[146.06399,-41.55147],[146.06138,-41.55402],[146.0594,-41.55404],[146.05806,-41.55248],[146.05676,-41.55186],[146.05339,-41.55203],[146.05081,-41.55145],[146.04927,-41.55049],[146.0471,-41.55068],[146.04523,-41.54929],[146.04292,-41.54888],[146.04072,-41.5479],[146.03688,-41.54797],[146.02389,-41.54582],[146.01768,-41.54541],[146.01274,-41.54346],[146.00586,-41.54416],[146.00337,-41.5431],[146.00051,-41.54263],[145.99357,-41.54368],[145.98559,-41.54422],[145.98145,-41.54283],[145.97589,-41.54283],[145.9706,-41.5453],[145.96533,-41.54979],[145.95856,-41.55386],[145.9501,-41.5564],[145.94997,-41.56172],[145.94919,-41.56264],[145.9439,-41.566],[145.93969,-41.57164],[145.93908,-41.57341],[145.94043,-41.57647],[145.94034,-41.57742],[145.9368,-41.58168],[145.93565,-41.5824],[145.93621,-41.58291]]},"properties":{"mode":"drive","ids":["cosycorner","weldborough","sheffield","cradle"],"km":312.7,"min":252,"legs":[{"from":"cosycorner","to":"weldborough","km":54.1,"min":48},{"from":"weldborough","to":"sheffield","km":204.9,"min":160},{"from":"sheffield","to":"cradle","km":53.7,"min":44}]}},{"type":"Feature","geometry":{"type":"LineString","coordinates":[[145.93621,-41.58291],[145.93789,-41.581],[145.93756,-41.58084],[145.93339,-41.58406],[145.93441,-41.5892],[145.93399,-41.59123],[145.93323,-41.592],[145.92971,-41.5936],[145.92891,-41.59505],[145.92934,-41.59599],[145.9309,-41.59648],[145.93182,-41.59769],[145.93142,-41.60069],[145.93186,-41.60366],[145.93406,-41.60734],[145.93556,-41.60833],[145.93706,-41.60829],[145.93714,-41.60939],[145.93853,-41.61089],[145.93878,-41.61362],[145.93988,-41.61747],[145.94284,-41.61964],[145.94348,-41.62054],[145.94361,-41.62239],[145.94443,-41.6237],[145.94475,-41.62546],[145.94671,-41.6271],[145.94615,-41.62843],[145.94683,-41.62893],[145.94649,-41.63115],[145.94697,-41.63334],[145.94838,-41.63441],[145.95031,-41.63749],[145.95392,-41.63827],[145.95843,-41.64076],[145.95886,-41.64296],[145.95983,-41.64392],[145.96191,-41.64804],[145.96149,-41.64989]]},"properties":{"mode":"shuttle","ids":["cradle","ronny","dovelake"],"km":9.6,"min":19,"legs":[{"from":"cradle","to":"ronny","km":7.6,"min":15},{"from":"ronny","to":"dovelake","km":2.1,"min":4}]}},{"type":"Feature","geometry":{"type":"LineString","coordinates":[[145.93621,-41.58291],[145.94034,-41.57742],[145.94043,-41.57647],[145.93908,-41.57341],[145.93969,-41.57164],[145.9439,-41.566],[145.94919,-41.56264],[145.94997,-41.56172],[145.9501,-41.5564],[145.95856,-41.55386],[145.96533,-41.54979],[145.9706,-41.5453],[145.97589,-41.54283],[145.98145,-41.54283],[145.98559,-41.54422],[145.99357,-41.54368],[146.00051,-41.54263],[146.00337,-41.5431],[146.00586,-41.54416],[146.01274,-41.54346],[146.01768,-41.54541],[146.02389,-41.54582],[146.03688,-41.54797],[146.04072,-41.5479],[146.04292,-41.54888],[146.04523,-41.54929],[146.0471,-41.55068],[146.04927,-41.55049],[146.05081,-41.55145],[146.05339,-41.55203],[146.05676,-41.55186],[146.05806,-41.55248],[146.0594,-41.55404],[146.06138,-41.55402],[146.06399,-41.55147],[146.06282,-41.54806],[146.06407,-41.54663],[146.06424,-41.54554],[146.06592,-41.54288],[146.06569,-41.53888],[146.06638,-41.53511],[146.06746,-41.53351],[146.06783,-41.53139],[146.06736,-41.53039],[146.07359,-41.52796],[146.07551,-41.52495],[146.07947,-41.50554],[146.08457,-41.49444],[146.08544,-41.49402],[146.08709,-41.49405],[146.08814,-41.49529],[146.08955,-41.49311],[146.08989,-41.49198],[146.08915,-41.4907],[146.09049,-41.48965],[146.09073,-41.48893],[146.09011,-41.48662],[146.09154,-41.48595],[146.09301,-41.48582],[146.09346,-41.48521],[146.09224,-41.48415],[146.09062,-41.48178],[146.0913,-41.48029],[146.09323,-41.47971],[146.09422,-41.4786],[146.09384,-41.47644],[146.09521,-41.47598],[146.09561,-41.47499],[146.09763,-41.47556],[146.09982,-41.47762],[146.10138,-41.4785],[146.10277,-41.47733],[146.10757,-41.47676],[146.11523,-41.47841],[146.11904,-41.47836],[146.11617,-41.47749],[146.12425,-41.47653],[146.12688,-41.47591],[146.12826,-41.47496],[146.13145,-41.47529],[146.13283,-41.47674],[146.13304,-41.47537],[146.13276,-41.47477],[146.13071,-41.4744],[146.12983,-41.47359],[146.13286,-41.47313],[146.1344,-41.47335],[146.13508,-41.47152],[146.13707,-41.47131],[146.13945,-41.46805],[146.14074,-41.46728],[146.14128,-41.4662],[146.14115,-41.46747],[146.14035,-41.46832],[146.13982,-41.47048],[146.14167,-41.471],[146.14087,-41.46995],[146.14127,-41.46924],[146.14253,-41.46862],[146.14395,-41.4687],[146.14703,-41.46985],[146.14739,-41.47061],[146.14733,-41.47219],[146.14775,-41.4724],[146.14879,-41.47238],[146.15036,-41.47304],[146.15217,-41.47246],[146.15423,-41.473],[146.15531,-41.47282],[146.15987,-41.47471],[146.16486,-41.47765],[146.16925,-41.47755],[146.17332,-41.47641],[146.17686,-41.47679],[146.18095,-41.47655],[146.18268,-41.47608],[146.18502,-41.47608],[146.18891,-41.47492],[146.19014,-41.47607],[146.19479,-41.47674],[146.19583,-41.47604],[146.19828,-41.47595],[146.19931,-41.47522],[146.20407,-41.47372],[146.2092,-41.47126],[146.21218,-41.47093],[146.21723,-41.46937],[146.22158,-41.46447],[146.22155,-41.46195],[146.223,-41.45909],[146.22525,-41.45778],[146.2342,-41.45005],[146.23549,-41.4479],[146.24427,-41.44278],[146.24954,-41.44055],[146.25727,-41.43541],[146.25901,-41.4349],[146.27616,-41.43426],[146.2854,-41.43188],[146.28949,-41.43183],[146.29102,-41.43122],[146.29304,-41.42936],[146.29443,-41.42697],[146.29607,-41.42227],[146.31328,-41.40399],[146.31838,-41.4016],[146.31991,-41.40047],[146.32156,-41.39847],[146.32066,-41.39623],[146.33155,-41.38473],[146.33594,-41.38598],[146.33924,-41.38481],[146.34175,-41.38439],[146.34789,-41.38535],[146.35115,-41.38696],[146.35316,-41.38662],[146.36508,-41.38808],[146.36803,-41.38905],[146.38967,-41.39285],[146.39858,-41.39272],[146.4021,-41.39173],[146.40319,-41.39183],[146.41364,-41.39807],[146.41591,-41.39844],[146.42008,-41.39833],[146.42318,-41.4003],[146.42656,-41.40091],[146.42823,-41.40302],[146.42909,-41.40341],[146.43084,-41.4063],[146.43346,-41.40928],[146.43536,-41.41],[146.436,-41.41125],[146.43825,-41.412],[146.44036,-41.41219],[146.4477,-41.4094],[146.44947,-41.40782],[146.45191,-41.40679],[146.45535,-41.40647],[146.46219,-41.40488],[146.47278,-41.40044],[146.47397,-41.40047],[146.47708,-41.40177],[146.48189,-41.40063],[146.4858,-41.39713],[146.48952,-41.3961],[146.49073,-41.39518],[146.49204,-41.39932],[146.4953,-41.40175],[146.49834,-41.40536],[146.49951,-41.4059],[146.50539,-41.4062],[146.50976,-41.40985],[146.51697,-41.4128],[146.51951,-41.41457],[146.52211,-41.4156],[146.52568,-41.41913],[146.525,-41.42149],[146.52585,-41.42425],[146.52757,-41.42536],[146.52859,-41.42701],[146.53082,-41.4373],[146.53081,-41.43907],[146.53207,-41.44366],[146.5359,-41.44744],[146.53611,-41.44807],[146.5362,-41.4501],[146.53463,-41.45459],[146.53339,-41.46107],[146.53377,-41.46186],[146.54496,-41.46444],[146.55247,-41.46556],[146.55409,-41.46651],[146.55703,-41.46951],[146.55858,-41.4696],[146.56076,-41.46845],[146.56225,-41.46834],[146.56342,-41.47087],[146.56505,-41.4721],[146.57287,-41.47292],[146.58464,-41.47751],[146.59085,-41.48226],[146.5989,-41.48483],[146.60511,-41.48997],[146.6128,-41.49353],[146.62002,-41.49927],[146.62482,-41.50133],[146.62601,-41.50229],[146.62893,-41.50606],[146.6324,-41.5088],[146.63563,-41.51036],[146.63944,-41.51146],[146.65819,-41.51482],[146.68086,-41.51602],[146.70709,-41.5206],[146.71221,-41.51971],[146.72023,-41.51584],[146.72387,-41.51518],[146.72736,-41.51552],[146.73915,-41.51923],[146.74671,-41.51996],[146.76684,-41.51971],[146.78261,-41.51741],[146.78979,-41.51682],[146.82916,-41.51738],[146.84038,-41.51528],[146.8468,-41.51516],[146.85114,-41.51611],[146.85467,-41.51756],[146.86224,-41.52328],[146.86628,-41.52533],[146.90736,-41.5365],[146.91029,-41.53764],[146.91638,-41.5411],[146.92027,-41.54241],[146.94802,-41.54941],[146.98035,-41.55336],[146.98694,-41.55345],[147.01297,-41.55045],[147.01906,-41.54913],[147.02364,-41.54736],[147.04282,-41.5375],[147.06177,-41.52734],[147.0737,-41.52],[147.08789,-41.51016],[147.09041,-41.50733],[147.09278,-41.50102],[147.09465,-41.49933],[147.09654,-41.4986],[147.1013,-41.49778],[147.10662,-41.49523],[147.11004,-41.49405],[147.12215,-41.49172],[147.12582,-41.49031],[147.12863,-41.4887],[147.13272,-41.48563],[147.13576,-41.48247],[147.13695,-41.47976],[147.13729,-41.47578],[147.13819,-41.47417],[147.14061,-41.47243],[147.144,-41.47167],[147.14427,-41.47116],[147.14366,-41.47075],[147.14299,-41.47102],[147.14282,-41.47191],[147.14343,-41.47463],[147.14491,-41.47653],[147.149,-41.47984],[147.15115,-41.48491],[147.1526,-41.48607],[147.15899,-41.48937],[147.16479,-41.49366],[147.16933,-41.49773],[147.17593,-41.50481],[147.17721,-41.508],[147.17756,-41.51717],[147.17815,-41.5194],[147.17986,-41.52236],[147.18379,-41.52642],[147.18535,-41.53018],[147.19215,-41.53278],[147.20687,-41.5466],[147.20821,-41.54588]]},"properties":{"mode":"drive","ids":["cradle","lst-airport"],"km":146.8,"min":114,"legs":[{"from":"cradle","to":"lst-airport","km":146.8,"min":114}]}},{"type":"Feature","geometry":{"type":"LineString","coordinates":[[147.2116,-41.5434],[147.129,-41.482],[147.0466,-41.4205],[146.9646,-41.3588],[146.8831,-41.2969],[146.8023,-41.2346],[146.7222,-41.1719],[146.643,-41.1087],[146.5648,-41.0449],[146.4878,-40.9805],[146.4119,-40.9154],[146.3374,-40.8495],[146.2643,-40.7829],[146.1928,-40.7153],[146.1229,-40.6468],[146.0546,-40.5773],[145.9882,-40.5067],[145.9236,-40.4351],[145.8608,-40.3624],[145.8001,-40.2885],[145.7413,-40.2134],[145.6846,-40.1371],[145.6299,-40.0597],[145.5773,-39.9809],[145.5269,-39.901],[145.4785,-39.8198],[145.4322,-39.7374],[145.388,-39.6537],[145.3459,-39.5688],[145.3058,-39.4827],[145.2677,-39.3955],[145.2315,-39.3071],[145.1973,-39.2176],[145.1648,-39.127],[145.1342,-39.0353],[145.1052,-38.9427],[145.0778,-38.8492],[145.0519,-38.7547],[145.0275,-38.6595],[145.0043,-38.5634],[144.9824,-38.4667],[144.9616,-38.3694],[144.9417,-38.2715],[144.9228,-38.1731],[144.9045,-38.0742],[144.8869,-37.9751],[144.8698,-37.8757],[144.8531,-37.7761],[144.8365,-37.6765]]},"properties":{"mode":"flight","ids":["lst-airport","mel-airport"],"km":475.6,"min":null,"legs":[]}},{"type":"Feature","geometry":{"type":"LineString","coordinates":[[144.83527,-37.67627],[144.83535,-37.67752],[144.83735,-37.68135],[144.83884,-37.68903],[144.83972,-37.69017],[144.84195,-37.69066],[144.8456,-37.68941],[144.85558,-37.68993],[144.85804,-37.70352],[144.85874,-37.70457],[144.86092,-37.70619],[144.85874,-37.71549],[144.85715,-37.71711],[144.85309,-37.71897],[144.85167,-37.72006],[144.85084,-37.72145],[144.84991,-37.72533],[144.87224,-37.72984],[144.88187,-37.73304],[144.88515,-37.73374],[144.89062,-37.73433],[144.89454,-37.73385],[144.90008,-37.73511],[144.90354,-37.73544],[144.90551,-37.7351],[144.9115,-37.73291],[144.91597,-37.73247],[144.92481,-37.73379],[144.92725,-37.73482],[144.92962,-37.73662],[144.93146,-37.74076],[144.93398,-37.74398],[144.93446,-37.7456],[144.93452,-37.74952],[144.93782,-37.75666],[144.93811,-37.75944],[144.9371,-37.77244],[144.9372,-37.77555],[144.93763,-37.77732],[144.93973,-37.78132],[144.94082,-37.78788],[144.9563,-37.80058],[144.95755,-37.80086],[144.95769,-37.80192],[144.96297,-37.81364]]},"properties":{"mode":"transfer","ids":["mel-airport","melbourne"],"km":24.4,"min":26,"legs":[{"from":"mel-airport","to":"melbourne","km":24.4,"min":26}]}}]}