{"type":"FeatureCollection","features":[{"type":"Feature","geometry":{"type":"LineString","coordinates":[[144.95739,-37.80739],[144.95819,-37.80752],[144.96123,-37.80659],[144.96529,-37.80704],[144.9693,-37.81574],[144.96932,-37.81583],[144.96889,-37.81595],[144.96935,-37.81705],[144.96914,-37.81712],[144.96934,-37.81773],[144.96806,-37.81829],[144.96877,-37.82002],[144.96918,-37.8205],[144.96944,-37.82108],[144.96987,-37.82096],[144.97324,-37.82189],[144.97358,-37.82189],[144.97354,-37.82179],[144.9738,-37.82165],[144.97374,-37.82201],[144.97401,-37.82205],[144.97427,-37.82235],[144.97473,-37.82239],[144.97514,-37.82266],[144.97547,-37.82298],[144.97544,-37.82312],[144.97613,-37.82376],[144.97578,-37.82434],[144.976,-37.82484],[144.97795,-37.82568],[144.97846,-37.82616],[144.97875,-37.82671],[144.9796,-37.82707],[144.97956,-37.82745],[144.97935,-37.82766],[144.97964,-37.82832],[144.97956,-37.82895],[144.98009,-37.82986],[144.98138,-37.8298]]},"properties":{"mode":"walk","ids":["qvm","hosier","fedsquare","botanic"],"km":4.3,"min":57,"legs":[{"from":"qvm","to":"hosier","km":1.9,"min":25},{"from":"hosier","to":"fedsquare","km":0.2,"min":3},{"from":"fedsquare","to":"botanic","km":2.2,"min":30}]}},{"type":"Feature","geometry":{"type":"LineString","coordinates":[[144.98201,-37.82783],[144.98547,-37.82847],[144.98782,-37.83048],[144.98802,-37.8311],[144.98319,-37.85645],[144.97362,-37.86208],[144.97127,-37.85971],[144.96968,-37.85874],[144.96924,-37.85933],[144.97102,-37.86173],[144.97124,-37.86287],[144.97112,-37.86361],[144.96997,-37.86416]]},"properties":{"mode":"tram","ids":["botanic","stkilda"],"km":5.8,"min":10,"legs":[{"from":"botanic","to":"stkilda","km":5.8,"min":10}]}}]}