{"type":"FeatureCollection","features":[{"type":"Feature","geometry":{"type":"LineString","coordinates":[[146.32054,-39.03232],[146.32309,-39.03312],[146.32436,-39.0328],[146.32573,-39.03078],[146.32971,-39.02983],[146.33371,-39.02706],[146.32924,-39.02381],[146.32318,-39.02289],[146.31222,-39.01969],[146.31144,-39.01897],[146.31185,-39.01759],[146.31126,-39.01684],[146.30727,-39.01643],[146.30594,-39.01723],[146.30424,-39.01739],[146.30135,-39.01637],[146.29811,-39.01463],[146.29802,-39.01407],[146.2994,-39.01315],[146.29819,-39.0116],[146.29723,-39.01124],[146.29507,-39.01166],[146.29723,-39.01124],[146.29819,-39.0116],[146.2959,-39.0091],[146.29576,-39.00781],[146.29794,-39.00489],[146.29979,-39.0045],[146.30042,-39.00367],[146.30237,-39.0026],[146.30251,-39.00208],[146.30086,-39.00052],[146.29916,-39.0008],[146.29774,-39.0002],[146.29565,-38.99651],[146.29516,-38.99482],[146.2923,-38.99565],[146.29161,-38.99438],[146.29037,-38.99371],[146.2938,-38.98873],[146.29342,-38.98694],[146.29142,-38.98456],[146.28932,-38.98414],[146.2875,-38.98508],[146.28662,-38.98364],[146.28411,-38.98326],[146.28134,-38.9834],[146.27836,-38.98092],[146.27812,-38.98002],[146.27856,-38.97811],[146.27778,-38.97637],[146.27822,-38.97533],[146.27968,-38.97414],[146.27971,-38.97352],[146.2789,-38.97283],[146.27756,-38.97252],[146.27723,-38.97155],[146.28143,-38.96942],[146.2883,-38.96348],[146.291,-38.9623],[146.29152,-38.96125],[146.29159,-38.95939],[146.29127,-38.95866],[146.29003,-38.95819],[146.2856,-38.95832],[146.28433,-38.95801],[146.27433,-38.95147],[146.27361,-38.94968],[146.27384,-38.94803],[146.27464,-38.94674],[146.27706,-38.94489],[146.27768,-38.94366],[146.27717,-38.93514],[146.27921,-38.93207],[146.27905,-38.92849],[146.27719,-38.92678],[146.26692,-38.92473],[146.26541,-38.92386],[146.26472,-38.92274],[146.26391,-38.91768],[146.25794,-38.91326],[146.25586,-38.91099],[146.2532,-38.90981],[146.25241,-38.90862],[146.25226,-38.90554],[146.24858,-38.9001],[146.24842,-38.89892],[146.24907,-38.89787],[146.2551,-38.89445],[146.25733,-38.8927],[146.25816,-38.88424],[146.25928,-38.88336],[146.26206,-38.88276],[146.26367,-38.88192],[146.26452,-38.87919],[146.26643,-38.87704],[146.26714,-38.87408],[146.26558,-38.87222],[146.26505,-38.8705],[146.26297,-38.86841],[146.26093,-38.86449],[146.25502,-38.86236],[146.25385,-38.86163],[146.25262,-38.86001],[146.24868,-38.85848],[146.24505,-38.85405],[146.24479,-38.85317],[146.24524,-38.85027],[146.24454,-38.84884],[146.24157,-38.84556],[146.24149,-38.84436],[146.2422,-38.84128],[146.24169,-38.83756],[146.23848,-38.83004],[146.23527,-38.82616],[146.22647,-38.81775],[146.21853,-38.81405],[146.2079,-38.81213],[146.1986,-38.80833],[146.19428,-38.80355],[146.17589,-38.78977],[146.1658,-38.78344],[146.16299,-38.77854],[146.16013,-38.77193],[146.15073,-38.76143],[146.14764,-38.75914],[146.14384,-38.75873],[146.13975,-38.75756],[146.13574,-38.75469],[146.13434,-38.75166],[146.13398,-38.74677],[146.12924,-38.7417],[146.12645,-38.73364],[146.12214,-38.7305],[146.1217,-38.72951],[146.12072,-38.72127],[146.11998,-38.71994],[146.11825,-38.71821],[146.11286,-38.71595],[146.10773,-38.71801],[146.10439,-38.71752],[146.10227,-38.7157],[146.09985,-38.71489],[146.09888,-38.71287],[146.09816,-38.71226],[146.09699,-38.71208],[146.09315,-38.71273],[146.09041,-38.71156],[146.08953,-38.71008],[146.08951,-38.70817],[146.08762,-38.70627],[146.08711,-38.70269],[146.08797,-38.69925],[146.08674,-38.69606],[146.08634,-38.69381],[146.0848,-38.69377],[146.0811,-38.69461],[146.07724,-38.69439],[146.07287,-38.69155],[146.0697,-38.69083],[146.06703,-38.68863],[146.05931,-38.6867],[146.0543,-38.68462],[146.04806,-38.68134],[146.04096,-38.68013],[146.03747,-38.67808],[146.03186,-38.67567],[146.02368,-38.66636],[146.02243,-38.66558],[146.01951,-38.66507],[146.0183,-38.66439],[146.01784,-38.66289],[146.01996,-38.65259],[146.01984,-38.65145],[146.01816,-38.64993],[146.01119,-38.64856],[146.01005,-38.64748],[146.00979,-38.64625],[146.02396,-38.57646],[146.01436,-38.57786],[146.00736,-38.58181],[146.00404,-38.58284],[146.00216,-38.58291],[145.99293,-38.58164],[145.98956,-38.58052],[145.98624,-38.57859],[145.98013,-38.57625],[145.9747,-38.56999],[145.97075,-38.56653],[145.96097,-38.5637],[145.95922,-38.56267],[145.95722,-38.56081],[145.95328,-38.55138],[145.95187,-38.54984],[145.94817,-38.54729],[145.94727,-38.54597],[145.94693,-38.54442],[145.94971,-38.53773],[145.95175,-38.53083],[145.95184,-38.48807],[145.94958,-38.48195],[145.94932,-38.47908],[145.94802,-38.47555],[145.94668,-38.47584],[145.94541,-38.47418],[145.9366,-38.46711],[145.9327,-38.46049],[145.92888,-38.45661],[145.92817,-38.45493],[145.92784,-38.4523],[145.92627,-38.45012],[145.92472,-38.44914],[145.92233,-38.44853],[145.91811,-38.44884],[145.91033,-38.44863],[145.8952,-38.44698],[145.89266,-38.44737],[145.89029,-38.44871],[145.88789,-38.44934],[145.88114,-38.44855],[145.87755,-38.44927],[145.87482,-38.44926],[145.87334,-38.44893],[145.87034,-38.44743],[145.86784,-38.4469],[145.86354,-38.44717],[145.85876,-38.44639],[145.85095,-38.44593],[145.84843,-38.44671],[145.8463,-38.44911],[145.84471,-38.44991],[145.84172,-38.44991],[145.8316,-38.44879],[145.83063,-38.4483],[145.82944,-38.44621],[145.82933,-38.44533],[145.83019,-38.44257],[145.82747,-38.43775],[145.82756,-38.43607],[145.8249,-38.43418],[145.82468,-38.43383],[145.8251,-38.43339],[145.82365,-38.43194],[145.82318,-38.43219],[145.82359,-38.43188],[145.81835,-38.42613],[145.81664,-38.42527],[145.80961,-38.4239],[145.80724,-38.4243],[145.8035,-38.42599],[145.80068,-38.42588],[145.79578,-38.42292],[145.79154,-38.42146],[145.78778,-38.41879],[145.78229,-38.41719],[145.77514,-38.4126],[145.76887,-38.41157],[145.76628,-38.4107],[145.76378,-38.40881],[145.76063,-38.40522],[145.75708,-38.4002],[145.75565,-38.39939],[145.75193,-38.39841],[145.74969,-38.39688],[145.74875,-38.39484],[145.74855,-38.39066],[145.74752,-38.38901],[145.74617,-38.38798],[145.73749,-38.38377],[145.7359,-38.38221],[145.7346,-38.37941],[145.73291,-38.37798],[145.73107,-38.37732],[145.72539,-38.3773],[145.72285,-38.3766],[145.71938,-38.37445],[145.71631,-38.37142],[145.71125,-38.3694],[145.70695,-38.36616],[145.70438,-38.36532],[145.6923,-38.36659],[145.68767,-38.3687],[145.68474,-38.37106],[145.68246,-38.37183],[145.67987,-38.37183],[145.67147,-38.37073],[145.66636,-38.3678],[145.66251,-38.36461],[145.65502,-38.35995],[145.65224,-38.3574],[145.64923,-38.35378],[145.64822,-38.34785],[145.64744,-38.3456],[145.64657,-38.34417],[145.64526,-38.34321],[145.64215,-38.34251],[145.63638,-38.34364],[145.63401,-38.34348],[145.63244,-38.34276],[145.62511,-38.33696],[145.62324,-38.33598],[145.59479,-38.33026],[145.59248,-38.32918],[145.58888,-38.32631],[145.58694,-38.32303],[145.5848,-38.32069],[145.58416,-38.31569],[145.58195,-38.31258],[145.57797,-38.31073],[145.56998,-38.3049],[145.56411,-38.30264],[145.55938,-38.29719],[145.55595,-38.29474],[145.55242,-38.29324],[145.54701,-38.29232],[145.54492,-38.29075],[145.54465,-38.28846],[145.54678,-38.28477],[145.54594,-38.27956],[145.55002,-38.25904],[145.54956,-38.2568],[145.54792,-38.2547],[145.53845,-38.24694],[145.51335,-38.23503],[145.51165,-38.23391],[145.51061,-38.23263],[145.50997,-38.23099],[145.5093,-38.22386],[145.50869,-38.22198],[145.50709,-38.21917],[145.50451,-38.2171],[145.50194,-38.21611],[145.49761,-38.21534],[145.46924,-38.21155],[145.46978,-38.21051],[145.47214,-38.20887],[145.47224,-38.20816],[145.47372,-38.20646],[145.47363,-38.20544],[145.47183,-38.20122],[145.47184,-38.1978],[145.47254,-38.19587],[145.47888,-38.1842],[145.4851,-38.15532],[145.48584,-38.15409],[145.48587,-38.15219],[145.49111,-38.12919],[145.49085,-38.12859],[145.49135,-38.12753],[145.49144,-38.12577],[145.49082,-38.12312],[145.48931,-38.12071],[145.48555,-38.11682],[145.48585,-38.11147],[145.48936,-38.09532],[145.4894,-38.09417],[145.48859,-38.09304],[145.48646,-38.09217],[145.47188,-38.09145],[145.46367,-38.09006],[145.45593,-38.08778],[145.44414,-38.08271],[145.43536,-38.07989],[145.42546,-38.07788],[145.39515,-38.07339],[145.38706,-38.07119],[145.37948,-38.068],[145.37089,-38.06264],[145.36201,-38.05457],[145.35863,-38.05213],[145.35493,-38.05037],[145.34494,-38.04686],[145.33594,-38.04256],[145.33273,-38.04051],[145.31865,-38.02604],[145.30459,-38.01433],[145.3016,-38.01064],[145.29829,-38.00476],[145.29463,-38.00169],[145.28986,-37.99988],[145.27123,-37.99714],[145.25838,-37.99298],[145.25451,-37.99087],[145.23931,-37.9766],[145.23748,-37.97354],[145.23618,-37.96925],[145.23365,-37.96601],[145.20492,-37.94545],[145.17488,-37.92148],[145.16523,-37.9124],[145.15471,-37.90467],[145.14817,-37.89737],[145.14624,-37.89584],[145.14166,-37.89417],[145.12056,-37.89174],[145.11745,-37.89068],[145.1126,-37.88806],[145.10995,-37.88713],[145.0961,-37.88489],[145.09293,-37.88406],[145.07977,-37.87708],[145.07759,-37.87681],[145.07207,-37.87722],[145.06925,-37.87664],[145.0665,-37.87461],[145.0642,-37.87003],[145.06125,-37.86646],[145.05834,-37.85692],[145.05719,-37.85487],[145.05517,-37.8532],[145.0514,-37.8517],[145.04789,-37.84955],[145.04289,-37.84817],[145.04111,-37.84716],[145.03957,-37.84494],[145.03916,-37.84034],[145.03724,-37.83823],[145.03419,-37.83732],[145.03017,-37.83786],[145.02826,-37.83761],[145.02674,-37.83672],[145.02209,-37.83186],[145.01442,-37.8301],[145.01253,-37.83017],[145.00911,-37.83114],[145.0048,-37.83085],[144.99994,-37.83326],[144.99786,-37.83385],[144.99608,-37.83379],[144.99148,-37.83241],[144.98602,-37.82707],[144.98081,-37.82585],[144.97634,-37.82146],[144.97611,-37.81945],[144.97562,-37.81858],[144.97254,-37.8164],[144.96833,-37.80729],[144.95939,-37.80632],[144.9573,-37.80193],[144.95631,-37.80074],[144.94055,-37.78829],[144.93919,-37.78639],[144.93927,-37.78162],[144.93738,-37.77757],[144.93688,-37.77456],[144.93789,-37.75944],[144.93766,-37.75681],[144.9344,-37.74979],[144.93391,-37.74444],[144.93107,-37.74053],[144.93024,-37.73794],[144.92921,-37.73655],[144.92683,-37.73482],[144.92461,-37.73389],[144.91618,-37.73271],[144.9115,-37.73313],[144.90564,-37.73528],[144.90366,-37.73561],[144.89475,-37.73466],[144.89259,-37.7339],[144.89104,-37.73247],[144.89041,-37.73058],[144.89228,-37.71632],[144.89177,-37.715],[144.88603,-37.70744],[144.8843,-37.70843],[144.88288,-37.70873],[144.86158,-37.70627],[144.86054,-37.70643],[144.85787,-37.70343],[144.85539,-37.69009],[144.84809,-37.68954]]},"properties":{"mode":"drive","ids":["tidalriver","lillypilly","whisky","korumburra","mel-airport-hotel"],"km":245.2,"min":210,"legs":[{"from":"tidalriver","to":"lillypilly","km":1.7,"min":2},{"from":"lillypilly","to":"whisky","km":4.3,"min":4},{"from":"whisky","to":"korumburra","km":99.0,"min":85},{"from":"korumburra","to":"mel-airport-hotel","km":140.3,"min":118}]}}]}