{"type":"FeatureCollection","features":[{"type":"Feature","geometry":{"type":"LineString","coordinates":[[144.95795,-37.80748],[144.95833,-37.8062],[144.95608,-37.80595],[144.9555,-37.80954],[144.95997,-37.81933],[144.96046,-37.81999],[144.96146,-37.81999],[144.96145,-37.82158],[144.96022,-37.82538],[144.96193,-37.82722],[144.97305,-37.82443],[144.98527,-37.82461],[144.99211,-37.8253],[144.99967,-37.82881],[145.00734,-37.83082],[145.0097,-37.83088],[145.01401,-37.82991],[145.02155,-37.83133],[145.02275,-37.83206],[145.0267,-37.83645],[145.02807,-37.83737],[145.02991,-37.83772],[145.0345,-37.8372],[145.03763,-37.83828],[145.03939,-37.84039],[145.03967,-37.84455],[145.04024,-37.84589],[145.04128,-37.84704],[145.04301,-37.84801],[145.04799,-37.84939],[145.05673,-37.85408],[145.05841,-37.85646],[145.06144,-37.86638],[145.06437,-37.86996],[145.06656,-37.87438],[145.06888,-37.87628],[145.07206,-37.87706],[145.07763,-37.87664],[145.07982,-37.87691],[145.09252,-37.88374],[145.0961,-37.88468],[145.10981,-37.88683],[145.12044,-37.89145],[145.14211,-37.894],[145.14668,-37.89579],[145.14806,-37.89682],[145.15518,-37.90469],[145.1642,-37.91118],[145.17463,-37.92096],[145.19309,-37.93582],[145.20878,-37.948],[145.23371,-37.96568],[145.23624,-37.96884],[145.23785,-37.97381],[145.2391,-37.97599],[145.25478,-37.99091],[145.25853,-37.99287],[145.27138,-37.99701],[145.29002,-37.99978],[145.29264,-38.00055],[145.2955,-38.00197],[145.2986,-38.00481],[145.30186,-38.01072],[145.30411,-38.01357],[145.31924,-38.02636],[145.33273,-38.04025],[145.33558,-38.04214],[145.34503,-38.04666],[145.35526,-38.05023],[145.3589,-38.05198],[145.36222,-38.05437],[145.37041,-38.06201],[145.37835,-38.06717],[145.38675,-38.07088],[145.3946,-38.0731],[145.4283,-38.07811],[145.43587,-38.07979],[145.44453,-38.08266],[145.45608,-38.08762],[145.46502,-38.09017],[145.47308,-38.09137],[145.48434,-38.09179],[145.48777,-38.09153],[145.48994,-38.09016],[145.49063,-38.09014],[145.48603,-38.11139],[145.4858,-38.11613],[145.48668,-38.11782],[145.48939,-38.12043],[145.49101,-38.12292],[145.49167,-38.12542],[145.49178,-38.12707],[145.49136,-38.12808],[145.49162,-38.12868],[145.49087,-38.13062],[145.48643,-38.15051],[145.48601,-38.15306],[145.48635,-38.15368],[145.48508,-38.15657],[145.47931,-38.1832],[145.47955,-38.18381],[145.47798,-38.1859],[145.47365,-38.19386],[145.47175,-38.19845],[145.47189,-38.20145],[145.47363,-38.20544],[145.47372,-38.20646],[145.47285,-38.20785],[145.47288,-38.20846],[145.47041,-38.21006],[145.46972,-38.21104],[145.47107,-38.21168],[145.50136,-38.21576],[145.50478,-38.21699],[145.50744,-38.21915],[145.5093,-38.22268],[145.51023,-38.23103],[145.51099,-38.23279],[145.51214,-38.23398],[145.53872,-38.24681],[145.5499,-38.25617],[145.55045,-38.25784],[145.5504,-38.25998],[145.54652,-38.27931],[145.54701,-38.2848],[145.54007,-38.31734],[145.53994,-38.31953],[145.5404,-38.321],[145.54138,-38.32236],[145.54875,-38.32975],[145.55378,-38.33303],[145.55762,-38.33826],[145.55903,-38.35045],[145.56398,-38.36795],[145.56384,-38.3704],[145.56307,-38.37214],[145.55587,-38.37942],[145.54043,-38.39302],[145.53934,-38.39467],[145.53567,-38.40263],[145.53179,-38.40548],[145.52658,-38.41293],[145.51847,-38.42143],[145.51529,-38.42373],[145.48558,-38.43909],[145.4844,-38.44009],[145.48359,-38.44172],[145.47818,-38.46648],[145.47267,-38.47656],[145.46663,-38.48157],[145.46527,-38.48324],[145.46409,-38.48817],[145.46234,-38.49904],[145.46156,-38.50077],[145.45955,-38.50253],[145.44885,-38.50862],[145.43258,-38.52069],[145.42948,-38.52233],[145.41928,-38.52433],[145.39256,-38.52078],[145.39064,-38.52086],[145.38572,-38.52204],[145.37243,-38.52042],[145.36866,-38.52074],[145.36748,-38.52039],[145.35839,-38.51502],[145.35693,-38.51462],[145.34803,-38.51475],[145.34417,-38.51583],[145.34292,-38.51653],[145.34426,-38.51268],[145.34146,-38.51157],[145.3414,-38.51093],[145.34187,-38.51026],[145.34404,-38.50992],[145.34501,-38.50821],[145.3443,-38.50738],[145.34434,-38.50613],[145.34196,-38.504],[145.34128,-38.50231],[145.33868,-38.50115],[145.33824,-38.50068],[145.33846,-38.50047],[145.33914,-38.50102],[145.33903,-38.50134],[145.34128,-38.50231],[145.34196,-38.504],[145.34434,-38.50613],[145.3443,-38.50738],[145.34502,-38.50829],[145.34404,-38.50992],[145.34187,-38.51026],[145.34135,-38.5114],[145.34401,-38.5125],[145.34433,-38.51296],[145.34292,-38.51653],[145.3409,-38.51963],[145.33405,-38.52117],[145.30023,-38.51226],[145.27989,-38.50204],[145.27306,-38.49818],[145.27262,-38.49735],[145.26273,-38.48731],[145.2635,-38.48655],[145.26364,-38.4855],[145.2635,-38.48655],[145.26273,-38.48731],[145.25771,-38.48254],[145.25546,-38.48206],[145.24266,-38.48199],[145.24007,-38.48096],[145.23894,-38.48232],[145.23891,-38.49671],[145.16047,-38.4966],[145.15847,-38.49849],[145.15441,-38.50049],[145.14726,-38.50587],[145.14482,-38.50656],[145.14087,-38.50639],[145.13695,-38.50841],[145.12528,-38.51105],[145.12302,-38.51211],[145.12116,-38.51576],[145.11886,-38.51686],[145.11885,-38.51759],[145.11809,-38.51686],[145.11776,-38.51717],[145.11857,-38.51669],[145.11931,-38.51757],[145.12072,-38.51676],[145.1227,-38.51693],[145.12413,-38.51653],[145.12706,-38.51717],[145.12802,-38.51558],[145.1295,-38.51514],[145.13072,-38.51661],[145.13274,-38.51543],[145.13389,-38.51612],[145.13593,-38.51615],[145.13725,-38.51499],[145.14186,-38.51411],[145.14309,-38.51413],[145.14481,-38.51503],[145.14598,-38.51445],[145.14767,-38.51464],[145.14875,-38.51429],[145.14935,-38.51271],[145.14856,-38.51181],[145.14812,-38.50999],[145.14525,-38.50651],[145.14792,-38.50525],[145.15441,-38.50049],[145.15898,-38.49812],[145.16461,-38.49227],[145.19654,-38.46426],[145.19914,-38.46356],[145.23888,-38.46359],[145.23903,-38.45019]]},"properties":{"mode":"drive","ids":["qvm","churchill","koalareserve","nobbies","penguinparade","cowes"],"km":173.9,"min":179,"legs":[{"from":"qvm","to":"churchill","km":130.6,"min":114},{"from":"churchill","to":"koalareserve","km":11.3,"min":20},{"from":"koalareserve","to":"nobbies","km":15.9,"min":20},{"from":"nobbies","to":"penguinparade","km":3.9,"min":11},{"from":"penguinparade","to":"cowes","km":12.2,"min":14}]}}]}