{"type":"FeatureCollection","features":[{"type":"Feature","geometry":{"type":"LineString","coordinates":[[145.77216,-16.92064],[145.77158,-16.92108],[145.77201,-16.92171],[145.76409,-16.91273],[145.75713,-16.90283],[145.7557,-16.89978],[145.75491,-16.89669],[145.75242,-16.89219],[145.75089,-16.88806],[145.74656,-16.88372],[145.74354,-16.87625],[145.73206,-16.86507],[145.72704,-16.85716],[145.71405,-16.85011],[145.7116,-16.84982],[145.70618,-16.85062],[145.70284,-16.8491],[145.69867,-16.84806],[145.6969,-16.84672],[145.69502,-16.84324],[145.69243,-16.8404],[145.69293,-16.83924],[145.69318,-16.83158],[145.69215,-16.82589],[145.69332,-16.81526],[145.692,-16.80833],[145.68707,-16.79989],[145.6784,-16.79304],[145.67672,-16.78905],[145.67401,-16.78582],[145.6733,-16.78303],[145.67507,-16.77692],[145.67475,-16.77372],[145.67351,-16.77191],[145.66994,-16.76867],[145.66872,-16.76585],[145.66398,-16.75947],[145.66266,-16.75667],[145.66461,-16.75512],[145.66549,-16.75488],[145.66966,-16.75122],[145.66964,-16.74963],[145.67104,-16.74943],[145.67123,-16.7414],[145.66475,-16.74639],[145.66348,-16.74539],[145.66397,-16.74305],[145.66367,-16.74009],[145.66395,-16.73807],[145.66355,-16.73719],[145.66193,-16.73579],[145.65979,-16.73531],[145.65524,-16.73042],[145.6538,-16.73097],[145.65198,-16.73089],[145.64856,-16.72865],[145.64226,-16.72198],[145.63469,-16.71246],[145.63292,-16.71149],[145.62807,-16.70553],[145.62534,-16.7044],[145.62137,-16.70071],[145.61671,-16.69945],[145.61323,-16.69736],[145.61135,-16.69681],[145.60838,-16.69663],[145.60446,-16.69452],[145.60217,-16.69422],[145.59881,-16.69443],[145.59671,-16.69402],[145.58881,-16.68844],[145.58448,-16.68896],[145.58041,-16.68768],[145.57902,-16.68679],[145.57547,-16.68283],[145.57371,-16.67967],[145.57056,-16.67715],[145.56834,-16.67402],[145.56796,-16.66744],[145.56662,-16.66467],[145.56622,-16.65874],[145.56369,-16.65326],[145.56551,-16.65027],[145.56504,-16.64787],[145.56548,-16.64594],[145.56434,-16.64315],[145.56271,-16.64095],[145.55719,-16.63698],[145.55684,-16.6347],[145.55502,-16.63351],[145.55444,-16.63218],[145.55271,-16.63173],[145.55187,-16.63088],[145.55167,-16.62897],[145.55036,-16.62878],[145.54932,-16.62938],[145.54851,-16.62902],[145.54845,-16.6276],[145.54718,-16.62575],[145.54718,-16.62465],[145.54383,-16.62033],[145.54222,-16.62021],[145.53929,-16.61693],[145.53287,-16.61281],[145.53005,-16.61043],[145.52902,-16.60886],[145.52831,-16.6064],[145.52705,-16.60502],[145.5261,-16.60318],[145.52362,-16.60188],[145.52237,-16.60194],[145.51819,-16.59939],[145.51607,-16.59386],[145.51365,-16.58983],[145.51344,-16.58611],[145.51182,-16.57793],[145.51278,-16.57466],[145.51261,-16.57409],[145.51006,-16.57275],[145.50895,-16.57153],[145.50687,-16.57038],[145.50018,-16.56423],[145.49677,-16.56165],[145.4841,-16.55367],[145.4783,-16.55291],[145.47652,-16.55233],[145.47259,-16.54839],[145.47195,-16.54703],[145.47128,-16.54243],[145.47043,-16.54028],[145.46719,-16.53484],[145.46153,-16.52821],[145.46694,-16.52454],[145.46779,-16.52297],[145.4671,-16.51966],[145.46443,-16.51502],[145.46268,-16.50624],[145.46311,-16.50496],[145.46369,-16.49648],[145.46463,-16.49057],[145.46582,-16.49079],[145.46624,-16.48878],[145.46691,-16.48893],[145.46658,-16.4918],[145.46565,-16.49164],[145.46582,-16.49079],[145.46463,-16.49057],[145.46369,-16.49648],[145.46283,-16.50727],[145.46443,-16.51502],[145.46758,-16.52039],[145.46779,-16.52297],[145.46724,-16.52422],[145.46553,-16.5258],[145.46167,-16.52834],[145.45718,-16.52367],[145.45278,-16.52221],[145.45068,-16.52076],[145.44146,-16.50854],[145.43966,-16.50671],[145.40402,-16.47799],[145.40147,-16.47733],[145.39873,-16.47763],[145.39419,-16.47912],[145.39115,-16.48182],[145.38854,-16.48312],[145.3818,-16.48507],[145.3792,-16.48483],[145.37798,-16.48391],[145.37724,-16.48277],[145.37671,-16.48002],[145.37303,-16.46965],[145.37329,-16.464],[145.37053,-16.46367],[145.36549,-16.46698],[145.36235,-16.46719],[145.35283,-16.47415],[145.35117,-16.47465],[145.34862,-16.47383],[145.34928,-16.47376],[145.35117,-16.47465],[145.35283,-16.47415],[145.36235,-16.46719],[145.36549,-16.46698],[145.37013,-16.46382],[145.37116,-16.46366],[145.3733,-16.46389],[145.37303,-16.46965],[145.37671,-16.48002],[145.37724,-16.48277],[145.37798,-16.48391],[145.3792,-16.48483],[145.3818,-16.48507],[145.38854,-16.48312],[145.39115,-16.48182],[145.39419,-16.47912],[145.39873,-16.47763],[145.40147,-16.47733],[145.40402,-16.47799],[145.42105,-16.49142],[145.44048,-16.50746],[145.45128,-16.5213],[145.45278,-16.52221],[145.45718,-16.52367],[145.46164,-16.52805],[145.46694,-16.52454],[145.46783,-16.52252],[145.4671,-16.51966],[145.46443,-16.51502],[145.46268,-16.50624],[145.46311,-16.50496],[145.4639,-16.49478],[145.46554,-16.48635],[145.46342,-16.48486]]},"properties":{"mode":"drive","ids":["cairns","palmcove","rexlookout","fourmile","mossman","portdouglas"],"km":112.6,"min":123,"legs":[{"from":"cairns","to":"palmcove","km":25.8,"min":30},{"from":"palmcove","to":"rexlookout","km":18.7,"min":18},{"from":"rexlookout","to":"fourmile","km":24.0,"min":25},{"from":"fourmile","to":"mossman","km":21.9,"min":25},{"from":"mossman","to":"portdouglas","km":22.2,"min":25}]}}]}