{"type":"FeatureCollection","features":[{"type":"Feature","geometry":{"type":"LineString","coordinates":[[145.58431,-17.26999],[145.58385,-17.2712],[145.58689,-17.27602],[145.59432,-17.28074],[145.5961,-17.28104],[145.60063,-17.28045],[145.60436,-17.28149],[145.60563,-17.28149],[145.61031,-17.27918],[145.61106,-17.27997],[145.61264,-17.28341],[145.61775,-17.28331],[145.61902,-17.28286],[145.61988,-17.28205],[145.62271,-17.27823],[145.62479,-17.27859],[145.62748,-17.27986],[145.62954,-17.28356],[145.62952,-17.28528],[145.63006,-17.28578],[145.62969,-17.28596],[145.63009,-17.28548],[145.62952,-17.28528],[145.62954,-17.28356],[145.62748,-17.27986],[145.62479,-17.27859],[145.62271,-17.27823],[145.61902,-17.28286],[145.61775,-17.28331],[145.61264,-17.28341],[145.61106,-17.27997],[145.61031,-17.27918],[145.61108,-17.27814],[145.61141,-17.27298],[145.61404,-17.26932],[145.61463,-17.26619],[145.61533,-17.26486],[145.62182,-17.26129],[145.62259,-17.2602],[145.62302,-17.25814],[145.62388,-17.25646],[145.62719,-17.25438],[145.62777,-17.25366],[145.62884,-17.24901],[145.63095,-17.24576],[145.63266,-17.24473],[145.63446,-17.24421],[145.64014,-17.24429],[145.63938,-17.24484],[145.63929,-17.24606],[145.63938,-17.24484],[145.64002,-17.24432],[145.64258,-17.24419],[145.64587,-17.24283],[145.64917,-17.23955],[145.64971,-17.23791],[145.64998,-17.23409],[145.65104,-17.2324],[145.6552,-17.22984],[145.65796,-17.22561],[145.6611,-17.22453],[145.66425,-17.22227],[145.66397,-17.21758],[145.66258,-17.21658],[145.66181,-17.2152],[145.66279,-17.21258],[145.6651,-17.21185],[145.66589,-17.21103],[145.66548,-17.20847],[145.66604,-17.20722],[145.6662,-17.20473],[145.66864,-17.20139],[145.66858,-17.19915],[145.66929,-17.19599],[145.66799,-17.19406],[145.66461,-17.19221],[145.66411,-17.19029],[145.66274,-17.18848],[145.6629,-17.18809],[145.66425,-17.18667],[145.66613,-17.1861],[145.66916,-17.18425],[145.67085,-17.18144],[145.67261,-17.18138],[145.67568,-17.18028],[145.67598,-17.17912],[145.67867,-17.17687],[145.67949,-17.17439],[145.68124,-17.17417],[145.68252,-17.17349],[145.68389,-17.17189],[145.68622,-17.17221],[145.68874,-17.16988],[145.68622,-17.17221],[145.68389,-17.17189],[145.68252,-17.17349],[145.68124,-17.17417],[145.67949,-17.17439],[145.67867,-17.17687],[145.67598,-17.17912],[145.67568,-17.18028],[145.67261,-17.18138],[145.67085,-17.18144],[145.66916,-17.18425],[145.66613,-17.1861],[145.66425,-17.18667],[145.66279,-17.18822],[145.66411,-17.19029],[145.66461,-17.19221],[145.66799,-17.19406],[145.6693,-17.19621],[145.66858,-17.19915],[145.66864,-17.20139],[145.6662,-17.20473],[145.66604,-17.20722],[145.66548,-17.20847],[145.66589,-17.21103],[145.6651,-17.21185],[145.66279,-17.21258],[145.66186,-17.21554],[145.66287,-17.21687],[145.66397,-17.21758],[145.66425,-17.22227],[145.66671,-17.22146],[145.66951,-17.22228],[145.67005,-17.22146],[145.67229,-17.22117],[145.67207,-17.21892],[145.67241,-17.2184],[145.6732,-17.21849],[145.67338,-17.21617],[145.67475,-17.2154],[145.67602,-17.21625],[145.67769,-17.21663],[145.67861,-17.21855],[145.68026,-17.21945],[145.68132,-17.21886],[145.68211,-17.21916],[145.68341,-17.21894],[145.68385,-17.217],[145.68516,-17.21616],[145.68543,-17.21493],[145.68654,-17.21459],[145.68823,-17.21479],[145.68832,-17.21526],[145.68701,-17.21595],[145.68754,-17.21669],[145.6877,-17.21852],[145.68867,-17.21878],[145.68918,-17.21965],[145.69007,-17.21948],[145.69027,-17.22033],[145.69182,-17.22046],[145.69381,-17.21922],[145.69501,-17.2195],[145.69555,-17.22021],[145.69665,-17.21989],[145.69692,-17.21843],[145.69634,-17.21777],[145.69697,-17.21675],[145.69756,-17.21666],[145.69781,-17.21723],[145.69881,-17.21709],[145.69876,-17.21322],[145.69816,-17.21214],[145.69678,-17.21126],[145.69659,-17.21055],[145.69588,-17.21004],[145.69558,-17.20845],[145.69629,-17.2081],[145.6958,-17.20681],[145.696,-17.20462],[145.69692,-17.20402],[145.69728,-17.20198],[145.69847,-17.20005],[145.69914,-17.198],[145.69765,-17.19579],[145.69663,-17.19513],[145.69723,-17.19307],[145.69647,-17.19032],[145.69556,-17.18932],[145.69503,-17.18727],[145.69517,-17.18312],[145.69455,-17.18206],[145.69299,-17.18133],[145.69263,-17.18026],[145.69182,-17.18008],[145.69207,-17.17935],[145.69174,-17.17876],[145.69205,-17.17831],[145.69186,-17.17762],[145.69337,-17.17591],[145.69348,-17.17418],[145.6949,-17.17471],[145.69586,-17.17214],[145.69699,-17.17211],[145.69749,-17.17154],[145.69699,-17.17028],[145.69792,-17.16964],[145.69808,-17.16879],[145.69743,-17.16675],[145.69822,-17.16642],[145.6982,-17.16596],[145.69928,-17.16464],[145.69938,-17.16357],[145.69875,-17.16288],[145.69942,-17.16211],[145.69907,-17.16101],[145.69968,-17.16073],[145.69978,-17.15974],[145.70061,-17.15962],[145.70179,-17.15826],[145.70139,-17.15725],[145.70156,-17.15576],[145.7022,-17.15578],[145.70394,-17.15474],[145.70607,-17.15535],[145.70704,-17.15503],[145.70519,-17.15449],[145.70385,-17.1532],[145.70303,-17.15318],[145.70219,-17.154],[145.70171,-17.15393],[145.7013,-17.15241],[145.70055,-17.15168],[145.70175,-17.14989],[145.70272,-17.14959],[145.70312,-17.14986],[145.70186,-17.15088],[145.70292,-17.15127],[145.70297,-17.15214],[145.70424,-17.15142],[145.70504,-17.15167],[145.70577,-17.15088],[145.70583,-17.15239],[145.70675,-17.15174],[145.70726,-17.1527],[145.70796,-17.15227],[145.70858,-17.15089],[145.70929,-17.15102],[145.71094,-17.14952],[145.7116,-17.15067],[145.71135,-17.15157],[145.71167,-17.15166],[145.71319,-17.15002],[145.713,-17.14841],[145.7134,-17.14736],[145.71887,-17.14408],[145.72114,-17.14213],[145.72296,-17.1413],[145.72582,-17.13759],[145.72753,-17.13672],[145.73424,-17.13809],[145.73739,-17.13825],[145.7394,-17.13971],[145.741,-17.14182],[145.74278,-17.14268],[145.74584,-17.14266],[145.75145,-17.14078],[145.75457,-17.13923],[145.75588,-17.13763],[145.75846,-17.13615],[145.76337,-17.13447],[145.76418,-17.13334],[145.76655,-17.13296],[145.76697,-17.13121],[145.76789,-17.13013],[145.76855,-17.12828],[145.76966,-17.12234],[145.77423,-17.11597],[145.77441,-17.10926],[145.77312,-17.10472],[145.774,-17.10342],[145.77863,-17.10106],[145.77986,-17.09964],[145.77769,-17.09916],[145.7761,-17.09834],[145.77465,-17.09683],[145.77388,-17.09495],[145.77384,-17.09159],[145.77525,-17.08519],[145.77552,-17.07628],[145.77171,-17.06814],[145.76951,-17.06088],[145.76719,-17.0438],[145.76631,-17.04191],[145.76467,-17.04017],[145.75806,-17.0367],[145.75439,-17.03392],[145.7514,-17.03076],[145.74699,-17.02477],[145.74437,-17.01738],[145.74433,-17.00528],[145.74147,-16.99064],[145.74386,-16.97618],[145.74402,-16.97266],[145.74676,-16.96687],[145.74692,-16.96092],[145.74739,-16.95767],[145.74941,-16.95548],[145.75169,-16.95201],[145.75943,-16.94627],[145.7668,-16.94215],[145.77564,-16.93531],[145.77363,-16.9326],[145.77787,-16.92901],[145.76409,-16.91273],[145.75839,-16.90449],[145.76023,-16.90324],[145.75883,-16.90083],[145.75776,-16.89652],[145.75896,-16.89578],[145.75986,-16.89454],[145.76224,-16.88805],[145.76229,-16.88659],[145.76001,-16.88152],[145.75831,-16.87937],[145.75748,-16.87899],[145.75562,-16.87911],[145.75409,-16.88009],[145.75316,-16.87945],[145.75235,-16.87768]]},"properties":{"mode":"drive","ids":["yungaburra","eacham","barrine","gillies","cns-airport"],"km":97.2,"min":151,"legs":[{"from":"yungaburra","to":"eacham","km":6.8,"min":9},{"from":"eacham","to":"barrine","km":9.1,"min":12},{"from":"barrine","to":"gillies","km":12.4,"min":33},{"from":"gillies","to":"cns-airport","km":68.9,"min":98}]}},{"type":"Feature","geometry":{"type":"LineString","coordinates":[[145.7516,-16.878],[145.8987,-17.3185],[146.045,-17.759],[146.1898,-18.1995],[146.3325,-18.6398],[146.4723,-19.08],[146.6086,-19.5201],[146.7407,-19.96],[146.868,-20.3997],[146.9899,-20.8391],[147.1057,-21.2783],[147.2149,-21.7172],[147.317,-22.1557],[147.4114,-22.594],[147.4976,-23.0319],[147.5753,-23.4694],[147.644,-23.9065],[147.7033,-24.3432],[147.7528,-24.7795],[147.7924,-25.2154],[147.8218,-25.6508],[147.8407,-26.0857],[147.8489,-26.5202],[147.8465,-26.9542],[147.8332,-27.3878],[147.8091,-27.8208],[147.7742,-28.2534],[147.7285,-28.6856],[147.6722,-29.1172],[147.6054,-29.5484],[147.5283,-29.9792],[147.4412,-30.4095],[147.3443,-30.8394],[147.238,-31.2689],[147.1226,-31.698],[146.9986,-32.1267],[146.8663,-32.5551],[146.7262,-32.9831],[146.5789,-33.4108],[146.4249,-33.8383],[146.2648,-34.2654],[146.099,-34.6923],[145.9283,-35.119],[145.7533,-35.5456],[145.5746,-35.9719],[145.3929,-36.3982],[145.2089,-36.8243],[145.0232,-37.2504],[144.8365,-37.6765]]},"properties":{"mode":"flight","ids":["cns-airport","mel-airport"],"km":2314.4,"min":null,"legs":[]}},{"type":"Feature","geometry":{"type":"LineString","coordinates":[[144.8365,-37.6765],[144.9287,-37.7636],[145.0208,-37.8509],[145.1127,-37.9382],[145.2042,-38.0259],[145.2953,-38.1139],[145.3856,-38.2022],[145.475,-38.2911],[145.5635,-38.3806],[145.6508,-38.4707],[145.7367,-38.5616],[145.8212,-38.6533],[145.9042,-38.7458],[145.9854,-38.8393],[146.0648,-38.9339],[146.1422,-39.0294],[146.2176,-39.1261],[146.2909,-39.224],[146.3619,-39.323],[146.4307,-39.4233],[146.4972,-39.5249],[146.5612,-39.6278],[146.6228,-39.7319],[146.682,-39.8375],[146.7387,-39.9443],[146.7929,-40.0525],[146.8447,-40.1621],[146.894,-40.2729],[146.9409,-40.3851],[146.9854,-40.4986],[147.0276,-40.6134],[147.0675,-40.7294],[147.1052,-40.8466],[147.1408,-40.965],[147.1744,-41.0844],[147.206,-41.205],[147.2359,-41.3265],[147.2641,-41.449],[147.2907,-41.5723],[147.3159,-41.6965],[147.3399,-41.8214],[147.3626,-41.9469],[147.3845,-42.073],[147.4055,-42.1996],[147.4258,-42.3267],[147.4457,-42.454],[147.4653,-42.5816],[147.4847,-42.7093],[147.5041,-42.8371]]},"properties":{"mode":"flight","ids":["mel-airport","hba-airport"],"km":616.8,"min":null,"legs":[]}},{"type":"Feature","geometry":{"type":"LineString","coordinates":[[147.5039,-42.83729],[147.50618,-42.83889],[147.50274,-42.84166],[147.49129,-42.83342],[147.48664,-42.8333],[147.48249,-42.83433],[147.47622,-42.83514],[147.45671,-42.83547],[147.45284,-42.83627],[147.44267,-42.83937],[147.426,-42.84089],[147.42301,-42.84207],[147.42116,-42.84382],[147.4198,-42.84684],[147.41901,-42.85307],[147.4176,-42.85468],[147.41573,-42.85556],[147.41112,-42.85597],[147.40029,-42.855],[147.37967,-42.85499],[147.37697,-42.85602],[147.37371,-42.85947],[147.37163,-42.86054],[147.36777,-42.86112],[147.36368,-42.86236],[147.3593,-42.86294],[147.35488,-42.86241],[147.35046,-42.86429],[147.33649,-42.86561],[147.33588,-42.86618],[147.33548,-42.86886],[147.33408,-42.87063],[147.33426,-42.87428],[147.33396,-42.87678],[147.3322,-42.87717],[147.33134,-42.87823],[147.3298,-42.87904],[147.32573,-42.8826],[147.32728,-42.88338],[147.32826,-42.8826]]},"properties":{"mode":"transfer","ids":["hba-airport","hobart"],"km":18.9,"min":20,"legs":[{"from":"hba-airport","to":"hobart","km":18.9,"min":20}]}}]}