{"type":"FeatureCollection","features":[{"type":"Feature","geometry":{"type":"LineString","coordinates":[[148.28867,-42.12523],[148.28858,-42.12576],[148.2898,-42.1259],[148.28946,-42.12255],[148.29226,-42.12425],[148.29432,-42.12355],[148.29536,-42.12232],[148.29678,-42.12245],[148.30265,-42.13051],[148.30318,-42.13339],[148.30312,-42.13511],[148.30232,-42.13657],[148.29997,-42.13747],[148.29826,-42.13911],[148.2984,-42.13982],[148.29993,-42.14101],[148.29898,-42.14206],[148.29911,-42.14265],[148.29831,-42.14293],[148.29621,-42.14214],[148.29406,-42.14229],[148.29237,-42.14303],[148.2916,-42.14391],[148.29021,-42.14456],[148.29012,-42.14525],[148.28891,-42.14573],[148.28922,-42.14548]]},"properties":{"mode":"drive","ids":["colesbay","wineglass"],"km":5.1,"min":12,"legs":[{"from":"colesbay","to":"wineglass","km":5.1,"min":12}]}},{"type":"Feature","geometry":{"type":"LineString","coordinates":[[148.28916,-42.1455],[148.2889,-42.1457],[148.28897,-42.14579],[148.28915,-42.14573],[148.28914,-42.14588],[148.28939,-42.14589],[148.28921,-42.14603],[148.28923,-42.1464],[148.28929,-42.14651],[148.28977,-42.14683],[148.29006,-42.14691],[148.29061,-42.14777],[148.29093,-42.14795],[148.29064,-42.14804],[148.29053,-42.14829],[148.29066,-42.14884],[148.29063,-42.14907],[148.29044,-42.1492],[148.29013,-42.14965],[148.28984,-42.14974],[148.28982,-42.15],[148.28967,-42.15025],[148.2902,-42.15062],[148.29006,-42.15082],[148.29017,-42.15102],[148.29053,-42.15114],[148.29062,-42.15124],[148.29054,-42.15157],[148.29063,-42.15186],[148.29061,-42.15207],[148.29092,-42.15299],[148.29115,-42.1532],[148.29196,-42.1545],[148.29214,-42.15459],[148.29234,-42.15482],[148.2926,-42.15465],[148.29305,-42.15479],[148.2926,-42.15465],[148.29234,-42.15482],[148.29233,-42.15505],[148.29243,-42.15524],[148.29237,-42.15532],[148.29252,-42.15543],[148.2925,-42.15554],[148.29263,-42.15582],[148.29262,-42.15591],[148.293,-42.15631],[148.29313,-42.15668],[148.29326,-42.15686],[148.29356,-42.15693],[148.29386,-42.15709],[148.29406,-42.15727],[148.29419,-42.1575],[148.29494,-42.15806],[148.29522,-42.15836],[148.29579,-42.15874],[148.29594,-42.159],[148.29602,-42.15932],[148.29603,-42.15971],[148.29598,-42.16002],[148.29585,-42.16024],[148.29586,-42.16057],[148.2962,-42.16088],[148.29621,-42.16106],[148.29663,-42.16187],[148.29683,-42.16219],[148.29722,-42.16256],[148.29737,-42.16282],[148.29737,-42.16295],[148.29771,-42.1633],[148.29773,-42.16364],[148.29765,-42.16396],[148.29746,-42.16409],[148.29752,-42.16443],[148.2974,-42.16457],[148.29737,-42.16476],[148.29715,-42.16524],[148.29704,-42.16533],[148.29701,-42.16551],[148.2968,-42.16584]]},"properties":{"mode":"hike","ids":["wineglass","wineglass-lookout","wineglass-beach"],"km":2.9,"min":86,"legs":[]}},{"type":"Feature","geometry":{"type":"LineString","coordinates":[[148.28922,-42.14548],[148.29,-42.14515],[148.28883,-42.1453],[148.28953,-42.1446],[148.2916,-42.14391],[148.29237,-42.14303],[148.29406,-42.14229],[148.29621,-42.14214],[148.29831,-42.14293],[148.29911,-42.14265],[148.29898,-42.14206],[148.29993,-42.14101],[148.2984,-42.13982],[148.29853,-42.13874],[148.2981,-42.1388],[148.30044,-42.13726],[148.30242,-42.13784],[148.30589,-42.13763],[148.3068,-42.13644],[148.30999,-42.13558],[148.31384,-42.13373],[148.31598,-42.13388],[148.31771,-42.13352],[148.31593,-42.13166],[148.31593,-42.1282],[148.32202,-42.12707],[148.32435,-42.12878],[148.32432,-42.12781],[148.32556,-42.1268],[148.3256,-42.12549],[148.328,-42.12355],[148.32998,-42.1205],[148.3371,-42.1198],[148.34266,-42.1228],[148.3371,-42.1198],[148.32998,-42.1205],[148.328,-42.12355],[148.3256,-42.12549],[148.32556,-42.1268],[148.32432,-42.12781],[148.32435,-42.12878],[148.32202,-42.12707],[148.31593,-42.1282],[148.31593,-42.13166],[148.31771,-42.13352],[148.31598,-42.13388],[148.31384,-42.13373],[148.30999,-42.13558],[148.3068,-42.13644],[148.30589,-42.13763],[148.30254,-42.13784],[148.3012,-42.1376],[148.30089,-42.13716],[148.30232,-42.13657],[148.30312,-42.13511],[148.30265,-42.13051],[148.29678,-42.12245],[148.29536,-42.12232],[148.29432,-42.12355],[148.29226,-42.12425],[148.28946,-42.12255],[148.2898,-42.1259],[148.28858,-42.12576],[148.28867,-42.12523]]},"properties":{"mode":"drive","ids":["wineglass","honeymoon","tourville","colesbay"],"km":16.0,"min":35,"legs":[{"from":"wineglass","to":"honeymoon","km":1.8,"min":6},{"from":"honeymoon","to":"tourville","km":5.6,"min":11},{"from":"tourville","to":"colesbay","km":8.5,"min":17}]}}]}