{"type":"FeatureCollection","features":[{"type":"Feature","geometry":{"type":"LineString","coordinates":[[144.83527,-37.67627],[144.83535,-37.67752],[144.83735,-37.68135],[144.83884,-37.68903],[144.83972,-37.69017],[144.84195,-37.69066],[144.8456,-37.68941],[144.85558,-37.68993],[144.85804,-37.70352],[144.85874,-37.70457],[144.86092,-37.70619],[144.85874,-37.71549],[144.85715,-37.71711],[144.85309,-37.71897],[144.85167,-37.72006],[144.85084,-37.72145],[144.84991,-37.72533],[144.87224,-37.72984],[144.88187,-37.73304],[144.88515,-37.73374],[144.89062,-37.73433],[144.89454,-37.73385],[144.90008,-37.73511],[144.90354,-37.73544],[144.90551,-37.7351],[144.9115,-37.73291],[144.91597,-37.73247],[144.92481,-37.73379],[144.92725,-37.73482],[144.92962,-37.73662],[144.93146,-37.74076],[144.93398,-37.74398],[144.93446,-37.7456],[144.93452,-37.74952],[144.93782,-37.75666],[144.93811,-37.75944],[144.9371,-37.77244],[144.9372,-37.77555],[144.93763,-37.77732],[144.93973,-37.78132],[144.94082,-37.78788],[144.9563,-37.80058],[144.95755,-37.80086],[144.95769,-37.80192],[144.96297,-37.81364]]},"properties":{"mode":"transfer","ids":["mel-airport","melbourne"],"km":24.4,"min":26,"legs":[{"from":"mel-airport","to":"melbourne","km":24.4,"min":26}]}}]}