{"type":"FeatureCollection","features":[{"type":"Feature","geometry":{"type":"LineString","coordinates":[[144.96297,-37.81364],[144.96326,-37.81428],[144.95686,-37.80132],[144.94055,-37.78829],[144.93919,-37.78639],[144.93927,-37.78162],[144.93738,-37.77757],[144.93688,-37.77456],[144.93789,-37.75944],[144.93766,-37.75681],[144.9344,-37.74979],[144.93391,-37.74444],[144.93107,-37.74053],[144.93024,-37.73794],[144.92944,-37.73678],[144.92711,-37.73499],[144.92461,-37.73389],[144.91618,-37.73271],[144.9115,-37.73313],[144.90564,-37.73528],[144.90366,-37.73561],[144.89475,-37.73466],[144.89234,-37.73374],[144.89091,-37.73226],[144.89041,-37.73041],[144.89228,-37.71632],[144.89177,-37.715],[144.88603,-37.70744],[144.8843,-37.70843],[144.88288,-37.70873],[144.86158,-37.70627],[144.8605,-37.70642],[144.85787,-37.70343],[144.85539,-37.69009],[144.8456,-37.68941],[144.84195,-37.69066],[144.83972,-37.69017],[144.83884,-37.68903],[144.83735,-37.68135],[144.83535,-37.67752],[144.83527,-37.67627]]},"properties":{"mode":"transfer","ids":["melbourne","mel-airport"],"km":23.6,"min":26,"legs":[{"from":"melbourne","to":"mel-airport","km":23.6,"min":26}]}},{"type":"Feature","geometry":{"type":"LineString","coordinates":[[144.8365,-37.6765],[144.6967,-37.236],[144.5574,-36.7957],[144.4191,-36.3553],[144.2827,-35.9151],[144.1488,-35.475],[144.0181,-35.035],[143.8913,-34.5952],[143.7689,-34.1556],[143.6517,-33.7162],[143.5402,-33.2771],[143.435,-32.8383],[143.3367,-32.3998],[143.2457,-31.9616],[143.1625,-31.5238],[143.0876,-31.0863],[143.0214,-30.6492],[142.9644,-30.2126],[142.9167,-29.7763],[142.8787,-29.3405],[142.8507,-28.9051],[142.8328,-28.4702],[142.8253,-28.0357],[142.8282,-27.6017],[142.8416,-27.1681],[142.8655,-26.7351],[142.9,-26.3025],[142.9449,-25.8703],[143.0002,-25.4386],[143.0657,-25.0074],[143.1412,-24.5766],[143.2264,-24.1463],[143.3211,-23.7163],[143.4249,-23.2868],[143.5375,-22.8576],[143.6585,-22.4289],[143.7873,-22.0004],[143.9237,-21.5724],[144.067,-21.1446],[144.2167,-20.7171],[144.3722,-20.2898],[144.533,-19.8628],[144.6984,-19.436],[144.8678,-19.0094],[145.0406,-18.583],[145.216,-18.1566],[145.3935,-17.7303],[145.5722,-17.3041],[145.7516,-16.878]]},"properties":{"mode":"flight","ids":["mel-airport","cns-airport"],"km":2314.4,"min":null,"legs":[]}},{"type":"Feature","geometry":{"type":"LineString","coordinates":[[145.75235,-16.87768],[145.75316,-16.87945],[145.75409,-16.88009],[145.75549,-16.87899],[145.75677,-16.87923],[145.75718,-16.87875],[145.75831,-16.87937],[145.76001,-16.88152],[145.76229,-16.88659],[145.76224,-16.88805],[145.75986,-16.89454],[145.75784,-16.8966],[145.75893,-16.90108],[145.76052,-16.90324],[145.75861,-16.90461],[145.76431,-16.91282],[145.77158,-16.92108],[145.77216,-16.92064]]},"properties":{"mode":"transfer","ids":["cns-airport","cairns"],"km":6.5,"min":11,"legs":[{"from":"cns-airport","to":"cairns","km":6.5,"min":11}]}},{"type":"Feature","geometry":{"type":"LineString","coordinates":[[145.77804,-16.91961],[145.77831,-16.91984],[145.77806,-16.92006],[145.77797,-16.92037],[145.77769,-16.92038],[145.77719,-16.91972],[145.77699,-16.91987]]},"properties":{"mode":"walk","ids":["lagoon","nightmarkets"],"km":0.3,"min":3,"legs":[{"from":"lagoon","to":"nightmarkets","km":0.3,"min":3}]}}]}