{"type":"FeatureCollection","features":[{"type":"Feature","geometry":{"type":"LineString","coordinates":[[145.23903,-38.45019],[145.23896,-38.47867],[145.23929,-38.47996],[145.24007,-38.48096],[145.24266,-38.48199],[145.25546,-38.48206],[145.25771,-38.48254],[145.27546,-38.49976],[145.2998,-38.51208],[145.33356,-38.52082],[145.33589,-38.52082],[145.34028,-38.51994],[145.34127,-38.5193],[145.34313,-38.51636],[145.34695,-38.51496],[145.35693,-38.51462],[145.35839,-38.51502],[145.36748,-38.52039],[145.36859,-38.52066],[145.37243,-38.52042],[145.38572,-38.52204],[145.39064,-38.52086],[145.39256,-38.52078],[145.41928,-38.52433],[145.42773,-38.52271],[145.431,-38.52155],[145.43404,-38.52538],[145.43596,-38.52645],[145.44108,-38.52713],[145.44682,-38.52602],[145.44702,-38.52788],[145.44872,-38.53069],[145.45293,-38.53305],[145.4592,-38.54099],[145.46099,-38.54419],[145.46872,-38.54699],[145.47366,-38.54797],[145.48168,-38.55372],[145.49653,-38.56074],[145.49841,-38.56104],[145.51879,-38.56121],[145.54023,-38.56397],[145.54702,-38.56339],[145.55679,-38.56465],[145.55913,-38.56543],[145.56833,-38.57129],[145.57327,-38.57792],[145.57649,-38.58497],[145.57753,-38.58618],[145.58103,-38.58887],[145.59198,-38.59423],[145.59384,-38.60578],[145.60144,-38.60511],[145.60788,-38.60763],[145.6291,-38.60968],[145.63125,-38.61039],[145.63597,-38.61366],[145.63822,-38.61441],[145.67929,-38.61861],[145.70334,-38.62235],[145.71715,-38.62756],[145.73298,-38.62489],[145.74717,-38.62648],[145.75206,-38.62611],[145.75538,-38.62672],[145.76659,-38.63126],[145.79426,-38.63402],[145.79717,-38.63353],[145.80871,-38.62774],[145.81172,-38.62695],[145.81728,-38.62776],[145.82128,-38.62769],[145.82625,-38.62928],[145.83123,-38.62906],[145.83542,-38.62985],[145.8424,-38.63371],[145.85171,-38.64449],[145.85405,-38.65041],[145.85476,-38.6549],[145.85746,-38.65993],[145.86004,-38.66705],[145.86095,-38.67106],[145.86177,-38.67239],[145.86401,-38.67476],[145.87171,-38.67854],[145.87806,-38.68361],[145.88319,-38.68403],[145.89115,-38.68058],[145.89604,-38.67923],[145.90501,-38.67524],[145.9185,-38.67024],[145.9261,-38.66642],[145.92796,-38.66431],[145.92955,-38.66168],[145.94002,-38.66318],[145.94387,-38.66443],[145.97762,-38.66851],[145.97925,-38.66831],[145.98286,-38.66677],[145.98599,-38.66674],[145.99024,-38.66526],[145.99762,-38.66461],[146.00341,-38.66335],[146.00528,-38.66329],[146.0177,-38.66493],[146.01854,-38.66459],[146.02243,-38.66558],[146.02368,-38.66636],[146.03078,-38.67471],[146.03246,-38.67602],[146.03747,-38.67808],[146.04176,-38.68043],[146.04806,-38.68134],[146.0543,-38.68462],[146.05931,-38.6867],[146.06703,-38.68863],[146.0697,-38.69083],[146.07287,-38.69155],[146.07724,-38.69439],[146.0812,-38.6946],[146.08635,-38.6935],[146.0867,-38.69593],[146.08797,-38.69925],[146.08711,-38.70269],[146.08762,-38.70627],[146.08951,-38.70817],[146.08953,-38.71008],[146.09041,-38.71156],[146.09315,-38.71273],[146.09699,-38.71208],[146.09816,-38.71226],[146.09888,-38.71287],[146.09985,-38.71489],[146.10227,-38.7157],[146.10439,-38.71752],[146.10773,-38.71801],[146.11286,-38.71595],[146.11825,-38.71821],[146.11998,-38.71994],[146.12072,-38.72127],[146.1217,-38.72951],[146.12214,-38.7305],[146.12645,-38.73364],[146.12924,-38.7417],[146.13398,-38.74677],[146.13434,-38.75166],[146.13574,-38.75469],[146.13975,-38.75756],[146.14384,-38.75873],[146.14764,-38.75914],[146.15073,-38.76143],[146.16013,-38.77193],[146.16299,-38.77854],[146.1658,-38.78344],[146.17589,-38.78977],[146.19428,-38.80355],[146.1986,-38.80833],[146.2079,-38.81213],[146.21853,-38.81405],[146.22647,-38.81775],[146.23527,-38.82616],[146.23807,-38.82946],[146.24161,-38.83719],[146.2422,-38.84128],[146.24149,-38.84522],[146.24191,-38.84628],[146.24507,-38.84976],[146.24531,-38.85102],[146.24479,-38.85317],[146.24505,-38.85405],[146.24779,-38.85744],[146.25262,-38.86001],[146.25424,-38.86194],[146.26093,-38.86449],[146.26297,-38.86841],[146.26505,-38.8705],[146.26558,-38.87222],[146.26714,-38.87408],[146.26643,-38.87704],[146.26452,-38.87919],[146.26367,-38.88192],[146.26206,-38.88276],[146.25928,-38.88336],[146.25816,-38.88424],[146.25733,-38.8927],[146.2551,-38.89445],[146.24907,-38.89787],[146.24842,-38.89892],[146.24858,-38.9001],[146.25226,-38.90554],[146.25241,-38.90862],[146.2532,-38.90981],[146.25586,-38.91099],[146.25794,-38.91326],[146.26391,-38.91768],[146.26472,-38.92274],[146.26541,-38.92386],[146.26692,-38.92473],[146.27719,-38.92678],[146.27905,-38.92849],[146.27921,-38.93207],[146.27717,-38.93514],[146.27769,-38.94251],[146.28186,-38.94246],[146.28477,-38.94424],[146.2859,-38.94451],[146.28662,-38.9457],[146.28529,-38.94854],[146.28052,-38.94756],[146.27417,-38.94738],[146.27358,-38.94931],[146.27433,-38.95147],[146.28433,-38.95801],[146.2856,-38.95832],[146.29003,-38.95819],[146.29127,-38.95866],[146.29159,-38.95939],[146.29152,-38.96125],[146.291,-38.9623],[146.2883,-38.96348],[146.28143,-38.96942],[146.27723,-38.97155],[146.27756,-38.97252],[146.2789,-38.97283],[146.27971,-38.97352],[146.27968,-38.97414],[146.27822,-38.97533],[146.27778,-38.97637],[146.27856,-38.97811],[146.27812,-38.98002],[146.27836,-38.98092],[146.28134,-38.9834],[146.28411,-38.98326],[146.28662,-38.98364],[146.2875,-38.98508],[146.28932,-38.98414],[146.29142,-38.98456],[146.29342,-38.98694],[146.2938,-38.98873],[146.29349,-38.9896],[146.29047,-38.99315],[146.29037,-38.99371],[146.29161,-38.99438],[146.2923,-38.99565],[146.29516,-38.99482],[146.29565,-38.99651],[146.29774,-39.0002],[146.29916,-39.0008],[146.30086,-39.00052],[146.30251,-39.00208],[146.30237,-39.0026],[146.30042,-39.00367],[146.29979,-39.0045],[146.29794,-39.00489],[146.29576,-39.00781],[146.2959,-39.0091],[146.29813,-39.01125],[146.29842,-39.01221],[146.29939,-39.01289],[146.29802,-39.01407],[146.29811,-39.01463],[146.30135,-39.01637],[146.30424,-39.01739],[146.30594,-39.01723],[146.30727,-39.01643],[146.31126,-39.01684],[146.31183,-39.01742],[146.31142,-39.01846],[146.31159,-39.01925],[146.31468,-39.02043],[146.31361,-39.02091],[146.31057,-39.02082],[146.30615,-39.02176],[146.31057,-39.02082],[146.31361,-39.02091],[146.31468,-39.02043],[146.32318,-39.02289],[146.32924,-39.02381],[146.33412,-39.02732],[146.33817,-39.02784],[146.33828,-39.02829],[146.33737,-39.02933],[146.33764,-39.02965],[146.33876,-39.02956],[146.34027,-39.03003],[146.34281,-39.02958],[146.34502,-39.02982],[146.34676,-39.03168],[146.34736,-39.03157],[146.34791,-39.03077],[146.34948,-39.03154],[146.35062,-39.03135],[146.35234,-39.03248],[146.3537,-39.03225],[146.35526,-39.03278],[146.35475,-39.03331],[146.35308,-39.03369],[146.35273,-39.03727],[146.35044,-39.03917],[146.3502,-39.04092],[146.34979,-39.04023],[146.34938,-39.04116],[146.34745,-39.04307],[146.34794,-39.03985],[146.34764,-39.03916],[146.34811,-39.03767],[146.34696,-39.03904],[146.34677,-39.03982],[146.34661,-39.03817],[146.3455,-39.03835],[146.34566,-39.03946],[146.3455,-39.03835],[146.34661,-39.03817],[146.34677,-39.03982],[146.34696,-39.03904],[146.34811,-39.03767],[146.34764,-39.03916],[146.34794,-39.03985],[146.3475,-39.04305],[146.34938,-39.04116],[146.34979,-39.04023],[146.3502,-39.04092],[146.35044,-39.03917],[146.35273,-39.03727],[146.35308,-39.03369],[146.35475,-39.03331],[146.35526,-39.03278],[146.3537,-39.03225],[146.35234,-39.03248],[146.35062,-39.03135],[146.34948,-39.03154],[146.34791,-39.03077],[146.34736,-39.03157],[146.34676,-39.03168],[146.34502,-39.02982],[146.34281,-39.02958],[146.34027,-39.03003],[146.33876,-39.02956],[146.33764,-39.02965],[146.33737,-39.02933],[146.33828,-39.02829],[146.33817,-39.02784],[146.33393,-39.02731],[146.32971,-39.02983],[146.32573,-39.03078],[146.32436,-39.0328],[146.32309,-39.03312],[146.32054,-39.03232]]},"properties":{"mode":"drive","ids":["cowes","promwildlife","squeaky","oberon","tidalriver"],"km":160.7,"min":180,"legs":[{"from":"cowes","to":"promwildlife","km":130.4,"min":123},{"from":"promwildlife","to":"squeaky","km":15.2,"min":25},{"from":"squeaky","to":"oberon","km":12.1,"min":26},{"from":"oberon","to":"tidalriver","km":3.0,"min":6}]}}]}