{"type":"FeatureCollection","features":[{"type":"Feature","geometry":{"type":"LineString","coordinates":[[144.96297,-37.81364],[144.96417,-37.81623],[144.95428,-37.8191],[144.95521,-37.82114],[144.94853,-37.82298],[144.94819,-37.82348],[144.94827,-37.82538],[144.94712,-37.82637],[144.94157,-37.82565],[144.93779,-37.82569],[144.93268,-37.82623],[144.92479,-37.82778],[144.92144,-37.82886],[144.91316,-37.83312],[144.90961,-37.83388],[144.90475,-37.83324],[144.89368,-37.82708],[144.8881,-37.82548],[144.88015,-37.82549],[144.87465,-37.82471],[144.86925,-37.8245],[144.84899,-37.82527],[144.84849,-37.82401],[144.84866,-37.823],[144.84441,-37.82252],[144.84104,-37.81914],[144.82502,-37.82362],[144.82041,-37.82709],[144.81667,-37.82872],[144.81116,-37.83255],[144.78203,-37.84654],[144.78031,-37.84905],[144.77672,-37.86363],[144.77552,-37.86555],[144.77308,-37.86727],[144.77027,-37.86809],[144.75125,-37.86994],[144.71512,-37.87902],[144.71221,-37.88027],[144.71066,-37.88165],[144.70956,-37.88363],[144.70933,-37.8856],[144.71021,-37.8908],[144.70754,-37.89785],[144.70583,-37.89945],[144.69371,-37.90774],[144.62745,-37.93041],[144.56344,-37.96534],[144.54563,-37.9758],[144.51684,-37.99058],[144.42015,-38.03552],[144.41068,-38.04125],[144.39425,-38.05458],[144.39251,-38.05564],[144.38637,-38.05746],[144.37604,-38.05964],[144.36951,-38.06],[144.34924,-38.05921],[144.34517,-38.06001],[144.34114,-38.06202],[144.33909,-38.06385],[144.33734,-38.06652],[144.33381,-38.07864],[144.33059,-38.08527],[144.32859,-38.08782],[144.32388,-38.09177],[144.32189,-38.09502],[144.32039,-38.10127],[144.32069,-38.10892],[144.32038,-38.11239],[144.31733,-38.12502],[144.31639,-38.12715],[144.3144,-38.12978],[144.31154,-38.1321],[144.30712,-38.13402],[144.30172,-38.13542],[144.29878,-38.13684],[144.29692,-38.13852],[144.29535,-38.14115],[144.29489,-38.14435],[144.29553,-38.15496],[144.29459,-38.15941],[144.29199,-38.16667],[144.29188,-38.16953],[144.29234,-38.17207],[144.2933,-38.17443],[144.29535,-38.17737],[144.29731,-38.17925],[144.30433,-38.18433],[144.30839,-38.18871],[144.3109,-38.19254],[144.31131,-38.19444],[144.31117,-38.19618],[144.31031,-38.19815],[144.30906,-38.19963],[144.30362,-38.20321],[144.29113,-38.21545],[144.2881,-38.21778],[144.28814,-38.21885],[144.28053,-38.22748],[144.27855,-38.23942],[144.27855,-38.24226],[144.27756,-38.24508],[144.27384,-38.26429],[144.27288,-38.26585],[144.27049,-38.26778],[144.26959,-38.26961],[144.27054,-38.28051],[144.26526,-38.30817],[144.26545,-38.30873],[144.2639,-38.31548],[144.26489,-38.32234],[144.26476,-38.3276],[144.26352,-38.32927],[144.26057,-38.33002],[144.25948,-38.33067],[144.25884,-38.3325],[144.25949,-38.33488],[144.26191,-38.337],[144.2627,-38.33875],[144.27117,-38.33687],[144.28639,-38.33863],[144.28542,-38.34509],[144.28253,-38.35824],[144.28759,-38.35886],[144.2884,-38.35973],[144.28489,-38.36643],[144.28297,-38.36773],[144.28205,-38.36891],[144.28257,-38.36795],[144.28492,-38.36633],[144.28161,-38.36753],[144.2798,-38.36968],[144.2788,-38.37031],[144.27362,-38.37093],[144.27186,-38.37171],[144.24424,-38.3684],[144.24328,-38.37163],[144.24133,-38.37313],[144.23874,-38.37349],[144.22873,-38.37256],[144.20743,-38.38003],[144.20652,-38.38077],[144.20624,-38.38186],[144.20793,-38.38427],[144.20801,-38.38536],[144.20736,-38.38634],[144.20454,-38.38813],[144.2043,-38.38919],[144.20485,-38.39087],[144.20447,-38.39192],[144.20269,-38.39412],[144.20012,-38.39578],[144.19709,-38.40038],[144.19385,-38.4023],[144.1926,-38.4035],[144.19201,-38.40485],[144.18805,-38.40548],[144.1865,-38.40704],[144.18663,-38.40997],[144.18847,-38.4122],[144.18838,-38.41302],[144.18515,-38.4141],[144.18191,-38.41662],[144.17857,-38.41711],[144.17781,-38.41841],[144.1732,-38.42134],[144.16994,-38.42523],[144.16792,-38.42672],[144.16471,-38.428],[144.15513,-38.42857],[144.15143,-38.42953],[144.14362,-38.43022],[144.13812,-38.4319],[144.13487,-38.43246],[144.13245,-38.43369],[144.12839,-38.4348],[144.12661,-38.43747],[144.1234,-38.43852],[144.11988,-38.44167],[144.11789,-38.44521],[144.10779,-38.4556],[144.10627,-38.46088],[144.10842,-38.46189],[144.10533,-38.46594],[144.10575,-38.46626],[144.10461,-38.46793],[144.10575,-38.46614],[144.10366,-38.46514],[144.10335,-38.46444],[144.10149,-38.4642],[144.0984,-38.46558],[144.09583,-38.4649],[144.09367,-38.46501],[144.09175,-38.46585],[144.09033,-38.46734],[144.08896,-38.46789],[144.06791,-38.4686],[144.06613,-38.46829],[144.06057,-38.46947],[144.0468,-38.47133],[144.04011,-38.4736],[144.03577,-38.47566],[144.03326,-38.47793],[144.03294,-38.47992],[144.03363,-38.48093],[144.03231,-38.4819],[144.03132,-38.48142],[144.03001,-38.48138],[144.02817,-38.48214],[144.02633,-38.48158],[144.02583,-38.48066],[144.02518,-38.48063],[144.02529,-38.4833],[144.02192,-38.48375],[144.02154,-38.48439],[144.02291,-38.4841],[144.0266,-38.48439],[144.02859,-38.48532],[144.02884,-38.48627],[144.02202,-38.48977],[144.01866,-38.48995],[144.01764,-38.49081],[144.01652,-38.49113],[144.01563,-38.49315],[144.0148,-38.49403],[144.01363,-38.49429],[144.01308,-38.49593],[144.0116,-38.49677],[144.01094,-38.49797],[144.01032,-38.49791],[144.00957,-38.49719],[144.00827,-38.4974],[144.00835,-38.49775],[144.00923,-38.49785],[144.00943,-38.49906],[144.00531,-38.50169],[144.0048,-38.50462],[144.00365,-38.5065],[144.00311,-38.5085],[144.00121,-38.51034],[143.9983,-38.5114],[143.99772,-38.51249],[143.99268,-38.51746],[143.98898,-38.51998],[143.98557,-38.52422],[143.98476,-38.52582],[143.98243,-38.52798],[143.97905,-38.53212],[143.97341,-38.53603],[143.97513,-38.53787],[143.97534,-38.54156],[143.97474,-38.54161],[143.97465,-38.54095],[143.96735,-38.54168],[143.96551,-38.54148],[143.96479,-38.54094],[143.96328,-38.54151],[143.96211,-38.54074],[143.96042,-38.54035],[143.95956,-38.53932],[143.95945,-38.53818],[143.95705,-38.53638],[143.95453,-38.53314],[143.95197,-38.53245],[143.95103,-38.53132],[143.9501,-38.53088],[143.94686,-38.53094],[143.94501,-38.53008],[143.94273,-38.5282],[143.94156,-38.52611],[143.9363,-38.52226],[143.9356,-38.52091],[143.93286,-38.52073],[143.93208,-38.5203],[143.93043,-38.5182],[143.93248,-38.51656],[143.93239,-38.51593],[143.92984,-38.51617],[143.92684,-38.51584],[143.92182,-38.51427],[143.91854,-38.51511],[143.91426,-38.51524],[143.91262,-38.5152],[143.90971,-38.5144],[143.90732,-38.51435],[143.90511,-38.51479],[143.90438,-38.51453],[143.90323,-38.51295],[143.90154,-38.51212],[143.90115,-38.51108],[143.90155,-38.51019],[143.90428,-38.50949],[143.90617,-38.50816],[143.90836,-38.50782],[143.9095,-38.50685],[143.91099,-38.50729],[143.9126,-38.50687],[143.91099,-38.50729],[143.90967,-38.50681],[143.90836,-38.50782],[143.90617,-38.50816],[143.90428,-38.50949],[143.90155,-38.51019],[143.90118,-38.51081],[143.90128,-38.51167],[143.90177,-38.51235],[143.90348,-38.51315],[143.90438,-38.51453],[143.90511,-38.51479],[143.90732,-38.51435],[143.90971,-38.5144],[143.91262,-38.5152],[143.91426,-38.51524],[143.91854,-38.51511],[143.92182,-38.51427],[143.92684,-38.51584],[143.92984,-38.51617],[143.93239,-38.51593],[143.93248,-38.51656],[143.93044,-38.51806],[143.93184,-38.52005],[143.93286,-38.52073],[143.9356,-38.52091],[143.9363,-38.52226],[143.94183,-38.52637],[143.94273,-38.5282],[143.94472,-38.52989],[143.94686,-38.53094],[143.9501,-38.53088],[143.95103,-38.53132],[143.95197,-38.53245],[143.95424,-38.53296],[143.95705,-38.53638],[143.95945,-38.53818],[143.95947,-38.5391],[143.96024,-38.5402],[143.96211,-38.54074],[143.9631,-38.54149],[143.96479,-38.54094],[143.96551,-38.54148],[143.96735,-38.54168],[143.97395,-38.541],[143.97424,-38.54302],[143.97527,-38.54419],[143.97746,-38.54506],[143.9783,-38.545],[143.98408,-38.54856],[143.98361,-38.55129],[143.98464,-38.55144],[143.98392,-38.55218],[143.98358,-38.55331],[143.98139,-38.55488],[143.97741,-38.55554],[143.97705,-38.55421],[143.97615,-38.55413],[143.97587,-38.55509],[143.97506,-38.55593],[143.97525,-38.55659],[143.97638,-38.55724],[143.97586,-38.55925],[143.97631,-38.56104],[143.97424,-38.56371],[143.97343,-38.56562],[143.97228,-38.56632],[143.96895,-38.56719],[143.96657,-38.56669],[143.9651,-38.56889],[143.96493,-38.57059],[143.9601,-38.57514],[143.95918,-38.57538],[143.95675,-38.57507],[143.95472,-38.57638],[143.95274,-38.57598],[143.95082,-38.57622],[143.94951,-38.57512],[143.94842,-38.57515],[143.94809,-38.57556],[143.94811,-38.577],[143.94526,-38.57938],[143.94494,-38.5803],[143.94171,-38.58183],[143.93755,-38.58269],[143.93721,-38.5838],[143.93604,-38.58437],[143.93472,-38.58607],[143.93367,-38.58632],[143.93384,-38.58717],[143.93332,-38.58774],[143.92675,-38.58951],[143.92289,-38.59208],[143.92115,-38.59413],[143.92064,-38.59534],[143.91912,-38.59653],[143.9209,-38.6015],[143.9193,-38.60364],[143.91946,-38.60569],[143.9166,-38.60968],[143.91644,-38.61059],[143.91493,-38.61169],[143.91589,-38.6138],[143.91574,-38.61463],[143.91172,-38.61794],[143.91158,-38.61958],[143.90891,-38.6225],[143.9086,-38.62391],[143.90753,-38.6255],[143.90221,-38.62939],[143.90011,-38.62924],[143.89873,-38.62976],[143.89665,-38.63213],[143.89498,-38.63318],[143.89387,-38.63353],[143.89221,-38.63317],[143.89137,-38.63367],[143.89086,-38.63486],[143.89184,-38.63719],[143.89183,-38.63934],[143.89289,-38.64024],[143.89313,-38.64171],[143.88985,-38.64184],[143.88723,-38.64276],[143.88511,-38.6442],[143.88297,-38.64735],[143.88123,-38.64786],[143.88071,-38.64864],[143.87906,-38.64967],[143.87445,-38.65103],[143.87141,-38.65313],[143.86972,-38.65515],[143.8692,-38.65698],[143.86766,-38.65787],[143.86396,-38.66209],[143.86409,-38.66382],[143.86362,-38.66579],[143.86195,-38.66672],[143.86163,-38.66765],[143.85936,-38.66813],[143.85922,-38.66715],[143.85936,-38.66813],[143.86163,-38.66765],[143.86289,-38.66996],[143.86437,-38.67058],[143.8647,-38.67157],[143.86118,-38.67197],[143.85932,-38.67358],[143.85723,-38.6743],[143.85368,-38.67433],[143.84691,-38.67662],[143.84342,-38.67681],[143.84229,-38.67738],[143.84087,-38.67929],[143.8404,-38.6817],[143.83908,-38.68232],[143.83921,-38.68376],[143.83659,-38.6882],[143.83749,-38.68905],[143.83711,-38.6908],[143.83576,-38.69193],[143.83245,-38.6921],[143.8277,-38.69164],[143.82542,-38.69199],[143.8241,-38.6914],[143.82281,-38.69135],[143.82186,-38.69045],[143.81918,-38.69066],[143.81402,-38.69262],[143.81154,-38.69297],[143.80967,-38.69247],[143.80678,-38.69398],[143.80466,-38.69426],[143.803,-38.69586],[143.80144,-38.69655],[143.79508,-38.69684],[143.78769,-38.69867],[143.78023,-38.70133],[143.77602,-38.70226],[143.77527,-38.70282],[143.77471,-38.70447],[143.77175,-38.70441],[143.76985,-38.70574],[143.76877,-38.70583],[143.76752,-38.70508],[143.76269,-38.70444],[143.76198,-38.70552],[143.75896,-38.70668],[143.75768,-38.70622],[143.75621,-38.70631],[143.75587,-38.7073],[143.75437,-38.7083],[143.75252,-38.71033],[143.74947,-38.71193],[143.74703,-38.71227],[143.74341,-38.7137],[143.73987,-38.71388],[143.73219,-38.71706],[143.72989,-38.71674],[143.72779,-38.7173],[143.72507,-38.71956],[143.71696,-38.72449],[143.71567,-38.72473],[143.71306,-38.72412],[143.71121,-38.72427],[143.70763,-38.72685],[143.70458,-38.72757],[143.70273,-38.72888],[143.69888,-38.72968],[143.69223,-38.73267],[143.68868,-38.73331],[143.68382,-38.73516],[143.678,-38.73916],[143.67329,-38.74411],[143.67083,-38.74766],[143.66901,-38.75285],[143.66899,-38.75476]]},"properties":{"mode":"drive","ids":["melbourne","torquay","splitpoint","memarch","lorne","erskine","kennett","apollobay"],"km":214.3,"min":220,"legs":[{"from":"melbourne","to":"torquay","km":107.2,"min":94},{"from":"torquay","to":"splitpoint","km":23.4,"min":27},{"from":"splitpoint","to":"memarch","km":5.9,"min":7},{"from":"memarch","to":"lorne","km":13.0,"min":15},{"from":"lorne","to":"erskine","km":9.9,"min":15},{"from":"erskine","to":"kennett","km":32.0,"min":39},{"from":"kennett","to":"apollobay","km":22.9,"min":24}]}}]}