{"type":"FeatureCollection","features":[{"type":"Feature","geometry":{"type":"LineString","coordinates":[[142.99535,-38.61961],[142.99888,-38.61738],[142.99894,-38.61565],[143.00035,-38.6122],[142.99773,-38.61211],[142.99619,-38.61451],[142.99457,-38.61547],[142.99408,-38.61651],[142.99273,-38.61693],[142.98104,-38.61656],[142.97858,-38.61769],[142.97638,-38.61817],[142.96016,-38.61545],[142.95607,-38.61567],[142.94934,-38.61833],[142.94354,-38.62139],[142.94146,-38.62173],[142.93465,-38.62167],[142.93447,-38.622],[142.93274,-38.62229],[142.93286,-38.62199],[142.93447,-38.622],[142.93465,-38.62167],[142.93115,-38.62111],[142.92029,-38.61588],[142.91748,-38.61518],[142.91652,-38.61661],[142.91589,-38.61635],[142.91576,-38.61579],[142.91652,-38.61661],[142.91748,-38.61518],[142.92029,-38.61588],[142.92614,-38.61892],[142.93223,-38.62147],[142.94146,-38.62173],[142.94441,-38.6211],[142.94934,-38.61833],[142.95564,-38.61572],[142.96016,-38.61545],[142.97638,-38.61817],[142.97858,-38.61769],[142.98104,-38.61656],[142.99245,-38.61695],[142.99408,-38.61651],[142.99457,-38.61547],[142.99644,-38.61423],[142.99773,-38.61211],[143.00035,-38.6122],[143.00081,-38.60954],[143.00009,-38.60546],[143.00143,-38.59889],[143.00794,-38.59246],[143.00865,-38.59069],[143.00993,-38.58941],[143.01052,-38.5874],[143.01161,-38.58573],[143.01218,-38.58308],[143.01351,-38.57985],[143.01357,-38.57802],[143.01267,-38.574],[143.0139,-38.56667],[143.01174,-38.56347],[143.01072,-38.56028],[143.01317,-38.55739],[143.01586,-38.55504],[143.01942,-38.53575],[143.02074,-38.53464],[143.02486,-38.53402],[143.02622,-38.53329],[143.02677,-38.5325],[143.02733,-38.53004],[143.02856,-38.52796],[143.02835,-38.52382],[143.02952,-38.52084],[143.02935,-38.51737],[143.03592,-38.48022],[143.02982,-38.47115],[143.02926,-38.47001],[143.02938,-38.46865],[143.03054,-38.46664],[143.0333,-38.46502],[143.03515,-38.46295],[143.0378,-38.4588],[143.04168,-38.45449],[143.04261,-38.45379],[143.04704,-38.45214],[143.04979,-38.4499],[143.05015,-38.44881],[143.05001,-38.44526],[143.05094,-38.44078],[143.05162,-38.43968],[143.0594,-38.43249],[143.06,-38.42785],[143.06115,-38.42435],[143.06119,-38.42189],[143.06187,-38.42029],[143.06579,-38.41707],[143.07271,-38.41483],[143.07567,-38.41312],[143.08236,-38.41031],[143.08745,-38.4071],[143.08804,-38.40631],[143.08564,-38.40177],[143.08571,-38.39989],[143.08522,-38.39909],[143.08328,-38.39776],[143.08049,-38.39684],[143.0799,-38.39599],[143.07957,-38.39366],[143.07915,-38.39312],[143.07664,-38.39259],[143.07533,-38.39277],[143.07427,-38.39174],[143.0728,-38.39154],[143.06805,-38.38544],[143.06745,-38.38211],[143.06666,-38.3806],[143.06562,-38.37947],[143.06045,-38.37587],[143.05887,-38.37078],[143.05703,-38.36894],[143.05595,-38.36532],[143.05758,-38.35526],[143.05711,-38.35465],[143.05489,-38.35417],[143.05412,-38.35285],[143.05566,-38.34323],[143.05272,-38.33989],[143.05125,-38.33667],[143.06078,-38.33366],[143.06179,-38.33196],[143.06255,-38.32708],[143.07246,-38.32474],[143.07579,-38.32348],[143.08159,-38.31941],[143.08613,-38.31491],[143.09311,-38.32047],[143.09472,-38.321],[143.09961,-38.32152],[143.10824,-38.32487],[143.11359,-38.32796],[143.12464,-38.33666],[143.13156,-38.33987],[143.1347,-38.34083],[143.13864,-38.343],[143.14089,-38.34337],[143.14459,-38.34275],[143.15163,-38.34378],[143.15678,-38.34371],[143.16029,-38.34425],[143.16483,-38.34619],[143.17841,-38.3474],[143.18386,-38.34871],[143.19864,-38.34816],[143.21114,-38.34935],[143.21293,-38.34914],[143.21705,-38.3469],[143.23329,-38.33508],[143.23514,-38.33433],[143.24007,-38.3334],[143.24709,-38.32871],[143.24979,-38.3277],[143.25189,-38.32761],[143.28684,-38.33146],[143.29513,-38.3315],[143.2992,-38.33084],[143.32421,-38.32439],[143.33496,-38.32548],[143.34019,-38.3256],[143.34187,-38.32736],[143.3515,-38.33403],[143.36132,-38.33955],[143.36362,-38.34007],[143.36717,-38.33993],[143.37267,-38.34097],[143.38515,-38.3444],[143.38975,-38.34452],[143.39342,-38.34589],[143.39673,-38.3488],[143.40122,-38.34947],[143.40315,-38.34925],[143.40681,-38.34807],[143.41182,-38.34735],[143.41821,-38.34893],[143.42496,-38.34854],[143.43561,-38.35092],[143.43799,-38.35106],[143.45637,-38.34509],[143.47433,-38.34212],[143.50596,-38.33703],[143.54019,-38.33435],[143.55179,-38.33489],[143.5691,-38.33679],[143.58329,-38.33961],[143.58704,-38.33966],[143.5844,-38.33982],[143.59189,-38.3395],[143.60349,-38.33622],[143.61567,-38.33365],[143.61822,-38.33214],[143.62193,-38.32789],[143.62609,-38.32526],[143.62663,-38.32451],[143.62808,-38.32418],[143.63819,-38.31862],[143.64874,-38.31521],[143.65677,-38.31174],[143.65939,-38.31101],[143.66654,-38.31056],[143.68573,-38.31208],[143.72365,-38.31179],[143.73021,-38.30945],[143.76434,-38.30094],[143.76728,-38.30077],[143.77367,-38.30152],[143.77896,-38.30128],[143.80846,-38.29503],[143.81263,-38.29382],[143.82456,-38.29325],[143.83094,-38.29233],[143.83415,-38.29124],[143.84037,-38.28797],[143.84635,-38.2865],[143.85605,-38.28272],[143.88027,-38.27538],[143.89678,-38.2683],[143.90766,-38.26316],[143.94375,-38.25805],[143.9565,-38.25309],[143.98912,-38.24339],[143.98983,-38.24291],[143.99194,-38.23985],[143.99943,-38.2357],[144.0135,-38.2344],[144.03437,-38.23093],[144.0434,-38.22855],[144.07649,-38.21671],[144.08437,-38.21465],[144.0914,-38.21403],[144.13358,-38.21368],[144.20415,-38.21202],[144.21267,-38.21224],[144.25194,-38.21137],[144.2576,-38.21191],[144.2612,-38.21284],[144.26363,-38.21388],[144.26854,-38.21697],[144.27357,-38.21877],[144.27857,-38.21927],[144.28406,-38.21854],[144.28786,-38.21712],[144.29122,-38.215],[144.3036,-38.20311],[144.30886,-38.19963],[144.31068,-38.19694],[144.31109,-38.19476],[144.31093,-38.19329],[144.30907,-38.18993],[144.30482,-38.18506],[144.29536,-38.17766],[144.29328,-38.1749],[144.29204,-38.17187],[144.2916,-38.16845],[144.29181,-38.16631],[144.2945,-38.15885],[144.29525,-38.15551],[144.29539,-38.15203],[144.29465,-38.14462],[144.295,-38.14148],[144.29618,-38.13909],[144.29838,-38.13685],[144.30142,-38.13528],[144.30697,-38.13391],[144.31032,-38.13256],[144.3134,-38.13044],[144.31618,-38.12704],[144.31739,-38.12407],[144.32022,-38.11203],[144.32046,-38.10943],[144.32012,-38.10198],[144.32065,-38.09845],[144.32171,-38.09492],[144.32348,-38.09188],[144.3282,-38.0879],[144.33042,-38.08514],[144.33347,-38.07891],[144.33737,-38.06596],[144.3394,-38.06323],[144.34233,-38.06104],[144.34561,-38.05968],[144.34958,-38.05901],[144.36895,-38.05981],[144.37536,-38.05954],[144.38653,-38.05733],[144.39214,-38.05568],[144.39373,-38.05476],[144.41018,-38.04116],[144.42021,-38.03518],[144.51307,-37.99222],[144.54843,-37.97396],[144.5629,-37.96537],[144.62314,-37.93245],[144.62715,-37.9295],[144.63445,-37.92769],[144.69305,-37.90775],[144.70572,-37.89926],[144.70726,-37.89778],[144.70991,-37.8908],[144.70894,-37.88544],[144.70909,-37.8835],[144.71014,-37.88153],[144.71161,-37.88019],[144.7152,-37.87874],[144.75089,-37.8698],[144.77023,-37.8679],[144.77317,-37.867],[144.7752,-37.86554],[144.77649,-37.86365],[144.78004,-37.84912],[144.78194,-37.84629],[144.78374,-37.84513],[144.81079,-37.83234],[144.81357,-37.83065],[144.81698,-37.82783],[144.81981,-37.8263],[144.82386,-37.82553],[144.83753,-37.82544],[144.84853,-37.82475],[144.86852,-37.82428],[144.88068,-37.82534],[144.8874,-37.82525],[144.89334,-37.82674],[144.90483,-37.8331],[144.90737,-37.83366],[144.90998,-37.83369],[144.91337,-37.83287],[144.92134,-37.82869],[144.92448,-37.82766],[144.93574,-37.82559],[144.94076,-37.82534],[144.94735,-37.82595],[144.94799,-37.82522],[144.94792,-37.82343],[144.94841,-37.8228],[144.9599,-37.81956],[144.95722,-37.81368],[144.96231,-37.8122],[144.96297,-37.81364]]},"properties":{"mode":"drive","ids":["portcampbell","londonarch","grotto","colac","melbourne"],"km":257.1,"min":214,"legs":[{"from":"portcampbell","to":"londonarch","km":7.5,"min":8},{"from":"londonarch","to":"grotto","km":2.1,"min":3},{"from":"grotto","to":"colac","km":95.7,"min":80},{"from":"colac","to":"melbourne","km":151.7,"min":123}]}}]}